[{"id":"1102031001","district_id":"1102031","name":"PERTAMPAKAN","postal_code":"24784"},{"id":"1102031002","district_id":"1102031","name":"TANAH MERAH","postal_code":"98363"},{"id":"1102031003","district_id":"1102031","name":"SEBATANG","postal_code":"24784"},{"id":"1102031004","district_id":"1102031","name":"SEPING BARU","postal_code":"24784"},{"id":"1102031005","district_id":"1102031","name":"PERANGUSAN","postal_code":"24784"},{"id":"1102031006","district_id":"1102031","name":"GUNUNG LAGAN","postal_code":"24784"},{"id":"1102031007","district_id":"1102031","name":"TANAH BARA","postal_code":"24784"},{"id":"1102031008","district_id":"1102031","name":"SUKA MAKMUR","postal_code":"34595"},{"id":"1102031009","district_id":"1102031","name":"SIDOREJO","postal_code":"56361"},{"id":"1102031010","district_id":"1102031","name":"PANDAN SARI","postal_code":"72211"},{"id":"1102031011","district_id":"1102031","name":"BLOK 31","postal_code":"24784"},{"id":"1102031012","district_id":"1102031","name":"BLOK 18","postal_code":"24784"},{"id":"1102031013","district_id":"1102031","name":"SANGGABERU SILULUSAN","postal_code":"24784"},{"id":"1102031014","district_id":"1102031","name":"BLOK 15","postal_code":"24784"},{"id":"1102031015","district_id":"1102031","name":"TULAAN","postal_code":"24784"},{"id":"1102031016","district_id":"1102031","name":"BLOK VI BARU","postal_code":"24784"},{"id":"1102031017","district_id":"1102031","name":"TUNAS HARAPAN","postal_code":"78683"},{"id":"1102031018","district_id":"1102031","name":"LAE BUTAR","postal_code":"24784"},{"id":"1102031019","district_id":"1102031","name":"RIMO","postal_code":"24784"},{"id":"1102031020","district_id":"1102031","name":"SIANJO ANJO MERIAH","postal_code":"24784"},{"id":"1102031021","district_id":"1102031","name":"CINGKAM","postal_code":"24784"},{"id":"1102031022","district_id":"1102031","name":"BUKIT HARAPAN","postal_code":"34767"},{"id":"1102031023","district_id":"1102031","name":"PENJAHITAN","postal_code":"24784"},{"id":"1102031024","district_id":"1102031","name":"TANJUNG BETIK","postal_code":"24784"},{"id":"1102031025","district_id":"1102031","name":"LABUHAN KERA","postal_code":"84191"}]