[{"id":"1103010001","district_id":"1103010","name":"KUTA PADANG","postal_code":"23894"},{"id":"1103010002","district_id":"1103010","name":"RAKET","postal_code":"23774"},{"id":"1103010003","district_id":"1103010","name":"GAMPONG TENGAH","postal_code":"24374"},{"id":"1103010004","district_id":"1103010","name":"TEPIN TINGGI","postal_code":"75774"},{"id":"1103010005","district_id":"1103010","name":"IE MEUDAMA","postal_code":"23774"},{"id":"1103010009","district_id":"1103010","name":"UJONG TAN0H","postal_code":"23657"},{"id":"1103010010","district_id":"1103010","name":"KEUDE TRUMON","postal_code":"23774"},{"id":"1103010011","district_id":"1103010","name":"KUTA BARU","postal_code":"15560"},{"id":"1103010012","district_id":"1103010","name":"SINGLENG","postal_code":"46196"},{"id":"1103010013","district_id":"1103010","name":"PANTON BILI","postal_code":"24263"},{"id":"1103010027","district_id":"1103010","name":"UPT II PD HARAPAN","postal_code":"96271"},{"id":"1103010030","district_id":"1103010","name":"SEUNABOK JAYA (EX UPT V)","postal_code":"23774"}]