[{"id":"1103050001","district_id":"1103050","name":"GUNUNG KERAMBIL","postal_code":"23711"},{"id":"1103050002","district_id":"1103050","name":"AIR BERUDANG","postal_code":"23711"},{"id":"1103050003","district_id":"1103050","name":"LHOK KETAPANG","postal_code":"24382"},{"id":"1103050004","district_id":"1103050","name":"HILIR","postal_code":"78563"},{"id":"1103050005","district_id":"1103050","name":"PASAR","postal_code":"27411"},{"id":"1103050006","district_id":"1103050","name":"PADANG","postal_code":"70852"},{"id":"1103050007","district_id":"1103050","name":"TEPI AIR","postal_code":"23712"},{"id":"1103050008","district_id":"1103050","name":"HULU","postal_code":"23714"},{"id":"1103050009","district_id":"1103050","name":"JAMBO APHA","postal_code":"23716"},{"id":"1103050010","district_id":"1103050","name":"LHOK BENGKUANG","postal_code":"23715"},{"id":"1103050011","district_id":"1103050","name":"BATU ITAM","postal_code":"33414"},{"id":"1103050012","district_id":"1103050","name":"PANJUPIAN","postal_code":"23711"},{"id":"1103050013","district_id":"1103050","name":"LHOK RUKAM","postal_code":"23711"},{"id":"1103050014","district_id":"1103050","name":"AIR PINANG","postal_code":"23891"},{"id":"1103050015","district_id":"1103050","name":"PANTON LUAS","postal_code":"23711"},{"id":"1103050016","district_id":"1103050","name":"LHOK BENGKUANG TIMUR","postal_code":"23712"}]