[{"id":"1104011001","district_id":"1104011","name":"PENGUHAPAN","postal_code":"24673"},{"id":"1104011002","district_id":"1104011","name":"SALIM PIPIT","postal_code":"24673"},{"id":"1104011003","district_id":"1104011","name":"LAWE SUMUR","postal_code":"24671"},{"id":"1104011004","district_id":"1104011","name":"UNING SIGUGUR","postal_code":"24673"},{"id":"1104011005","district_id":"1104011","name":"KUTA LANG LANG","postal_code":"23671"},{"id":"1104011006","district_id":"1104011","name":"LUMBAN SITIO TIO","postal_code":"22472"},{"id":"1104011007","district_id":"1104011","name":"MERANTI","postal_code":"28382"},{"id":"1104011008","district_id":"1104011","name":"PERDAMEAN","postal_code":"21426"},{"id":"1104011009","district_id":"1104011","name":"MUTIARA DAMAI","postal_code":"24673"},{"id":"1104011010","district_id":"1104011","name":"LUMBAN TUA","postal_code":"24673"},{"id":"1104011011","district_id":"1104011","name":"DOLOK NAULI","postal_code":"22384"},{"id":"1104011012","district_id":"1104011","name":"TUHI JONGKAT","postal_code":"24673"},{"id":"1104011013","district_id":"1104011","name":"TITI MAS","postal_code":"24673"},{"id":"1104011017","district_id":"1104011","name":"LAWE MALUN","postal_code":"24673"},{"id":"1104011018","district_id":"1104011","name":"ALUR BANING","postal_code":"24673"},{"id":"1104011019","district_id":"1104011","name":"SIGAI INDAH","postal_code":"24673"},{"id":"1104011020","district_id":"1104011","name":"SUMUR ALAS","postal_code":"59157"},{"id":"1104011021","district_id":"1104011","name":"TUAH MESADE","postal_code":"24673"},{"id":"1104011022","district_id":"1104011","name":"LINGGA ALAS","postal_code":"21174"},{"id":"1104011023","district_id":"1104011","name":"RAMBUNG TUBUNG","postal_code":"20721"},{"id":"1104011024","district_id":"1104011","name":"SPERINDING","postal_code":"31315"},{"id":"1104011025","district_id":"1104011","name":"TANAH SUBUR","postal_code":"25224"},{"id":"1104011026","district_id":"1104011","name":"PINGGAN MBLANG","postal_code":"24673"},{"id":"1104011027","district_id":"1104011","name":"UKIR DELENG","postal_code":"59265"},{"id":"1104011028","district_id":"1104011","name":"ALAS MESIKHAT","postal_code":"24673"},{"id":"1104011029","district_id":"1104011","name":"TITI HARAPAN","postal_code":"24458"},{"id":"1104011030","district_id":"1104011","name":"ALUR BARU","postal_code":"24673"}]