[{"id":"1104030016","district_id":"1104030","name":"TUALANG SEMBILAR","postal_code":"24671"},{"id":"1104030017","district_id":"1104030","name":"TERUTUNG PAYUNG HILIR","postal_code":"24671"},{"id":"1104030018","district_id":"1104030","name":"TERUTUNG PAYUNG HULU","postal_code":"24671"},{"id":"1104030019","district_id":"1104030","name":"LIKAT","postal_code":"24671"},{"id":"1104030020","district_id":"1104030","name":"RIKIT","postal_code":"24671"},{"id":"1104030021","district_id":"1104030","name":"KUNING I","postal_code":"24671"},{"id":"1104030022","district_id":"1104030","name":"CINTA DAMAI","postal_code":"22383"},{"id":"1104030023","district_id":"1104030","name":"KUNING II","postal_code":"24671"},{"id":"1104030024","district_id":"1104030","name":"KUTA LANG LANG","postal_code":"23671"},{"id":"1104030025","district_id":"1104030","name":"PEDESI","postal_code":"24671"},{"id":"1104030026","district_id":"1104030","name":"BIAK MULI","postal_code":"24671"},{"id":"1104030027","district_id":"1104030","name":"TERUTUNG MEGARA ASLI","postal_code":"24671"},{"id":"1104030028","district_id":"1104030","name":"PINDING","postal_code":"24671"},{"id":"1104030029","district_id":"1104030","name":"LAWE HIJO","postal_code":"24671"},{"id":"1104030034","district_id":"1104030","name":"BAMBEL GABUNGAN","postal_code":"24671"},{"id":"1104030040","district_id":"1104030","name":"PULO KEDONDONG","postal_code":"24671"},{"id":"1104030041","district_id":"1104030","name":"PULO PERENGGE","postal_code":"24671"},{"id":"1104030042","district_id":"1104030","name":"KUTE ANTARA","postal_code":"24671"},{"id":"1104030046","district_id":"1104030","name":"TERUTUNG SEPERAI","postal_code":"24671"},{"id":"1104030047","district_id":"1104030","name":"LAWE KIHING","postal_code":"24651"},{"id":"1104030048","district_id":"1104030","name":"BAMBEL","postal_code":"24671"},{"id":"1104030049","district_id":"1104030","name":"KUTE SERI","postal_code":"24671"},{"id":"1104030050","district_id":"1104030","name":"KUTA BULUH","postal_code":"22155"},{"id":"1104030051","district_id":"1104030","name":"TUALANG SEMBILAR BARU","postal_code":"24671"},{"id":"1104030052","district_id":"1104030","name":"TERUTUNG PAYUNG GABUNGAN","postal_code":"24671"},{"id":"1104030053","district_id":"1104030","name":"BIAK MULI BARU","postal_code":"24671"},{"id":"1104030054","district_id":"1104030","name":"BIAK MULI PANTE RAJA","postal_code":"24671"},{"id":"1104030055","district_id":"1104030","name":"BIAK MULI SEJAHTERA","postal_code":"24671"},{"id":"1104030056","district_id":"1104030","name":"LAWE HIJO METUAH","postal_code":"24671"},{"id":"1104030057","district_id":"1104030","name":"LAWE HIJO AMPERA","postal_code":"24671"},{"id":"1104030058","district_id":"1104030","name":"LEMBAH HAJI","postal_code":"24671"},{"id":"1104030059","district_id":"1104030","name":"KUTA LANG LANG BARU","postal_code":"23671"},{"id":"1104030060","district_id":"1104030","name":"PANCAR IMAN","postal_code":"42163"}]