[{"id":"1104052001","district_id":"1104052","name":"DELENG DAMAR","postal_code":"24652"},{"id":"1104052002","district_id":"1104052","name":"SIMPANG III JONGAR","postal_code":"24652"},{"id":"1104052003","district_id":"1104052","name":"PENYEBRANGAN CINGKAM","postal_code":"24652"},{"id":"1104052004","district_id":"1104052","name":"JONGAR","postal_code":"24652"},{"id":"1104052005","district_id":"1104052","name":"LAWE PENANGGALAN","postal_code":"24652"},{"id":"1104052006","district_id":"1104052","name":"JAMBUR LAK LAK","postal_code":"24652"},{"id":"1104052007","district_id":"1104052","name":"LAWE MENGKUDU","postal_code":"24652"},{"id":"1104052008","district_id":"1104052","name":"AUNAN SEPAKAT","postal_code":"24652"},{"id":"1104052009","district_id":"1104052","name":"KETAMBE","postal_code":"24652"},{"id":"1104052010","district_id":"1104052","name":"RUMAH BUNDAR","postal_code":"24652"},{"id":"1104052011","district_id":"1104052","name":"KAYU MENTANGUR","postal_code":"24652"},{"id":"1104052012","district_id":"1104052","name":"LAWE SEMBEKAN","postal_code":"24652"},{"id":"1104052013","district_id":"1104052","name":"LAWE GEKH GEKH","postal_code":"24671"},{"id":"1104052014","district_id":"1104052","name":"LAWE BERINGIN","postal_code":"24652"},{"id":"1104052015","district_id":"1104052","name":"BENER BERPAPAH","postal_code":"24653"},{"id":"1104052016","district_id":"1104052","name":"DATUK PINDING","postal_code":"37485"},{"id":"1104052017","district_id":"1104052","name":"PENUNGKUNEN","postal_code":"24652"},{"id":"1104052018","district_id":"1104052","name":"JATI SARA","postal_code":"20551"},{"id":"1104052019","district_id":"1104052","name":"LEUSER","postal_code":"23372"},{"id":"1104052020","district_id":"1104052","name":"BUKIT BARU","postal_code":"72275"},{"id":"1104052021","district_id":"1104052","name":"KATI MAJU","postal_code":"24652"},{"id":"1104052022","district_id":"1104052","name":"LAWE AUNAN","postal_code":"24652"},{"id":"1104052023","district_id":"1104052","name":"BINTANG BENER","postal_code":"24582"},{"id":"1104052024","district_id":"1104052","name":"SUKA RIMBUN","postal_code":"24652"},{"id":"1104052025","district_id":"1104052","name":"SIMPUR JAYA","postal_code":"24652"}]