[{"id":"1104020011","district_id":"1104020","name":"LAWE LONING GAB","postal_code":"24673"},{"id":"1104020012","district_id":"1104020","name":"LAWE LONING AMAN","postal_code":"24673"},{"id":"1104020013","district_id":"1104020","name":"GABUNGAN PARSAORAN","postal_code":"24673"},{"id":"1104020014","district_id":"1104020","name":"KEDATARAN GAB","postal_code":"38965"},{"id":"1104020016","district_id":"1104020","name":"KUTA TENGAH","postal_code":"24782"},{"id":"1104020017","district_id":"1104020","name":"TANAH BARU","postal_code":"97595"},{"id":"1104020018","district_id":"1104020","name":"LAWE SIGALA TIMUR","postal_code":"24673"},{"id":"1104020019","district_id":"1104020","name":"LAWE SIGALA BARAT","postal_code":"24673"},{"id":"1104020020","district_id":"1104020","name":"SUKA DAMAI","postal_code":"37553"},{"id":"1104020021","district_id":"1104020","name":"LAWE SIGALA II","postal_code":"24673"},{"id":"1104020022","district_id":"1104020","name":"LAWE TUA GAB","postal_code":"24673"},{"id":"1104020023","district_id":"1104020","name":"BUKIT MERDEKA","postal_code":"75271"},{"id":"1104020024","district_id":"1104020","name":"LAWE KESUMPAT","postal_code":"24673"},{"id":"1104020027","district_id":"1104020","name":"DARUL AMAN","postal_code":"24261"},{"id":"1104020035","district_id":"1104020","name":"LAWE LONING SEPAKAT","postal_code":"24673"},{"id":"1104020036","district_id":"1104020","name":"GAYA JAYA","postal_code":"24673"},{"id":"1104020037","district_id":"1104020","name":"LAWE LONING I","postal_code":"24673"},{"id":"1104020038","district_id":"1104020","name":"LAWE RAKAT","postal_code":"24673"},{"id":"1104020039","district_id":"1104020","name":"SUKA MAJU","postal_code":"37553"},{"id":"1104020040","district_id":"1104020","name":"SUKA JAYA","postal_code":"34683"},{"id":"1104020041","district_id":"1104020","name":"LAWE SERKE","postal_code":"24673"},{"id":"1104020042","district_id":"1104020","name":"LAWE TUA PERSATUAN","postal_code":"24673"},{"id":"1104020043","district_id":"1104020","name":"LAWE TUA MAKMUR","postal_code":"24673"},{"id":"1104020044","district_id":"1104020","name":"BUKIT SEPAKAT","postal_code":"24673"},{"id":"1104020045","district_id":"1104020","name":"ENMYA BATU DUA RATUS","postal_code":"24673"},{"id":"1104020046","district_id":"1104020","name":"SEBUNGKE","postal_code":"24673"},{"id":"1104020047","district_id":"1104020","name":"LAWE LONING HAKHAPEN","postal_code":"24673"},{"id":"1104020048","district_id":"1104020","name":"NDAUH NI TENGGAU","postal_code":"87153"},{"id":"1104020049","district_id":"1104020","name":"KERTIMBANG","postal_code":"24673"},{"id":"1104020050","district_id":"1104020","name":"LAWE SIGALA BARAT JAYA","postal_code":"24673"},{"id":"1104020051","district_id":"1104020","name":"LAWE PEKHIDINAN","postal_code":"24651"},{"id":"1104020052","district_id":"1104020","name":"GELAH MUSARA","postal_code":"24673"},{"id":"1104020053","district_id":"1104020","name":"MULIE DAME","postal_code":"24673"},{"id":"1104020054","district_id":"1104020","name":"KARYA INDAH","postal_code":"96266"},{"id":"1104020055","district_id":"1104020","name":"KAYU MBELIN","postal_code":"24673"}]