[{"id":"1104012001","district_id":"1104012","name":"ALUR LANGSAT","postal_code":"24661"},{"id":"1104012002","district_id":"1104012","name":"LAWE TUNGKAL","postal_code":"24661"},{"id":"1104012003","district_id":"1104012","name":"RUMAH LUAR","postal_code":"24661"},{"id":"1104012005","district_id":"1104012","name":"RAMBAH SAYANG","postal_code":"24661"},{"id":"1104012006","district_id":"1104012","name":"JAMBUR DAMAR","postal_code":"24673"},{"id":"1104012007","district_id":"1104012","name":"TENEMBAK ALAS","postal_code":"24673"},{"id":"1104012008","district_id":"1104012","name":"SALIM PINIM","postal_code":"24673"},{"id":"1104012009","district_id":"1104012","name":"RUTUNG MBELANG","postal_code":"98481"},{"id":"1104012010","district_id":"1104012","name":"SETAMBUL JAYA","postal_code":"79463"},{"id":"1104012011","district_id":"1104012","name":"ALUR NANGKA","postal_code":"24455"},{"id":"1104012012","district_id":"1104012","name":"TIMANG RASA","postal_code":"24553"},{"id":"1104012013","district_id":"1104012","name":"JAMBUR PERMATA","postal_code":"22978"},{"id":"1104012014","district_id":"1104012","name":"KUTE MEJILE","postal_code":"24661"},{"id":"1104012015","district_id":"1104012","name":"SALIM PINIM II","postal_code":"24661"}]