[{"id":"1104032001","district_id":"1104032","name":"KUTA LESUNG","postal_code":"24671"},{"id":"1104032002","district_id":"1104032","name":"BERANDANG","postal_code":"24671"},{"id":"1104032003","district_id":"1104032","name":"LAWE SUMUR","postal_code":"24671"},{"id":"1104032004","district_id":"1104032","name":"TERUTUNG MEGARE LAWE PASARAN","postal_code":"24671"},{"id":"1104032005","district_id":"1104032","name":"KISAM GABUNGAN","postal_code":"24671"},{"id":"1104032006","district_id":"1104032","name":"PENOSAN","postal_code":"24655"},{"id":"1104032007","district_id":"1104032","name":"KISAM KUTE PASIR","postal_code":"24671"},{"id":"1104032008","district_id":"1104032","name":"BUAH PALA","postal_code":"24671"},{"id":"1104032009","district_id":"1104032","name":"KUTE BUNIN","postal_code":"24671"},{"id":"1104032010","district_id":"1104032","name":"LAWE SUMUR BARU","postal_code":"24671"},{"id":"1104032011","district_id":"1104032","name":"SETIA BARU","postal_code":"24671"},{"id":"1104032012","district_id":"1104032","name":"LAWE PERLAK","postal_code":"24673"},{"id":"1104032013","district_id":"1104032","name":"LAWE SUMUR SEPAKAT","postal_code":"24671"},{"id":"1104032014","district_id":"1104032","name":"TERUTUNG MEGARA BARU","postal_code":"24671"},{"id":"1104032015","district_id":"1104032","name":"LAWE PASARAN TENGKU MBELIN","postal_code":"24651"},{"id":"1104032016","district_id":"1104032","name":"KISAM LESTARI","postal_code":"24671"},{"id":"1104032017","district_id":"1104032","name":"KISAM KUTA RAMBE","postal_code":"24671"},{"id":"1104032018","district_id":"1104032","name":"TIGER MIKO","postal_code":"81152"}]