[{"id":"1104051001","district_id":"1104051","name":"GULO","postal_code":"97764"},{"id":"1104051002","district_id":"1104051","name":"LAWE STUL","postal_code":"24673"},{"id":"1104051003","district_id":"1104051","name":"KITE MERANGGUN","postal_code":"71515"},{"id":"1104051004","district_id":"1104051","name":"PULO PIKU","postal_code":"24653"},{"id":"1104051005","district_id":"1104051","name":"TERUTUNG KUTE","postal_code":"24653"},{"id":"1104051006","district_id":"1104051","name":"KUTA UJUNG","postal_code":"24655"},{"id":"1104051007","district_id":"1104051","name":"MAMAS","postal_code":"24653"},{"id":"1104051008","district_id":"1104051","name":"TANJUNG LAMA","postal_code":"31663"},{"id":"1104051009","district_id":"1104051","name":"TANJUNG MUDA","postal_code":"20582"},{"id":"1104051010","district_id":"1104051","name":"TANJUNG AMAN","postal_code":"31611"},{"id":"1104051011","district_id":"1104051","name":"RAMBUNG TELDAK","postal_code":"24653"},{"id":"1104051012","district_id":"1104051","name":"SERIMUDA","postal_code":"24653"},{"id":"1104051013","district_id":"1104051","name":"DARUL MAKMUR","postal_code":"24782"},{"id":"1104051014","district_id":"1104051","name":"KUTE RAMBE","postal_code":"24653"},{"id":"1104051015","district_id":"1104051","name":"UJUNG BARU","postal_code":"90951"},{"id":"1104051016","district_id":"1104051","name":"MAMAS BARU","postal_code":"24653"},{"id":"1104051017","district_id":"1104051","name":"RAMBUNG JAYA","postal_code":"24653"},{"id":"1104051018","district_id":"1104051","name":"MAKMUR JAYA","postal_code":"36555"},{"id":"1104051019","district_id":"1104051","name":"PULO GADUNG","postal_code":"34595"},{"id":"1104051020","district_id":"1104051","name":"ISTIQOMAH","postal_code":"24653"},{"id":"1104051021","district_id":"1104051","name":"KHOTAN JAYA","postal_code":"35451"},{"id":"1104051022","district_id":"1104051","name":"LAWE MAMAS INDAH","postal_code":"24653"},{"id":"1104051023","district_id":"1104051","name":"TANJUNG BARU","postal_code":"35387"},{"id":"1104051024","district_id":"1104051","name":"SIMPANG IV TANJUNG","postal_code":"24563"},{"id":"1104051025","district_id":"1104051","name":"TANJUNG LEUSER","postal_code":"24653"},{"id":"1104051026","district_id":"1104051","name":"LAWE PINIS","postal_code":"24653"},{"id":"1104051027","district_id":"1104051","name":"KUNING ABADI","postal_code":"24653"},{"id":"1104051028","district_id":"1104051","name":"BUNTUL KENDAWI","postal_code":"24653"}]