[{"id":"1104040001","district_id":"1104040","name":"KUTA RIH","postal_code":"24263"},{"id":"1104040002","district_id":"1104040","name":"KUTACANE LAMA","postal_code":"24651"},{"id":"1104040003","district_id":"1104040","name":"PERAPAT HILIR","postal_code":"24651"},{"id":"1104040004","district_id":"1104040","name":"PERAPAT HULU","postal_code":"24651"},{"id":"1104040005","district_id":"1104040","name":"PULO LATONG","postal_code":"24651"},{"id":"1104040010","district_id":"1104040","name":"KOTA KUTACANE","postal_code":"24651"},{"id":"1104040011","district_id":"1104040","name":"MUARA LAWE BULAN","postal_code":"24651"},{"id":"1104040012","district_id":"1104040","name":"MBARUNG","postal_code":"24651"},{"id":"1104040013","district_id":"1104040","name":"PULONAS","postal_code":"24651"},{"id":"1104040021","district_id":"1104040","name":"BATU BULAN I","postal_code":"72272"},{"id":"1104040022","district_id":"1104040","name":"BATU BULAN II","postal_code":"72272"},{"id":"1104040023","district_id":"1104040","name":"BATU BULAN ASLI","postal_code":"72272"},{"id":"1104040024","district_id":"1104040","name":"KAMPUNG RAJA","postal_code":"24651"},{"id":"1104040026","district_id":"1104040","name":"KAMPUNG MELAYU GABUNGAN","postal_code":"24651"},{"id":"1104040027","district_id":"1104040","name":"TERUTUNG PEDI","postal_code":"24651"},{"id":"1104040029","district_id":"1104040","name":"GUMPANG JAYA","postal_code":"24671"},{"id":"1104040030","district_id":"1104040","name":"BATUMBULAN BARU","postal_code":"95883"},{"id":"1104040031","district_id":"1104040","name":"UJUNG BARAT","postal_code":"24651"},{"id":"1104040032","district_id":"1104040","name":"PULO PEDING","postal_code":"24651"},{"id":"1104040033","district_id":"1104040","name":"MEDABE","postal_code":"34596"},{"id":"1104040034","district_id":"1104040","name":"PERAPAT SEPAKAT","postal_code":"24651"},{"id":"1104040035","district_id":"1104040","name":"PERAPAT TITI PANJANG","postal_code":"24651"},{"id":"1104040036","district_id":"1104040","name":"PULO SANGGAR","postal_code":"24651"},{"id":"1104040037","district_id":"1104040","name":"MBARUNG DATUK SAUDANE","postal_code":"24651"},{"id":"1104040038","district_id":"1104040","name":"BATU BULAN SEPAKAT","postal_code":"72272"},{"id":"1104040039","district_id":"1104040","name":"KAMPUNG MELAYU I","postal_code":"24651"},{"id":"1104040040","district_id":"1104040","name":"ALAS MERANCAR","postal_code":"24651"}]