[{"id":"1105131001","district_id":"1105131","name":"ASAN RAMPAK","postal_code":"24454"},{"id":"1105131002","district_id":"1105131","name":"BUKET KUTA","postal_code":"24454"},{"id":"1105131003","district_id":"1105131","name":"BLANG KUTA","postal_code":"24188"},{"id":"1105131004","district_id":"1105131","name":"ALUE BATEE","postal_code":"24453"},{"id":"1105131005","district_id":"1105131","name":"PAYA BILI I","postal_code":"24454"},{"id":"1105131006","district_id":"1105131","name":"BLANG BUKET","postal_code":"24454"},{"id":"1105131007","district_id":"1105131","name":"KUTA BARO","postal_code":"24261"},{"id":"1105131008","district_id":"1105131","name":"SEUNEUBOK TEUNGOH","postal_code":"24263"},{"id":"1105131009","district_id":"1105131","name":"SEUNEUBOK PUNTEUT","postal_code":"24263"},{"id":"1105131010","district_id":"1105131","name":"SAMA DUA","postal_code":"24454"},{"id":"1105131011","district_id":"1105131","name":"KAMPUNG KEUDE","postal_code":"15520"},{"id":"1105131012","district_id":"1105131","name":"MEUNASAH KRUENG","postal_code":"24182"},{"id":"1105131013","district_id":"1105131","name":"PAYA BILI DUA","postal_code":"24454"},{"id":"1105131014","district_id":"1105131","name":"PAYA DUA","postal_code":"24357"},{"id":"1105131015","district_id":"1105131","name":"KAMPUNG KUALA","postal_code":"20984"},{"id":"1105131016","district_id":"1105131","name":"ALUE IE ITAM","postal_code":"24454"},{"id":"1105131017","district_id":"1105131","name":"MATANG RAYEUK","postal_code":"24454"}]