[{"id":"1105170001","district_id":"1105170","name":"BLANG SEUNONG","postal_code":"23672"},{"id":"1105170002","district_id":"1105170","name":"PANTE LABU","postal_code":"24458"},{"id":"1105170003","district_id":"1105170","name":"PANTE RAMBONG","postal_code":"24458"},{"id":"1105170004","district_id":"1105170","name":"ALUE IE MIRAH","postal_code":"24385"},{"id":"1105170005","district_id":"1105170","name":"SEUNEUBOK TUHA","postal_code":"24454"},{"id":"1105170006","district_id":"1105170","name":"SEUNEUBOK SABOH","postal_code":"24458"},{"id":"1105170007","district_id":"1105170","name":"BUKET KARENG","postal_code":"24458"},{"id":"1105170008","district_id":"1105170","name":"BUKET BATA","postal_code":"24458"},{"id":"1105170009","district_id":"1105170","name":"GRONG GRONG","postal_code":"24186"},{"id":"1105170010","district_id":"1105170","name":"MEUNASAH TUNONG","postal_code":"24262"},{"id":"1105170011","district_id":"1105170","name":"MATANG PEUREULAK","postal_code":"24458"},{"id":"1105170012","district_id":"1105170","name":"MEUNASAH LEUBOK","postal_code":"24458"},{"id":"1105170013","district_id":"1105170","name":"MEUNASAH TEUNGOH","postal_code":"24186"},{"id":"1105170014","district_id":"1105170","name":"KEUDE BARO","postal_code":"24458"},{"id":"1105170015","district_id":"1105170","name":"PANTE PANAH","postal_code":"24458"},{"id":"1105170016","district_id":"1105170","name":"MATANG PUDENG","postal_code":"24458"},{"id":"1105170017","district_id":"1105170","name":"GAMPONG PUTOH DUA","postal_code":"24261"},{"id":"1105170018","district_id":"1105170","name":"MATANG KRUET","postal_code":"24458"},{"id":"1105170019","district_id":"1105170","name":"PAYA DEUMAM SATU","postal_code":"24458"},{"id":"1105170020","district_id":"1105170","name":"PAYA DEUMAM LHEE","postal_code":"24458"},{"id":"1105170021","district_id":"1105170","name":"PAYA DEUMAM DUA","postal_code":"24458"},{"id":"1105170022","district_id":"1105170","name":"PUTOH SATU","postal_code":"24458"},{"id":"1105170023","district_id":"1105170","name":"SUKA DAMAI","postal_code":"37553"},{"id":"1105170024","district_id":"1105170","name":"SAH RAJA","postal_code":"29439"},{"id":"1105170025","district_id":"1105170","name":"SIJUDO","postal_code":"30967"}]