[{"id":"1105132001","district_id":"1105132","name":"SEUNEUBOK BAYU","postal_code":"24457"},{"id":"1105132002","district_id":"1105132","name":"JAMBO REUHAT","postal_code":"24458"},{"id":"1105132003","district_id":"1105132","name":"BLANG RAMBONG","postal_code":"24261"},{"id":"1105132004","district_id":"1105132","name":"ULEE JALAN","postal_code":"24351"},{"id":"1105132005","district_id":"1105132","name":"SEUNEUBOK KANDANG","postal_code":"24458"},{"id":"1105132006","district_id":"1105132","name":"SEUNEUBOK BENTENG","postal_code":"24458"},{"id":"1105132007","district_id":"1105132","name":"SEUNEUBOK PANGOU","postal_code":"24458"},{"id":"1105132008","district_id":"1105132","name":"URAM JALAN","postal_code":"24373"},{"id":"1105132009","district_id":"1105132","name":"JALAN DUA","postal_code":"24458"},{"id":"1105132010","district_id":"1105132","name":"PANTON RAYEUK T","postal_code":"24458"},{"id":"1105132011","district_id":"1105132","name":"PANTON RAYEUK A","postal_code":"24458"},{"id":"1105132012","district_id":"1105132","name":"PANTON RAYEUK B","postal_code":"24458"},{"id":"1105132013","district_id":"1105132","name":"PANTON RAYEUK M","postal_code":"24458"},{"id":"1105132014","district_id":"1105132","name":"BUKET DRIEN","postal_code":"24458"},{"id":"1105132015","district_id":"1105132","name":"PAYA LAMAN","postal_code":"24458"},{"id":"1105132016","district_id":"1105132","name":"SEUNEUBOK SIMPANG","postal_code":"24455"}]