[{"id":"1105110008","district_id":"1105110","name":"CEK MBON","postal_code":"24453"},{"id":"1105110018","district_id":"1105110","name":"SEUNEUBOK PIDIE","postal_code":"24394"},{"id":"1105110019","district_id":"1105110","name":"KUALA LEUGE","postal_code":"24453"},{"id":"1105110020","district_id":"1105110","name":"SEUNEUBOK PEUSANGAN","postal_code":"24453"},{"id":"1105110023","district_id":"1105110","name":"LEUBUK PEMPENG","postal_code":"24357"},{"id":"1105110024","district_id":"1105110","name":"DAMA TUTONG","postal_code":"24453"},{"id":"1105110025","district_id":"1105110","name":"BALE BUYA","postal_code":"24173"},{"id":"1105110026","district_id":"1105110","name":"MATANG GLEUM","postal_code":"24453"},{"id":"1105110027","district_id":"1105110","name":"ALUE NIBONG","postal_code":"24453"},{"id":"1105110028","district_id":"1105110","name":"BUKET PALA","postal_code":"24453"},{"id":"1105110029","district_id":"1105110","name":"BLANG SIMPO","postal_code":"24453"},{"id":"1105110030","district_id":"1105110","name":"PAYA KALUT","postal_code":"24453"},{"id":"1105110031","district_id":"1105110","name":"ALUE DUA PAYA GAJAH","postal_code":"24453"},{"id":"1105110032","district_id":"1105110","name":"SEUNEUBOK ACEH","postal_code":"24261"},{"id":"1105110033","district_id":"1105110","name":"UTEUN DAMA","postal_code":"24453"},{"id":"1105110034","district_id":"1105110","name":"PAYA MEULIGO","postal_code":"23682"},{"id":"1105110035","district_id":"1105110","name":"PUNTI","postal_code":"84162"},{"id":"1105110036","district_id":"1105110","name":"KEUMUNENG","postal_code":"24453"},{"id":"1105110037","district_id":"1105110","name":"BANGKA RIMUENG","postal_code":"86583"},{"id":"1105110038","district_id":"1105110","name":"LEUGE","postal_code":"24453"},{"id":"1105110039","district_id":"1105110","name":"LHOK DALAM","postal_code":"23893"},{"id":"1105110040","district_id":"1105110","name":"BANDRONG","postal_code":"24453"},{"id":"1105110042","district_id":"1105110","name":"TANAH RATA","postal_code":"86572"},{"id":"1105110043","district_id":"1105110","name":"TUALANG","postal_code":"20624"},{"id":"1105110044","district_id":"1105110","name":"KEUDE PEUREULAK","postal_code":"24453"},{"id":"1105110045","district_id":"1105110","name":"COT MUDA ITAM","postal_code":"24453"},{"id":"1105110046","district_id":"1105110","name":"PASIR PUTIH","postal_code":"90984"},{"id":"1105110047","district_id":"1105110","name":"BLANG BETRA","postal_code":"23618"},{"id":"1105110055","district_id":"1105110","name":"BEUSA MEURANOU","postal_code":"24453"},{"id":"1105110056","district_id":"1105110","name":"SEUMATANG MUDA ITAM","postal_code":"24453"},{"id":"1105110057","district_id":"1105110","name":"BLANG BALOK","postal_code":"24453"},{"id":"1105110058","district_id":"1105110","name":"KUALA BUGAK","postal_code":"24453"},{"id":"1105110059","district_id":"1105110","name":"PAYA LIPAH","postal_code":"24261"},{"id":"1105110060","district_id":"1105110","name":"COT GEULUMPANG","postal_code":"24151"},{"id":"1105110062","district_id":"1105110","name":"COT KEH","postal_code":"24453"},{"id":"1105110063","district_id":"1105110","name":"BLANG BATEE","postal_code":"24453"},{"id":"1105110064","district_id":"1105110","name":"ALUE RAMBONG","postal_code":"24392"},{"id":"1105110065","district_id":"1105110","name":"MATANG PEULAWI","postal_code":"24458"}]