[{"id":"1106020001","district_id":"1106020","name":"BAMIL NOSAR","postal_code":"24571"},{"id":"1106020002","district_id":"1106020","name":"MUDE NOSAR","postal_code":"24571"},{"id":"1106020003","district_id":"1106020","name":"BALE NOSAR","postal_code":"24571"},{"id":"1106020004","district_id":"1106020","name":"MENGAYA","postal_code":"24571"},{"id":"1106020005","district_id":"1106020","name":"BEWANG","postal_code":"24571"},{"id":"1106020006","district_id":"1106020","name":"LINUNG BULEN I","postal_code":"24571"},{"id":"1106020007","district_id":"1106020","name":"LINUNG BULEN II","postal_code":"24571"},{"id":"1106020008","district_id":"1106020","name":"DEDAMAR","postal_code":"24571"},{"id":"1106020009","district_id":"1106020","name":"SERULE","postal_code":"24571"},{"id":"1106020010","district_id":"1106020","name":"KUALA II","postal_code":"24571"},{"id":"1106020011","district_id":"1106020","name":"KUALA I","postal_code":"24457"},{"id":"1106020012","district_id":"1106020","name":"KALA SEGI","postal_code":"24561"},{"id":"1106020013","district_id":"1106020","name":"KELITU","postal_code":"86353"},{"id":"1106020014","district_id":"1106020","name":"KEJURUN SYIAH UTAMA","postal_code":"24571"},{"id":"1106020015","district_id":"1106020","name":"WIHLAH SETIE","postal_code":"24571"},{"id":"1106020016","district_id":"1106020","name":"ATU PAYUNG","postal_code":"24571"},{"id":"1106020017","district_id":"1106020","name":"WAKIL JALIL","postal_code":"24571"},{"id":"1106020018","district_id":"1106020","name":"GENUREN","postal_code":"24571"},{"id":"1106020019","district_id":"1106020","name":"KALA BINTANG","postal_code":"24571"},{"id":"1106020020","district_id":"1106020","name":"JAMUR KONYEL","postal_code":"24571"},{"id":"1106020021","district_id":"1106020","name":"MERODOT","postal_code":"24571"},{"id":"1106020022","district_id":"1106020","name":"GEGARANG","postal_code":"24655"},{"id":"1106020023","district_id":"1106020","name":"SINTEP","postal_code":"24571"},{"id":"1106020024","district_id":"1106020","name":"GELEPULO","postal_code":"75776"}]