[{"id":"1106040001","district_id":"1106040","name":"WIH ILANG","postal_code":"24561"},{"id":"1106040002","district_id":"1106040","name":"WIH LAH","postal_code":"24561"},{"id":"1106040003","district_id":"1106040","name":"PEDEKOK","postal_code":"24561"},{"id":"1106040004","district_id":"1106040","name":"URING","postal_code":"24655"},{"id":"1106040005","district_id":"1106040","name":"IERELOP","postal_code":"23117"},{"id":"1106040006","district_id":"1106040","name":"TERANG ULEN","postal_code":"24561"},{"id":"1106040007","district_id":"1106040","name":"GELE LUNGI","postal_code":"24561"},{"id":"1106040008","district_id":"1106040","name":"KEDELAH","postal_code":"24561"},{"id":"1106040009","district_id":"1106040","name":"WIH NAREH","postal_code":"24561"},{"id":"1106040010","district_id":"1106040","name":"KUNG","postal_code":"24561"},{"id":"1106040011","district_id":"1106040","name":"SIMPANG KELAPING","postal_code":"24561"},{"id":"1106040012","district_id":"1106040","name":"KUTE LINTANG","postal_code":"24581"},{"id":"1106040013","district_id":"1106040","name":"KAYU KUL","postal_code":"24561"},{"id":"1106040019","district_id":"1106040","name":"UNING","postal_code":"24582"},{"id":"1106040022","district_id":"1106040","name":"ARUL BADAK","postal_code":"24561"},{"id":"1106040023","district_id":"1106040","name":"BERAWANG BARO","postal_code":"24561"},{"id":"1106040024","district_id":"1106040","name":"LELUMU","postal_code":"24561"},{"id":"1106040025","district_id":"1106040","name":"TEBUK","postal_code":"86152"},{"id":"1106040026","district_id":"1106040","name":"PAYA JEGET","postal_code":"24561"},{"id":"1106040027","district_id":"1106040","name":"UJUNG GELE","postal_code":"24581"},{"id":"1106040028","district_id":"1106040","name":"PEPALANG","postal_code":"24561"},{"id":"1106040029","district_id":"1106040","name":"PEGASING","postal_code":"24561"},{"id":"1106040032","district_id":"1106040","name":"WIH TERJUN","postal_code":"24561"},{"id":"1106040033","district_id":"1106040","name":"PANTAN MUSARA","postal_code":"24561"},{"id":"1106040034","district_id":"1106040","name":"PANANGEN MATA","postal_code":"24561"},{"id":"1106040035","district_id":"1106040","name":"LINUNG AYU","postal_code":"24561"},{"id":"1106040036","district_id":"1106040","name":"KALA PEGASING","postal_code":"24561"},{"id":"1106040038","district_id":"1106040","name":"BELANG BEBANGKA","postal_code":"63462"},{"id":"1106040039","district_id":"1106040","name":"JURUSEN","postal_code":"24561"},{"id":"1106040041","district_id":"1106040","name":"JEJEM","postal_code":"24561"},{"id":"1106040042","district_id":"1106040","name":"SUKA DAMAI","postal_code":"37553"}]