[{"id":"1107081001","district_id":"1107081","name":"PEUNAGA CUT UJONG","postal_code":"23615"},{"id":"1107081002","district_id":"1107081","name":"GUNONG KLENG","postal_code":"23615"},{"id":"1107081003","district_id":"1107081","name":"PEUNAGA PASI","postal_code":"23615"},{"id":"1107081004","district_id":"1107081","name":"PEUNAGA RAYEUK","postal_code":"23615"},{"id":"1107081005","district_id":"1107081","name":"PAYA PEUNAGA","postal_code":"23615"},{"id":"1107081006","district_id":"1107081","name":"LANGUNG","postal_code":"23615"},{"id":"1107081007","district_id":"1107081","name":"MEUREUBO","postal_code":"23671"},{"id":"1107081008","district_id":"1107081","name":"UJONG DRIEN","postal_code":"23615"},{"id":"1107081009","district_id":"1107081","name":"PASI PINANG","postal_code":"23615"},{"id":"1107081010","district_id":"1107081","name":"UJONG TANJONG","postal_code":"23662"},{"id":"1107081011","district_id":"1107081","name":"BUKIT JAYA","postal_code":"28382"},{"id":"1107081012","district_id":"1107081","name":"BULOH","postal_code":"24185"},{"id":"1107081013","district_id":"1107081","name":"RANTO PANYANG TIMUR","postal_code":"23615"},{"id":"1107081014","district_id":"1107081","name":"RANTO PANYANG BARAT","postal_code":"23615"},{"id":"1107081015","district_id":"1107081","name":"MESJID TUHA","postal_code":"24186"},{"id":"1107081016","district_id":"1107081","name":"UJONG TANOH DARAT","postal_code":"23615"},{"id":"1107081017","district_id":"1107081","name":"RANUB DONG","postal_code":"23615"},{"id":"1107081018","district_id":"1107081","name":"PASI MESJID","postal_code":"23615"},{"id":"1107081019","district_id":"1107081","name":"PULO TEUNGOH RANTO","postal_code":"23615"},{"id":"1107081020","district_id":"1107081","name":"BALEE","postal_code":"24184"},{"id":"1107081021","district_id":"1107081","name":"SUMBER BATU","postal_code":"23615"},{"id":"1107081022","district_id":"1107081","name":"PASI ACEH BAROH","postal_code":"23615"},{"id":"1107081023","district_id":"1107081","name":"PASI ACEH TUNONG","postal_code":"23615"},{"id":"1107081024","district_id":"1107081","name":"REUDEUP","postal_code":"24185"},{"id":"1107081025","district_id":"1107081","name":"PUCOK REUDEUP","postal_code":"23615"},{"id":"1107081026","district_id":"1107081","name":"PAYA BARO RANTO PANJANG","postal_code":"23681"}]