[{"id":"1107050001","district_id":"1107050","name":"SUWAK INDRAPURI","postal_code":"23611"},{"id":"1107050002","district_id":"1107050","name":"PASAR ACEH","postal_code":"23612"},{"id":"1107050003","district_id":"1107050","name":"PADANG SEURAHET","postal_code":"23611"},{"id":"1107050004","district_id":"1107050","name":"PANGGONG","postal_code":"23654"},{"id":"1107050005","district_id":"1107050","name":"KAMPUNG BELAKANG","postal_code":"23611"},{"id":"1107050006","district_id":"1107050","name":"KAMPUNG PASIR","postal_code":"23611"},{"id":"1107050007","district_id":"1107050","name":"UJUNG KALAK","postal_code":"23613"},{"id":"1107050008","district_id":"1107050","name":"UJONG BAROH","postal_code":"24181"},{"id":"1107050009","district_id":"1107050","name":"RUNDENG","postal_code":"23616"},{"id":"1107050010","district_id":"1107050","name":"KUTA PADANG","postal_code":"23894"},{"id":"1107050011","district_id":"1107050","name":"DRIEN RAMPAK","postal_code":"23617"},{"id":"1107050012","district_id":"1107050","name":"KAMPUNG DARAT","postal_code":"23611"},{"id":"1107050013","district_id":"1107050","name":"GAMPA","postal_code":"23611"},{"id":"1107050014","district_id":"1107050","name":"SEUNEUBOK","postal_code":"23891"},{"id":"1107050015","district_id":"1107050","name":"SUAK RIBEE","postal_code":"23611"},{"id":"1107050016","district_id":"1107050","name":"SUAK RAYA","postal_code":"23611"},{"id":"1107050017","district_id":"1107050","name":"SUAK NIE","postal_code":"23611"},{"id":"1107050018","district_id":"1107050","name":"LAPANG","postal_code":"23618"},{"id":"1107050019","district_id":"1107050","name":"LEUHAN","postal_code":"23611"},{"id":"1107050020","district_id":"1107050","name":"BLANG BERANDANG","postal_code":"23618"},{"id":"1107050021","district_id":"1107050","name":"SUAK SIGADENG","postal_code":"23611"}]