[{"id":"1108020007","district_id":"1108020","name":"MON IKEUN","postal_code":"23353"},{"id":"1108020008","district_id":"1108020","name":"NAGA UMBANG","postal_code":"23353"},{"id":"1108020009","district_id":"1108020","name":"LAMBARO KUEH","postal_code":"23353"},{"id":"1108020010","district_id":"1108020","name":"LAM ATEUK","postal_code":"23353"},{"id":"1108020011","district_id":"1108020","name":"ANEUK PAYA","postal_code":"23514"},{"id":"1108020012","district_id":"1108020","name":"LAMPAYA","postal_code":"23354"},{"id":"1108020013","district_id":"1108020","name":"LAMKRUET","postal_code":"23351"},{"id":"1108020014","district_id":"1108020","name":"WEURAYA","postal_code":"85763"},{"id":"1108020015","district_id":"1108020","name":"MEUNASAH LAMBARO","postal_code":"23353"},{"id":"1108020016","district_id":"1108020","name":"MON CUT","postal_code":"24381"},{"id":"1108020017","district_id":"1108020","name":"MEUNASAH MANYANG","postal_code":"24352"},{"id":"1108020018","district_id":"1108020","name":"MEUNASAH KARIENG","postal_code":"23353"},{"id":"1108020019","district_id":"1108020","name":"LAMGABOH","postal_code":"24164"},{"id":"1108020020","district_id":"1108020","name":"TANJONG","postal_code":"24162"},{"id":"1108020021","district_id":"1108020","name":"KUEH","postal_code":"23353"},{"id":"1108020022","district_id":"1108020","name":"NUSA","postal_code":"85551"},{"id":"1108020023","district_id":"1108020","name":"SEUBUN KEUTAPANG","postal_code":"23353"},{"id":"1108020024","district_id":"1108020","name":"SEUBUN AYON","postal_code":"23353"},{"id":"1108020025","district_id":"1108020","name":"LAMBARO SEUBUN","postal_code":"23353"},{"id":"1108020026","district_id":"1108020","name":"MEUNASAH MESJID LAMLHOM","postal_code":"23353"},{"id":"1108020027","district_id":"1108020","name":"MEUNASAH BARO","postal_code":"24182"},{"id":"1108020028","district_id":"1108020","name":"MEUNASAH MESJID LAMPUUK","postal_code":"23353"},{"id":"1108020029","district_id":"1108020","name":"MEUNASAH BALEE","postal_code":"24164"},{"id":"1108020030","district_id":"1108020","name":"LAMGIREK","postal_code":"23361"},{"id":"1108020031","district_id":"1108020","name":"MEUNASAH BEUTONG","postal_code":"23353"},{"id":"1108020032","district_id":"1108020","name":"LAMCOK","postal_code":"23372"},{"id":"1108020033","district_id":"1108020","name":"MEUNASAH BLANG","postal_code":"24163"},{"id":"1108020034","district_id":"1108020","name":"MEUNASAH CUT","postal_code":"24262"}]