[{"id":"1108090001","district_id":"1108090","name":"KAYEE LEE","postal_code":"23371"},{"id":"1108090002","district_id":"1108090","name":"LAM TEUNGOH","postal_code":"23656"},{"id":"1108090003","district_id":"1108090","name":"LUBOK SUKON","postal_code":"24394"},{"id":"1108090004","district_id":"1108090","name":"LUBOK GAPUY","postal_code":"23371"},{"id":"1108090005","district_id":"1108090","name":"LAMDAYA","postal_code":"23371"},{"id":"1108090006","district_id":"1108090","name":"LAM UE","postal_code":"23371"},{"id":"1108090007","district_id":"1108090","name":"PALEUH BLANG","postal_code":"69361"},{"id":"1108090008","district_id":"1108090","name":"PALEUH PULO","postal_code":"23371"},{"id":"1108090009","district_id":"1108090","name":"LAMBADA","postal_code":"23371"},{"id":"1108090010","district_id":"1108090","name":"LAMCOT","postal_code":"23352"},{"id":"1108090011","district_id":"1108090","name":"LAMPREH LAMJAMPOK","postal_code":"23371"},{"id":"1108090012","district_id":"1108090","name":"LAM SINYEU","postal_code":"23371"},{"id":"1108090013","district_id":"1108090","name":"COT MENTIWAN","postal_code":"23661"},{"id":"1108090014","district_id":"1108090","name":"COT ALUE","postal_code":"23371"},{"id":"1108090015","district_id":"1108090","name":"COT GUD","postal_code":"23671"},{"id":"1108090016","district_id":"1108090","name":"COT BADA","postal_code":"24251"},{"id":"1108090017","district_id":"1108090","name":"COT SURUY","postal_code":"23371"},{"id":"1108090018","district_id":"1108090","name":"AJEE CUT","postal_code":"23371"},{"id":"1108090019","district_id":"1108090","name":"AJEE RAYEUK","postal_code":"23371"},{"id":"1108090020","district_id":"1108090","name":"DHAM PULO","postal_code":"23371"},{"id":"1108090021","district_id":"1108090","name":"PASIE LUBUK","postal_code":"23371"},{"id":"1108090022","district_id":"1108090","name":"UJONG XII","postal_code":"23371"},{"id":"1108090023","district_id":"1108090","name":"LAMPREH LAMTEUNGOH","postal_code":"23371"},{"id":"1108090024","district_id":"1108090","name":"BADA","postal_code":"84211"},{"id":"1108090025","district_id":"1108090","name":"LAMBARO","postal_code":"24183"},{"id":"1108090026","district_id":"1108090","name":"KALUT","postal_code":"23371"},{"id":"1108090027","district_id":"1108090","name":"MEUNASAH MANYET","postal_code":"23371"},{"id":"1108090028","district_id":"1108090","name":"AJEE PAGAR AIR","postal_code":"23371"},{"id":"1108090029","district_id":"1108090","name":"LUBOK BATEE","postal_code":"23363"},{"id":"1108090030","district_id":"1108090","name":"SIRON","postal_code":"24161"},{"id":"1108090031","district_id":"1108090","name":"MEUNASAH BARO","postal_code":"24182"},{"id":"1108090032","district_id":"1108090","name":"PASIE LAMGAROT","postal_code":"23662"},{"id":"1108090033","district_id":"1108090","name":"DHAM CEUKOK","postal_code":"23371"},{"id":"1108090034","district_id":"1108090","name":"GANI","postal_code":"23371"},{"id":"1108090035","district_id":"1108090","name":"BUENG CEUKOK","postal_code":"23372"},{"id":"1108090036","district_id":"1108090","name":"TEUBANG PHUI","postal_code":"23371"},{"id":"1108090037","district_id":"1108090","name":"ATEUK LUENG IE","postal_code":"23371"},{"id":"1108090038","district_id":"1108090","name":"ATEUK ANGGOK","postal_code":"23371"},{"id":"1108090039","district_id":"1108090","name":"BAKOY","postal_code":"23371"},{"id":"1108090040","district_id":"1108090","name":"MEUNASAH MANYANG LAMGAROT","postal_code":"24352"},{"id":"1108090041","district_id":"1108090","name":"MEUNASAH TUTONG","postal_code":"24382"},{"id":"1108090042","district_id":"1108090","name":"MEUNASAH DEYAH","postal_code":"24313"},{"id":"1108090043","district_id":"1108090","name":"JURONG PEUJEURA","postal_code":"23371"},{"id":"1108090044","district_id":"1108090","name":"PANTEE","postal_code":"23371"},{"id":"1108090045","district_id":"1108090","name":"BINEH BLANG","postal_code":"23371"},{"id":"1108090046","district_id":"1108090","name":"REULOH","postal_code":"23371"},{"id":"1108090047","district_id":"1108090","name":"TANJONG","postal_code":"24162"},{"id":"1108090048","district_id":"1108090","name":"MEUNASAH MANYANG PAGAR AIR","postal_code":"23371"},{"id":"1108090049","district_id":"1108090","name":"SANTAN","postal_code":"23371"},{"id":"1108090050","district_id":"1108090","name":"MNS KRUENG","postal_code":"98358"}]