[{"id":"1108031001","district_id":"1108031","name":"BAK SUKON","postal_code":"23363"},{"id":"1108031002","district_id":"1108031","name":"SIRON KRUENG","postal_code":"23363"},{"id":"1108031003","district_id":"1108031","name":"SIRON BLANG","postal_code":"23363"},{"id":"1108031004","district_id":"1108031","name":"BUENG SIMEK","postal_code":"23363"},{"id":"1108031005","district_id":"1108031","name":"BITHAK","postal_code":"23363"},{"id":"1108031006","district_id":"1108031","name":"TUTUI","postal_code":"97771"},{"id":"1108031007","district_id":"1108031","name":"PAKUK","postal_code":"23363"},{"id":"1108031008","district_id":"1108031","name":"PASAR LAMPAKU","postal_code":"22773"},{"id":"1108031009","district_id":"1108031","name":"SIGAPANG","postal_code":"23363"},{"id":"1108031010","district_id":"1108031","name":"KEUREUWEUNG KRUENG","postal_code":"24391"},{"id":"1108031011","district_id":"1108031","name":"KEUREUWEUNG BLANG","postal_code":"24391"},{"id":"1108031012","district_id":"1108031","name":"GLEE JAI","postal_code":"23363"},{"id":"1108031013","district_id":"1108031","name":"LAMPAKUK","postal_code":"23363"},{"id":"1108031014","district_id":"1108031","name":"BANDA SAFA","postal_code":"24351"},{"id":"1108031015","district_id":"1108031","name":"LAMTUI","postal_code":"23657"},{"id":"1108031016","district_id":"1108031","name":"LAMBEUGAK","postal_code":"94973"},{"id":"1108031017","district_id":"1108031","name":"LAMLEUPUNG","postal_code":"23363"},{"id":"1108031018","district_id":"1108031","name":"COT BAYU","postal_code":"23774"},{"id":"1108031019","district_id":"1108031","name":"KEUMIREU","postal_code":"23363"},{"id":"1108031020","district_id":"1108031","name":"LAMLEUOT","postal_code":"23363"},{"id":"1108031021","district_id":"1108031","name":"LEUPUNG BALEU","postal_code":"24167"},{"id":"1108031022","district_id":"1108031","name":"IE ALANG LAMKEUREUMEUH","postal_code":"23363"},{"id":"1108031023","district_id":"1108031","name":"IE ALANG MESJID","postal_code":"23363"},{"id":"1108031024","district_id":"1108031","name":"IE ALANG DAYAH","postal_code":"23363"},{"id":"1108031025","district_id":"1108031","name":"IE ALANG LAMGHUI","postal_code":"23363"},{"id":"1108031026","district_id":"1108031","name":"MAHENG","postal_code":"23363"},{"id":"1108031027","district_id":"1108031","name":"LEUPUNG BRUEK","postal_code":"23363"},{"id":"1108031028","district_id":"1108031","name":"LAM ALING","postal_code":"57716"},{"id":"1108031029","district_id":"1108031","name":"LAMSIE","postal_code":"23352"},{"id":"1108031030","district_id":"1108031","name":"LAMPOH RAJA","postal_code":"23363"},{"id":"1108031031","district_id":"1108031","name":"BARIH LHOK","postal_code":"23363"},{"id":"1108031032","district_id":"1108031","name":"LAMKLENG","postal_code":"23351"}]