[{"id":"1108010001","district_id":"1108010","name":"MEUNASAH LHOK","postal_code":"24186"},{"id":"1108010002","district_id":"1108010","name":"PUDENG","postal_code":"23354"},{"id":"1108010003","district_id":"1108010","name":"PASI","postal_code":"62292"},{"id":"1108010004","district_id":"1108010","name":"GLEE BRUEK","postal_code":"23354"},{"id":"1108010005","district_id":"1108010","name":"MEUNASAH COT","postal_code":"24262"},{"id":"1108010006","district_id":"1108010","name":"CUNDIEN","postal_code":"86757"},{"id":"1108010007","district_id":"1108010","name":"GAPUY","postal_code":"23354"},{"id":"1108010008","district_id":"1108010","name":"MON MATA","postal_code":"23654"},{"id":"1108010009","district_id":"1108010","name":"KEUTAPANG","postal_code":"24151"},{"id":"1108010010","district_id":"1108010","name":"LAMSUJEN","postal_code":"23352"},{"id":"1108010011","district_id":"1108010","name":"LAMJUHANG","postal_code":"23951"},{"id":"1108010012","district_id":"1108010","name":"UTAMONG","postal_code":"23354"},{"id":"1108010013","district_id":"1108010","name":"SANEY","postal_code":"23354"},{"id":"1108010014","district_id":"1108010","name":"LAMGEURIHEU","postal_code":"23361"},{"id":"1108010015","district_id":"1108010","name":"UMONG SEURIBEE","postal_code":"23354"},{"id":"1108010016","district_id":"1108010","name":"LAMKUTA BLANG MEE","postal_code":"24151"},{"id":"1108010017","district_id":"1108010","name":"TEUNGOH BLANG MEE","postal_code":"23354"},{"id":"1108010018","district_id":"1108010","name":"TEUNGOH GEUNTEUT","postal_code":"23354"},{"id":"1108010019","district_id":"1108010","name":"BAROH GEUNTEUT","postal_code":"23354"},{"id":"1108010020","district_id":"1108010","name":"BAROH BLANG MEE","postal_code":"23354"},{"id":"1108010021","district_id":"1108010","name":"JANTANG","postal_code":"23354"},{"id":"1108010022","district_id":"1108010","name":"MEUNASAH KRUENG KALA","postal_code":"23354"},{"id":"1108010023","district_id":"1108010","name":"KAREUNG","postal_code":"24152"},{"id":"1108010024","district_id":"1108010","name":"BIREK","postal_code":"23354"},{"id":"1108010025","district_id":"1108010","name":"SEUNGKO MULAT","postal_code":"23762"},{"id":"1108010026","district_id":"1108010","name":"BAROH KRUENG KALA","postal_code":"23354"},{"id":"1108010027","district_id":"1108010","name":"TUNONG KRUENG KALA","postal_code":"23354"},{"id":"1108010028","district_id":"1108010","name":"PAROY","postal_code":"23354"}]