[{"id":"1108061001","district_id":"1108061","name":"BLANG KRUENG","postal_code":"24184"},{"id":"1108061002","district_id":"1108061","name":"BAET","postal_code":"23373"},{"id":"1108061003","district_id":"1108061","name":"CADEK","postal_code":"23373"},{"id":"1108061004","district_id":"1108061","name":"KAJHU","postal_code":"23373"},{"id":"1108061005","district_id":"1108061","name":"COT PAYA","postal_code":"24392"},{"id":"1108061006","district_id":"1108061","name":"LAMBADA LHOK","postal_code":"23371"},{"id":"1108061007","district_id":"1108061","name":"KLIENG COT ARON","postal_code":"23373"},{"id":"1108061008","district_id":"1108061","name":"MIRUEK LAMREUDEUP","postal_code":"62261"},{"id":"1108061009","district_id":"1108061","name":"KLIENG MEURIA","postal_code":"23373"},{"id":"1108061010","district_id":"1108061","name":"LAMPINEUNG","postal_code":"23373"},{"id":"1108061011","district_id":"1108061","name":"LAM ASAN","postal_code":"23372"},{"id":"1108061012","district_id":"1108061","name":"LABUY","postal_code":"94568"},{"id":"1108061013","district_id":"1108061","name":"LAM UJONG","postal_code":"24164"}]