[{"id":"1108042001","district_id":"1108042","name":"PANCA","postal_code":"22756"},{"id":"1108042002","district_id":"1108042","name":"PANCA KUBU","postal_code":"23952"},{"id":"1108042003","district_id":"1108042","name":"LAM KUBU","postal_code":"23952"},{"id":"1108042004","district_id":"1108042","name":"LON ASAN","postal_code":"23952"},{"id":"1108042005","district_id":"1108042","name":"LON BAROH","postal_code":"23952"},{"id":"1108042006","district_id":"1108042","name":"PAYA KEUREULEH","postal_code":"23952"},{"id":"1108042007","district_id":"1108042","name":"LAMBARO TUNONG","postal_code":"23952"},{"id":"1108042008","district_id":"1108042","name":"TEULADAN","postal_code":"23952"},{"id":"1108042009","district_id":"1108042","name":"LAMTAMOT","postal_code":"23952"},{"id":"1108042010","district_id":"1108042","name":"SUKA DAMAI","postal_code":"37553"},{"id":"1108042011","district_id":"1108042","name":"SUKA MULIA","postal_code":"30862"},{"id":"1108042012","district_id":"1108042","name":"SAREE ACEH","postal_code":"23952"}]