[{"id":"1109112001","district_id":"1109112","name":"ALUE","postal_code":"24184"},{"id":"1109112002","district_id":"1109112","name":"BLANG THO","postal_code":"24165"},{"id":"1109112003","district_id":"1109112","name":"ASAN TONGPEUDENG","postal_code":"24456"},{"id":"1109112004","district_id":"1109112","name":"MESJID TONGPEUDENG","postal_code":"24173"},{"id":"1109112005","district_id":"1109112","name":"PULO LOIH","postal_code":"24165"},{"id":"1109112006","district_id":"1109112","name":"PULO RAYA","postal_code":"24165"},{"id":"1109112007","district_id":"1109112","name":"PALOH NALEUNG","postal_code":"24165"},{"id":"1109112008","district_id":"1109112","name":"DAYAH MENARA","postal_code":"24165"},{"id":"1109112009","district_id":"1109112","name":"PANTE SIREN","postal_code":"24165"},{"id":"1109112010","district_id":"1109112","name":"UKE","postal_code":"98763"},{"id":"1109112011","district_id":"1109112","name":"PANTE KULU","postal_code":"24165"},{"id":"1109112012","district_id":"1109112","name":"CUT","postal_code":"24161"},{"id":"1109112013","district_id":"1109112","name":"LINGKOK","postal_code":"24164"}]