[{"id":"1109180001","district_id":"1109180","name":"BENTAYAN","postal_code":"24182"},{"id":"1109180002","district_id":"1109180","name":"MEUNASAH KANDANG","postal_code":"24182"},{"id":"1109180003","district_id":"1109180","name":"PUUK","postal_code":"24151"},{"id":"1109180004","district_id":"1109180","name":"JURONG BALE","postal_code":"24182"},{"id":"1109180005","district_id":"1109180","name":"ARON ASAN KUMBANG","postal_code":"24182"},{"id":"1109180006","district_id":"1109180","name":"MEUNASAH MESJID","postal_code":"24187"},{"id":"1109180007","district_id":"1109180","name":"MEUNASAH MEE","postal_code":"24152"},{"id":"1109180008","district_id":"1109180","name":"MEUNASAH TEUNGOH","postal_code":"24186"},{"id":"1109180009","district_id":"1109180","name":"ASAN","postal_code":"24182"},{"id":"1109180010","district_id":"1109180","name":"PANJOU","postal_code":"24183"},{"id":"1109180011","district_id":"1109180","name":"JEUMEURANG","postal_code":"23114"},{"id":"1109180012","district_id":"1109180","name":"PUSONG","postal_code":"24182"},{"id":"1109180013","district_id":"1109180","name":"PASI LHOK","postal_code":"24182"},{"id":"1109180014","district_id":"1109180","name":"KAYEE PANYANG","postal_code":"24182"},{"id":"1109180015","district_id":"1109180","name":"TANJONG","postal_code":"24162"},{"id":"1109180016","district_id":"1109180","name":"LAMKAWE","postal_code":"24182"},{"id":"1109180017","district_id":"1109180","name":"BLANG CUT","postal_code":"24186"},{"id":"1109180018","district_id":"1109180","name":"GEULUMPANG","postal_code":"24161"},{"id":"1109180019","district_id":"1109180","name":"ARON KUTA BARO","postal_code":"24182"},{"id":"1109180020","district_id":"1109180","name":"ARAIH","postal_code":"45365"},{"id":"1109180021","district_id":"1109180","name":"BARAT","postal_code":"24182"},{"id":"1109180022","district_id":"1109180","name":"TEUMPEUN","postal_code":"24182"},{"id":"1109180023","district_id":"1109180","name":"REUNG REUNG","postal_code":"24182"},{"id":"1109180024","district_id":"1109180","name":"DAYAH BLANG","postal_code":"24181"},{"id":"1109180025","district_id":"1109180","name":"CEBREK","postal_code":"24181"},{"id":"1109180026","district_id":"1109180","name":"DAYAH MON ARA","postal_code":"24262"},{"id":"1109180027","district_id":"1109180","name":"JURONG MESJID","postal_code":"24182"},{"id":"1109180028","district_id":"1109180","name":"MEUNASAH GANTUNG","postal_code":"24182"},{"id":"1109180029","district_id":"1109180","name":"BABAH JURONG","postal_code":"24163"},{"id":"1109180030","district_id":"1109180","name":"MEURAKSA","postal_code":"24186"},{"id":"1109180031","district_id":"1109180","name":"ARUSAN","postal_code":"24182"},{"id":"1109180032","district_id":"1109180","name":"JARENG","postal_code":"70552"},{"id":"1109180033","district_id":"1109180","name":"KEUPULA","postal_code":"24153"},{"id":"1109180034","district_id":"1109180","name":"KEUREUMBOK","postal_code":"94974"},{"id":"1109180035","district_id":"1109180","name":"MATANG KULI","postal_code":"24182"},{"id":"1109180036","district_id":"1109180","name":"MEUNASAH MANYANG","postal_code":"24352"},{"id":"1109180037","district_id":"1109180","name":"MEUNASAH KRUENG","postal_code":"24182"},{"id":"1109180038","district_id":"1109180","name":"MEUNASAH BARO","postal_code":"24182"},{"id":"1109180039","district_id":"1109180","name":"SUKON","postal_code":"24152"},{"id":"1109180040","district_id":"1109180","name":"ARA","postal_code":"24184"},{"id":"1109180041","district_id":"1109180","name":"KRUENG DHOU","postal_code":"24151"},{"id":"1109180042","district_id":"1109180","name":"TANJONG KRUENG","postal_code":"24116"},{"id":"1109180043","district_id":"1109180","name":"LANCANG","postal_code":"24182"},{"id":"1109180044","district_id":"1109180","name":"KEUDE IE LEUBEUE","postal_code":"24182"},{"id":"1109180045","district_id":"1109180","name":"PASI IE LEUBEUE","postal_code":"24182"}]