[{"id":"1109151001","district_id":"1109151","name":"BEUREULEUNG","postal_code":"24152"},{"id":"1109151002","district_id":"1109151","name":"PANGGE\/PILOK","postal_code":"24152"},{"id":"1109151003","district_id":"1109151","name":"NICAH","postal_code":"24261"},{"id":"1109151004","district_id":"1109151","name":"MESJID MEMEUANEUK","postal_code":"24184"},{"id":"1109151005","district_id":"1109151","name":"SENTOSA","postal_code":"24152"},{"id":"1109151006","district_id":"1109151","name":"SUKON","postal_code":"24152"},{"id":"1109151007","district_id":"1109151","name":"DAKA","postal_code":"24152"},{"id":"1109151008","district_id":"1109151","name":"BAROH BEUREULEUNG","postal_code":"24151"},{"id":"1109151009","district_id":"1109151","name":"TEUNGOH BEUREULEUNG","postal_code":"24172"},{"id":"1109151010","district_id":"1109151","name":"MESJID BEUREULEUNG","postal_code":"24152"},{"id":"1109151011","district_id":"1109151","name":"MEE BEUREULEUNG","postal_code":"24372"},{"id":"1109151012","district_id":"1109151","name":"PAYA","postal_code":"23529"},{"id":"1109151013","district_id":"1109151","name":"GINTONG","postal_code":"24152"},{"id":"1109151014","district_id":"1109151","name":"KARIENG","postal_code":"24152"},{"id":"1109151015","district_id":"1109151","name":"GRONG GRONG","postal_code":"24186"}]