[{"id":"1109170001","district_id":"1109170","name":"BLUEK ARAB","postal_code":"52451"},{"id":"1109170002","district_id":"1109170","name":"SIALET ALET","postal_code":"22881"},{"id":"1109170003","district_id":"1109170","name":"MEE TANOH","postal_code":"24173"},{"id":"1109170004","district_id":"1109170","name":"PUUK","postal_code":"24151"},{"id":"1109170005","district_id":"1109170","name":"BALEE","postal_code":"24184"},{"id":"1109170006","district_id":"1109170","name":"MEUNJEE MESJID","postal_code":"24183"},{"id":"1109170007","district_id":"1109170","name":"SUMBOE BUGA","postal_code":"24172"},{"id":"1109170008","district_id":"1109170","name":"RAMBAYAN KUPULA","postal_code":"24172"},{"id":"1109170009","district_id":"1109170","name":"RAMBAYAN LUENG","postal_code":"24172"},{"id":"1109170010","district_id":"1109170","name":"DAYAH BUBUE","postal_code":"24172"},{"id":"1109170011","district_id":"1109170","name":"TANJONG HAGU","postal_code":"24172"},{"id":"1109170012","district_id":"1109170","name":"DUA PAYA","postal_code":"24172"},{"id":"1109170013","district_id":"1109170","name":"MEE LAMPOIH SAKA","postal_code":"24172"},{"id":"1109170014","district_id":"1109170","name":"LUENG GUCI RUMPONG","postal_code":"23653"},{"id":"1109170015","district_id":"1109170","name":"COT MULU","postal_code":"23661"},{"id":"1109170016","district_id":"1109170","name":"KUMBANG WAIDO","postal_code":"24172"},{"id":"1109170017","district_id":"1109170","name":"WAIDO","postal_code":"98484"},{"id":"1109170018","district_id":"1109170","name":"DAYAH SEUMIDEN","postal_code":"24162"},{"id":"1109170019","district_id":"1109170","name":"BLANG SEUPENG","postal_code":"24251"},{"id":"1109170020","district_id":"1109170","name":"DAYAH MUARA","postal_code":"24172"},{"id":"1109170021","district_id":"1109170","name":"MEULEUWEUK","postal_code":"24172"},{"id":"1109170022","district_id":"1109170","name":"JIM","postal_code":"24172"},{"id":"1109170023","district_id":"1109170","name":"KABAT","postal_code":"24172"},{"id":"1109170024","district_id":"1109170","name":"LEUHOB","postal_code":"24161"},{"id":"1109170025","district_id":"1109170","name":"PEUNAYONG","postal_code":"24172"},{"id":"1109170026","district_id":"1109170","name":"MESJID GUCI RUMPONG","postal_code":"24161"},{"id":"1109170027","district_id":"1109170","name":"MEE KRUKON","postal_code":"24172"},{"id":"1109170028","district_id":"1109170","name":"REUBA WAIDO","postal_code":"24172"},{"id":"1109170029","district_id":"1109170","name":"CEMPALA KUNENG","postal_code":"24172"},{"id":"1109170030","district_id":"1109170","name":"ULEE COT SEUPENG","postal_code":"24172"},{"id":"1109170031","district_id":"1109170","name":"SAWIET","postal_code":"24172"},{"id":"1109170032","district_id":"1109170","name":"ULEE TUTUE","postal_code":"24151"},{"id":"1109170033","district_id":"1109170","name":"KEUTAPANG","postal_code":"24151"},{"id":"1109170034","district_id":"1109170","name":"JURONG","postal_code":"24172"},{"id":"1109170035","district_id":"1109170","name":"RAYA KRUENG SEUMIDEN","postal_code":"21162"},{"id":"1109170036","district_id":"1109170","name":"KRUENG SEUMIDEN","postal_code":"23662"},{"id":"1109170037","district_id":"1109170","name":"SUKON KRUENG SEUMIDEN","postal_code":"24183"},{"id":"1109170038","district_id":"1109170","name":"BLANG KRUENG SEUMIDEN","postal_code":"24184"},{"id":"1109170039","district_id":"1109170","name":"KEUREUMBOK","postal_code":"94974"},{"id":"1109170040","district_id":"1109170","name":"MEE KRUENG SEUMIDEN","postal_code":"24172"},{"id":"1109170041","district_id":"1109170","name":"BLANG RAYA","postal_code":"24153"},{"id":"1109170042","district_id":"1109170","name":"DAYAH TEUNGKU","postal_code":"24381"},{"id":"1109170043","district_id":"1109170","name":"JURONG RAYA","postal_code":"24172"},{"id":"1109170044","district_id":"1109170","name":"BALEE RASTONG","postal_code":"24251"},{"id":"1109170045","district_id":"1109170","name":"LUENG MESJID","postal_code":"24172"},{"id":"1109170046","district_id":"1109170","name":"TEUNGOH BAROH","postal_code":"24172"},{"id":"1109170047","district_id":"1109170","name":"MEE HAGU","postal_code":"24172"},{"id":"1109170048","district_id":"1109170","name":"DAYAH SUKON","postal_code":"24172"}]