[{"id":"1109140001","district_id":"1109140","name":"SEUNADEU KUNYET","postal_code":"24161"},{"id":"1109140002","district_id":"1109140","name":"BLANG GUNCI KUNYET","postal_code":"24386"},{"id":"1109140003","district_id":"1109140","name":"KAMBUEK NICAH","postal_code":"98461"},{"id":"1109140004","district_id":"1109140","name":"KAMBUEK PAYAPI KUNYET","postal_code":"98461"},{"id":"1109140005","district_id":"1109140","name":"BARO KUNYET","postal_code":"24373"},{"id":"1109140006","district_id":"1109140","name":"HAGU KUNYET","postal_code":"24351"},{"id":"1109140007","district_id":"1109140","name":"PIALA KUNYET","postal_code":"24161"},{"id":"1109140008","district_id":"1109140","name":"MESJID KUNYET","postal_code":"24161"},{"id":"1109140009","district_id":"1109140","name":"DAYAH TANOH KUNYET","postal_code":"24151"},{"id":"1109140010","district_id":"1109140","name":"COT KUNYET","postal_code":"24377"},{"id":"1109140011","district_id":"1109140","name":"BLANG GEULEUDIENG","postal_code":"24161"},{"id":"1109140012","district_id":"1109140","name":"MESJID GEULEUDIENG","postal_code":"24161"},{"id":"1109140013","district_id":"1109140","name":"PERLAK PEUDAYA","postal_code":"24164"},{"id":"1109140014","district_id":"1109140","name":"DAYAH BAROH KUNYET","postal_code":"24187"},{"id":"1109140015","district_id":"1109140","name":"BUNI REULING PEUDAYA","postal_code":"24161"},{"id":"1109140016","district_id":"1109140","name":"BULOH PEUDAYA","postal_code":"24161"},{"id":"1109140017","district_id":"1109140","name":"MESJID PEUDAYA","postal_code":"24161"},{"id":"1109140018","district_id":"1109140","name":"CUT PEUDAYA","postal_code":"24373"},{"id":"1109140019","district_id":"1109140","name":"TUNONG PEUDAYA","postal_code":"24454"},{"id":"1109140020","district_id":"1109140","name":"SEUKEUN PEUDAYA","postal_code":"24151"},{"id":"1109140021","district_id":"1109140","name":"TUHA PEUDAYA","postal_code":"24163"},{"id":"1109140022","district_id":"1109140","name":"GEULUMPANG GLD","postal_code":"24392"},{"id":"1109140023","district_id":"1109140","name":"KREET PALOH","postal_code":"57471"},{"id":"1109140024","district_id":"1109140","name":"CAPA PALOH","postal_code":"24161"},{"id":"1109140025","district_id":"1109140","name":"JURONG ANOE","postal_code":"24161"},{"id":"1109140026","district_id":"1109140","name":"TEUGOH PEUDAYA","postal_code":"23363"},{"id":"1109140027","district_id":"1109140","name":"DAYAH PEUDAYA","postal_code":"24356"},{"id":"1109140028","district_id":"1109140","name":"CUT PALOH","postal_code":"24373"},{"id":"1109140029","district_id":"1109140","name":"PANTE CERMEN","postal_code":"24161"},{"id":"1109140030","district_id":"1109140","name":"MEUKE GOGO","postal_code":"24188"},{"id":"1109140031","district_id":"1109140","name":"RAYA GOGO","postal_code":"71183"},{"id":"1109140032","district_id":"1109140","name":"BULOH GOGO","postal_code":"24161"},{"id":"1109140033","district_id":"1109140","name":"KUMBANG GOGO","postal_code":"24173"},{"id":"1109140034","district_id":"1109140","name":"TUHA GOGO","postal_code":"24161"},{"id":"1109140035","district_id":"1109140","name":"GLEE GOGO","postal_code":"24171"},{"id":"1109140036","district_id":"1109140","name":"PALOH JEURAT BEURABO","postal_code":"24161"},{"id":"1109140037","district_id":"1109140","name":"ADANG BEURABO","postal_code":"24161"},{"id":"1109140038","district_id":"1109140","name":"SEULEUNGGING BEURABO","postal_code":"24161"},{"id":"1109140039","district_id":"1109140","name":"MEUKE BEURABO","postal_code":"24188"},{"id":"1109140040","district_id":"1109140","name":"MESJID BEURABO","postal_code":"24161"},{"id":"1109140041","district_id":"1109140","name":"MESJID GOGO","postal_code":"24161"},{"id":"1109140042","district_id":"1109140","name":"ARON BUNOT GOGO","postal_code":"24161"},{"id":"1109140043","district_id":"1109140","name":"TEUNGOH DRIEN GOGO","postal_code":"24161"},{"id":"1109140044","district_id":"1109140","name":"PASAR PALOH","postal_code":"38373"},{"id":"1109140045","district_id":"1109140","name":"SIRON PALOH","postal_code":"23363"},{"id":"1109140046","district_id":"1109140","name":"BALEE  PALOH","postal_code":"24184"},{"id":"1109140047","district_id":"1109140","name":"SUYO PALOH","postal_code":"24161"},{"id":"1109140048","district_id":"1109140","name":"GAMPONG COT PALOH","postal_code":"24382"},{"id":"1109140049","district_id":"1109140","name":"PULO HAGU TANJUNG","postal_code":"24161"},{"id":"1109140050","district_id":"1109140","name":"TRIENG PALOH","postal_code":"24373"},{"id":"1109140051","district_id":"1109140","name":"LEUHOB PALOH","postal_code":"24161"},{"id":"1109140052","district_id":"1109140","name":"PANTE CRUNG TANJONG","postal_code":"23681"},{"id":"1109140053","district_id":"1109140","name":"GRONG GRONG GOGO","postal_code":"24187"},{"id":"1109140054","district_id":"1109140","name":"SEUKEUM BROK  BEURABO","postal_code":"24162"},{"id":"1109140055","district_id":"1109140","name":"BARO BEURABO","postal_code":"24173"},{"id":"1109140056","district_id":"1109140","name":"MEURIYA TANJONG","postal_code":"24386"},{"id":"1109140057","district_id":"1109140","name":"KHANG TANJONG","postal_code":"24161"},{"id":"1109140058","district_id":"1109140","name":"LEUN TANJONG","postal_code":"23652"},{"id":"1109140059","district_id":"1109140","name":"COT KETAPANG TANJONG","postal_code":"24188"},{"id":"1109140060","district_id":"1109140","name":"SIRON TANJONG","postal_code":"24161"},{"id":"1109140061","district_id":"1109140","name":"MESJID TANJONG","postal_code":"24161"},{"id":"1109140062","district_id":"1109140","name":"KEUPULA TANJONG","postal_code":"24182"},{"id":"1109140063","district_id":"1109140","name":"JOK TANJONG","postal_code":"24161"},{"id":"1109140064","district_id":"1109140","name":"TUNONG TANJONG","postal_code":"24454"}]