[{"id":"1109111001","district_id":"1109111","name":"PAKO","postal_code":"28761"},{"id":"1109111002","district_id":"1109111","name":"TUNONG","postal_code":"24161"},{"id":"1109111003","district_id":"1109111","name":"PULO CAHI","postal_code":"23351"},{"id":"1109111004","district_id":"1109111","name":"PULO SEUPENG","postal_code":"24165"},{"id":"1109111005","district_id":"1109111","name":"PAPEUEN NICAH","postal_code":"24165"},{"id":"1109111006","district_id":"1109111","name":"UGADENG","postal_code":"97794"},{"id":"1109111007","district_id":"1109111","name":"KUMBANG","postal_code":"24161"},{"id":"1109111008","district_id":"1109111","name":"SAGOE","postal_code":"24184"},{"id":"1109111009","district_id":"1109111","name":"DAYAH KEUMALA","postal_code":"24165"},{"id":"1109111010","district_id":"1109111","name":"RHENG","postal_code":"24165"},{"id":"1109111011","district_id":"1109111","name":"MESJID NICAH","postal_code":"24165"},{"id":"1109111012","district_id":"1109111","name":"ASAN NICAH","postal_code":"24165"},{"id":"1109111013","district_id":"1109111","name":"PALOH TEUNGOH","postal_code":"24165"},{"id":"1109111014","district_id":"1109111","name":"JIJIEM","postal_code":"24184"},{"id":"1109111015","district_id":"1109111","name":"COT KREH","postal_code":"24165"},{"id":"1109111016","district_id":"1109111","name":"PULO BARO","postal_code":"24165"},{"id":"1109111017","district_id":"1109111","name":"COT NURAN","postal_code":"24165"},{"id":"1109111018","district_id":"1109111","name":"PULO PANTE","postal_code":"24165"}]