[{"id":"1109190001","district_id":"1109190","name":"RAYA PAYA","postal_code":"24181"},{"id":"1109190002","district_id":"1109190","name":"MESJID BUNGIE","postal_code":"24181"},{"id":"1109190003","district_id":"1109190","name":"LILIEP","postal_code":"97581"},{"id":"1109190004","district_id":"1109190","name":"UJONG BAROH","postal_code":"24181"},{"id":"1109190005","district_id":"1109190","name":"SEUK CUKOK","postal_code":"24181"},{"id":"1109190006","district_id":"1109190","name":"PULO TU","postal_code":"24181"},{"id":"1109190007","district_id":"1109190","name":"PALOH TOK DUE","postal_code":"24181"},{"id":"1109190008","district_id":"1109190","name":"MEUNASAH JUERONG","postal_code":"24382"},{"id":"1109190009","district_id":"1109190","name":"KAMPUNG BLANG","postal_code":"24181"},{"id":"1109190010","district_id":"1109190","name":"KULAM BARO","postal_code":"24181"},{"id":"1109190011","district_id":"1109190","name":"LINGGONG SAGOE","postal_code":"24181"},{"id":"1109190012","district_id":"1109190","name":"BLANG LEUEN","postal_code":"24181"},{"id":"1109190013","district_id":"1109190","name":"MESJID TUNGUE","postal_code":"24181"},{"id":"1109190014","district_id":"1109190","name":"ULEE BARAT","postal_code":"24181"},{"id":"1109190015","district_id":"1109190","name":"EMPEH","postal_code":"24173"},{"id":"1109190016","district_id":"1109190","name":"PADANG","postal_code":"70852"},{"id":"1109190017","district_id":"1109190","name":"DAYAH BLANG","postal_code":"24181"},{"id":"1109190018","district_id":"1109190","name":"TEUNGOH MANGKI","postal_code":"24181"},{"id":"1109190019","district_id":"1109190","name":"DAYAH BLANG CUT","postal_code":"24181"},{"id":"1109190020","district_id":"1109190","name":"NIEN","postal_code":"24181"},{"id":"1109190021","district_id":"1109190","name":"CURUCOK TIMUR","postal_code":"24181"},{"id":"1109190022","district_id":"1109190","name":"JAJA TUNONG","postal_code":"24181"},{"id":"1109190023","district_id":"1109190","name":"UJONG GAMPONG","postal_code":"24181"},{"id":"1109190024","district_id":"1109190","name":"LHEUE","postal_code":"24181"},{"id":"1109190025","district_id":"1109190","name":"JAJA BAROH","postal_code":"24181"},{"id":"1109190026","district_id":"1109190","name":"PULO RAYA","postal_code":"24165"},{"id":"1109190027","district_id":"1109190","name":"CURUCOK BARAT","postal_code":"24181"},{"id":"1109190028","district_id":"1109190","name":"CURUCOK SAGOE","postal_code":"24181"},{"id":"1109190029","district_id":"1109190","name":"COT ARA","postal_code":"24181"},{"id":"1109190030","district_id":"1109190","name":"MADIKA","postal_code":"24181"},{"id":"1109190031","district_id":"1109190","name":"SAGOE","postal_code":"24184"},{"id":"1109190032","district_id":"1109190","name":"BUNIEN","postal_code":"24181"},{"id":"1109190033","district_id":"1109190","name":"COT PALEUE","postal_code":"24181"},{"id":"1109190034","district_id":"1109190","name":"RAYA PALEUE","postal_code":"24181"},{"id":"1109190035","district_id":"1109190","name":"PANTE","postal_code":"24181"},{"id":"1109190036","district_id":"1109190","name":"PULO BLANG","postal_code":"24181"},{"id":"1109190037","district_id":"1109190","name":"GONG","postal_code":"24582"},{"id":"1109190038","district_id":"1109190","name":"MESJID GIGIENG","postal_code":"24181"},{"id":"1109190039","district_id":"1109190","name":"COT JAJA","postal_code":"24181"},{"id":"1109190040","district_id":"1109190","name":"PEUKAN TUHA","postal_code":"24181"},{"id":"1109190041","district_id":"1109190","name":"PULO GAJAH MATE","postal_code":"24181"},{"id":"1109190042","district_id":"1109190","name":"MEUNASAH BLANG","postal_code":"24163"},{"id":"1109190043","district_id":"1109190","name":"MAMPLAM","postal_code":"24181"},{"id":"1109190044","district_id":"1109190","name":"LAMBIDENG","postal_code":"24181"},{"id":"1109190045","district_id":"1109190","name":"SEUKEE","postal_code":"24181"},{"id":"1109190046","district_id":"1109190","name":"MEUNASAH LHEE","postal_code":"24181"},{"id":"1109190047","district_id":"1109190","name":"MANTAK RAYA","postal_code":"24181"},{"id":"1109190048","district_id":"1109190","name":"DAYAH LAMPOH AWE","postal_code":"24181"},{"id":"1109190049","district_id":"1109190","name":"KUPULA","postal_code":"24181"},{"id":"1109190050","district_id":"1109190","name":"SUKON","postal_code":"24152"},{"id":"1109190051","district_id":"1109190","name":"CEBREK","postal_code":"24181"},{"id":"1109190052","district_id":"1109190","name":"PEUKAN SOET","postal_code":"24473"}]