[{"id":"1110062001","district_id":"1110062","name":"COT TRIENG","postal_code":"24352"},{"id":"1110062002","district_id":"1110062","name":"LHOK AWE AWE","postal_code":"24261"},{"id":"1110062003","district_id":"1110062","name":"COT UNOE","postal_code":"24261"},{"id":"1110062004","district_id":"1110062","name":"COT BATEE","postal_code":"24261"},{"id":"1110062005","district_id":"1110062","name":"COT KUTA","postal_code":"23671"},{"id":"1110062006","district_id":"1110062","name":"COT GLUMPANG","postal_code":"24261"},{"id":"1110062007","district_id":"1110062","name":"GLUMPANG BAROH","postal_code":"24261"},{"id":"1110062008","district_id":"1110062","name":"LANCOK PANTE ARA","postal_code":"24261"},{"id":"1110062009","district_id":"1110062","name":"BALEE KUYUN","postal_code":"24261"},{"id":"1110062010","district_id":"1110062","name":"KAREUNG","postal_code":"24152"},{"id":"1110062011","district_id":"1110062","name":"LANCOK LANCOK","postal_code":"24261"},{"id":"1110062012","district_id":"1110062","name":"COT USIBAK","postal_code":"24392"},{"id":"1110062013","district_id":"1110062","name":"KUALA RAJA","postal_code":"24261"},{"id":"1110062014","district_id":"1110062","name":"UJONG BLANG MESJID","postal_code":"24261"},{"id":"1110062015","district_id":"1110062","name":"WEU JANGKA","postal_code":"24261"},{"id":"1110062016","district_id":"1110062","name":"COT LAGASAWA","postal_code":"24261"},{"id":"1110062017","district_id":"1110062","name":"UJONG BLANG","postal_code":"23672"},{"id":"1110062018","district_id":"1110062","name":"KUTA BARO","postal_code":"24261"},{"id":"1110062019","district_id":"1110062","name":"KRUENG JULI TIMUR","postal_code":"24261"},{"id":"1110062020","district_id":"1110062","name":"KRUENG JULI BARAT","postal_code":"24261"}]