[{"id":"1110080023","district_id":"1110080","name":"ALUE UDEUNG","postal_code":"24261"},{"id":"1110080024","district_id":"1110080","name":"ALUE PEUNO","postal_code":"24261"},{"id":"1110080038","district_id":"1110080","name":"KAPA","postal_code":"24411"},{"id":"1110080039","district_id":"1110080","name":"BLANG PANJOE","postal_code":"24261"},{"id":"1110080040","district_id":"1110080","name":"PANTE LHONG","postal_code":"24261"},{"id":"1110080041","district_id":"1110080","name":"PAYA CUT","postal_code":"24251"},{"id":"1110080042","district_id":"1110080","name":"SEUNEUBOK ACEH","postal_code":"24261"},{"id":"1110080043","district_id":"1110080","name":"PAYA LIPAH","postal_code":"24261"},{"id":"1110080044","district_id":"1110080","name":"SEUNEUBOK RAWA","postal_code":"24261"},{"id":"1110080045","district_id":"1110080","name":"BLANG GEULANGGANG","postal_code":"24261"},{"id":"1110080046","district_id":"1110080","name":"UTEUN BUNTA","postal_code":"24261"},{"id":"1110080047","district_id":"1110080","name":"PAYA REUHAT","postal_code":"24261"},{"id":"1110080048","district_id":"1110080","name":"PAYA ABO","postal_code":"23529"},{"id":"1110080049","district_id":"1110080","name":"PALOH","postal_code":"24151"},{"id":"1110080050","district_id":"1110080","name":"PAYA MEUNENG","postal_code":"24261"},{"id":"1110080051","district_id":"1110080","name":"MATANG SAGOE","postal_code":"24261"},{"id":"1110080052","district_id":"1110080","name":"PANTON GEULIMA","postal_code":"24261"},{"id":"1110080053","district_id":"1110080","name":"NEUHEUEN","postal_code":"24261"},{"id":"1110080054","district_id":"1110080","name":"KEUDE MATANG GLP DUA","postal_code":"24355"},{"id":"1110080055","district_id":"1110080","name":"PANTE GAJAH","postal_code":"24261"},{"id":"1110080056","district_id":"1110080","name":"BLANG ASAN","postal_code":"24111"},{"id":"1110080057","district_id":"1110080","name":"GAMPONG RAYA DAGANG","postal_code":"24261"},{"id":"1110080058","district_id":"1110080","name":"GAMPONG RAYA TAMBO","postal_code":"24261"},{"id":"1110080059","district_id":"1110080","name":"KEUDE TANJONG","postal_code":"24261"},{"id":"1110080060","district_id":"1110080","name":"PANTE PISANG","postal_code":"24261"},{"id":"1110080061","district_id":"1110080","name":"BLANG CUT SP IV","postal_code":"24186"},{"id":"1110080062","district_id":"1110080","name":"PANTE CUT","postal_code":"24261"},{"id":"1110080063","district_id":"1110080","name":"MATANG GLP DUA MEUNASAH TIMU","postal_code":"24453"},{"id":"1110080064","district_id":"1110080","name":"MATANG GLP DUA MEUNASAH DAYAH","postal_code":"24453"},{"id":"1110080065","district_id":"1110080","name":"MATANG MESJID","postal_code":"24261"},{"id":"1110080066","district_id":"1110080","name":"COT PANJOE","postal_code":"24261"},{"id":"1110080067","district_id":"1110080","name":"COT KEURANJI","postal_code":"24261"},{"id":"1110080068","district_id":"1110080","name":"GAMPONG BAROH","postal_code":"24261"},{"id":"1110080069","district_id":"1110080","name":"BLANG RAMBONG","postal_code":"24261"},{"id":"1110080070","district_id":"1110080","name":"TANOH MIRAH","postal_code":"24184"},{"id":"1110080071","district_id":"1110080","name":"COT GIREK","postal_code":"24261"},{"id":"1110080072","district_id":"1110080","name":"SAGOE","postal_code":"24184"},{"id":"1110080073","district_id":"1110080","name":"COT BADA BARAT","postal_code":"24261"},{"id":"1110080074","district_id":"1110080","name":"COT BADA TUNONG","postal_code":"24261"},{"id":"1110080075","district_id":"1110080","name":"COT BUKET","postal_code":"24261"},{"id":"1110080076","district_id":"1110080","name":"COT IEJU","postal_code":"24251"},{"id":"1110080077","district_id":"1110080","name":"NICAH","postal_code":"24261"},{"id":"1110080078","district_id":"1110080","name":"COT BADA BAROH","postal_code":"24261"},{"id":"1110080079","district_id":"1110080","name":"COT KEUMUDEE","postal_code":"24261"},{"id":"1110080081","district_id":"1110080","name":"PULO NALEUNG","postal_code":"24261"},{"id":"1110080082","district_id":"1110080","name":"COT NGA","postal_code":"24261"},{"id":"1110080083","district_id":"1110080","name":"KARIENG","postal_code":"24152"},{"id":"1110080084","district_id":"1110080","name":"MATA MAMPLAM","postal_code":"24261"},{"id":"1110080085","district_id":"1110080","name":"ALUE GLUMPANG","postal_code":"23951"},{"id":"1110080086","district_id":"1110080","name":"COT RABO BAROH","postal_code":"24261"},{"id":"1110080087","district_id":"1110080","name":"COT RABO TUNONG","postal_code":"24261"},{"id":"1110080088","district_id":"1110080","name":"KRUENG DHEUE","postal_code":"24261"},{"id":"1110080089","district_id":"1110080","name":"MATANG COT PASEH","postal_code":"24261"},{"id":"1110080090","district_id":"1110080","name":"KRUENG BARO MESJID","postal_code":"24261"},{"id":"1110080091","district_id":"1110080","name":"GAMPONG PUTOH","postal_code":"24261"},{"id":"1110080092","district_id":"1110080","name":"PANTE PIYEU","postal_code":"24261"},{"id":"1110080093","district_id":"1110080","name":"TANJONG MESJID","postal_code":"24261"},{"id":"1110080094","district_id":"1110080","name":"TANJONG PAYA","postal_code":"24261"},{"id":"1110080095","district_id":"1110080","name":"TANJONG NIE","postal_code":"24261"},{"id":"1110080096","district_id":"1110080","name":"BAYU","postal_code":"24261"},{"id":"1110080097","district_id":"1110080","name":"KRUENG BARO BB KRUENG","postal_code":"24261"},{"id":"1110080098","district_id":"1110080","name":"MEUNASAH NIBONG","postal_code":"24261"},{"id":"1110080099","district_id":"1110080","name":"PANTE ARA","postal_code":"23672"},{"id":"1110080100","district_id":"1110080","name":"MEUNASAH MEUCAP","postal_code":"24261"},{"id":"1110080101","district_id":"1110080","name":"ASAN BIDEUN","postal_code":"24261"},{"id":"1110080102","district_id":"1110080","name":"PULO PISANG","postal_code":"24151"},{"id":"1110080104","district_id":"1110080","name":"COT PUUK","postal_code":"24261"},{"id":"1110080105","district_id":"1110080","name":"BLANG DALAM","postal_code":"24188"},{"id":"1110080106","district_id":"1110080","name":"PULO UE BARO","postal_code":"24186"}]