[{"id":"1110031001","district_id":"1110031","name":"BALEE DAKA","postal_code":"24263"},{"id":"1110031002","district_id":"1110031","name":"MATANG KULE","postal_code":"24458"},{"id":"1110031003","district_id":"1110031","name":"LANCOK BUNGO","postal_code":"24263"},{"id":"1110031004","district_id":"1110031","name":"TEUPIN PANAH","postal_code":"24263"},{"id":"1110031005","district_id":"1110031","name":"SEUNEUBOK PUNTI","postal_code":"24263"},{"id":"1110031006","district_id":"1110031","name":"UTEUN RUNGKOM","postal_code":"24263"},{"id":"1110031007","district_id":"1110031","name":"UTEUN SIKUMBONG","postal_code":"24263"},{"id":"1110031008","district_id":"1110031","name":"JAMBO DALAM","postal_code":"24263"},{"id":"1110031009","district_id":"1110031","name":"PALOH PUPU","postal_code":"24263"},{"id":"1110031010","district_id":"1110031","name":"RAMBONG PAYONG","postal_code":"24261"},{"id":"1110031011","district_id":"1110031","name":"COT GEULUMPANG","postal_code":"24151"},{"id":"1110031012","district_id":"1110031","name":"SEUNEUBOK ACEH","postal_code":"24261"},{"id":"1110031013","district_id":"1110031","name":"SEUNEUBOK NALAN","postal_code":"24263"},{"id":"1110031014","district_id":"1110031","name":"KRUENG BARO","postal_code":"24377"},{"id":"1110031015","district_id":"1110031","name":"KEUDE PLIMBANG","postal_code":"24263"},{"id":"1110031016","district_id":"1110031","name":"PUUEK","postal_code":"93463"},{"id":"1110031017","district_id":"1110031","name":"PADANG KASAB","postal_code":"24263"},{"id":"1110031018","district_id":"1110031","name":"SEUNEUBOK SEUMAWE","postal_code":"24263"},{"id":"1110031019","district_id":"1110031","name":"SEUNEUBOK PLIMBANG","postal_code":"24263"},{"id":"1110031020","district_id":"1110031","name":"SEUNEUBOK TEUNGOH","postal_code":"24263"},{"id":"1110031021","district_id":"1110031","name":"GARAB","postal_code":"24263"},{"id":"1110031022","district_id":"1110031","name":"KUTA TRIENG","postal_code":"24186"}]