[{"id":"1110081001","district_id":"1110081","name":"BLANG MANE","postal_code":"24261"},{"id":"1110081002","district_id":"1110081","name":"DARUSSALAM","postal_code":"35379"},{"id":"1110081003","district_id":"1110081","name":"TANJONG BEURIDI","postal_code":"24261"},{"id":"1110081004","district_id":"1110081","name":"DARUL AMAN","postal_code":"24261"},{"id":"1110081005","district_id":"1110081","name":"PAYA CROT","postal_code":"24262"},{"id":"1110081006","district_id":"1110081","name":"PULO PANYANG","postal_code":"24261"},{"id":"1110081007","district_id":"1110081","name":"ULEE JALAN","postal_code":"24351"},{"id":"1110081008","district_id":"1110081","name":"GEULANGGANG LABU","postal_code":"24261"},{"id":"1110081009","district_id":"1110081","name":"TEUPIN REUDEUP","postal_code":"24261"},{"id":"1110081010","district_id":"1110081","name":"KRUENG BEUKAH","postal_code":"24261"},{"id":"1110081011","district_id":"1110081","name":"BLANG PALA","postal_code":"24261"},{"id":"1110081012","district_id":"1110081","name":"CEUBREK","postal_code":"24261"},{"id":"1110081013","district_id":"1110081","name":"UTEUN GHATOM","postal_code":"24261"},{"id":"1110081014","district_id":"1110081","name":"ME RAYEUK","postal_code":"24261"},{"id":"1110081015","district_id":"1110081","name":"UTEUN RAYA","postal_code":"24261"},{"id":"1110081016","district_id":"1110081","name":"MATA IE","postal_code":"24261"},{"id":"1110081017","district_id":"1110081","name":"BLANG CUT","postal_code":"24186"},{"id":"1110081018","district_id":"1110081","name":"LUENG BARO","postal_code":"23671"},{"id":"1110081019","district_id":"1110081","name":"LUENG KULI","postal_code":"24261"},{"id":"1110081020","district_id":"1110081","name":"PULO HARAPAN","postal_code":"24261"},{"id":"1110081021","district_id":"1110081","name":"SUWAK","postal_code":"24261"}]