[{"id":"1111090001","district_id":"1111090","name":"BLANG TUE","postal_code":"24393"},{"id":"1111090002","district_id":"1111090","name":"MERBO PUNTONG","postal_code":"24391"},{"id":"1111090003","district_id":"1111090","name":"MANE KAWAN","postal_code":"24393"},{"id":"1111090004","district_id":"1111090","name":"TANJONG PINEUNG","postal_code":"24393"},{"id":"1111090005","district_id":"1111090","name":"ALUE KIRAN","postal_code":"24393"},{"id":"1111090006","district_id":"1111090","name":"ALUE BARUEH","postal_code":"24393"},{"id":"1111090007","district_id":"1111090","name":"KEUDE SIMPANG JALAN","postal_code":"24393"},{"id":"1111090008","district_id":"1111090","name":"COT KAFIRATON","postal_code":"23652"},{"id":"1111090009","district_id":"1111090","name":"PAYA DUA UJONG","postal_code":"24393"},{"id":"1111090010","district_id":"1111090","name":"TANJONG DAMA","postal_code":"24393"},{"id":"1111090011","district_id":"1111090","name":"PAYA DUA URAM","postal_code":"24393"},{"id":"1111090012","district_id":"1111090","name":"LHOK GEULITUET","postal_code":"24187"},{"id":"1111090013","district_id":"1111090","name":"MATANG ANOE","postal_code":"24185"},{"id":"1111090014","district_id":"1111090","name":"LHOK RAMBIDENG","postal_code":"24393"},{"id":"1111090015","district_id":"1111090","name":"BLANG PHA","postal_code":"24393"},{"id":"1111090016","district_id":"1111090","name":"MATANG JEULIKAT","postal_code":"24393"},{"id":"1111090017","district_id":"1111090","name":"DARUL AMAN","postal_code":"24261"},{"id":"1111090018","district_id":"1111090","name":"COT TRUENG","postal_code":"24355"},{"id":"1111090019","district_id":"1111090","name":"MEUNASAH SAGOE","postal_code":"24263"},{"id":"1111090020","district_id":"1111090","name":"MATANG PUNTONG","postal_code":"24374"},{"id":"1111090021","district_id":"1111090","name":"MATANG PANYANG","postal_code":"24411"},{"id":"1111090022","district_id":"1111090","name":"COT PATISAH","postal_code":"24393"},{"id":"1111090023","district_id":"1111090","name":"ALUE CAPLI","postal_code":"24472"},{"id":"1111090024","district_id":"1111090","name":"SIMPANG PEUT","postal_code":"23661"},{"id":"1111090025","district_id":"1111090","name":"ULEE TITI","postal_code":"24393"},{"id":"1111090026","district_id":"1111090","name":"LHOK PUUK","postal_code":"24185"},{"id":"1111090027","district_id":"1111090","name":"ULEE RUBEK BARAT","postal_code":"24393"},{"id":"1111090028","district_id":"1111090","name":"MATANG LADA","postal_code":"24393"},{"id":"1111090029","district_id":"1111090","name":"MATANG KARIENG","postal_code":"24393"},{"id":"1111090030","district_id":"1111090","name":"ULEE MATANG","postal_code":"24393"},{"id":"1111090031","district_id":"1111090","name":"ULEE RUBE TIMU","postal_code":"24354"},{"id":"1111090032","district_id":"1111090","name":"BANTAYAN","postal_code":"24263"},{"id":"1111090033","district_id":"1111090","name":"TEUPIN KUYUEN","postal_code":"24263"}]