[{"id":"1111160001","district_id":"1111160","name":"TEUPIN BANJA","postal_code":"24355"},{"id":"1111160002","district_id":"1111160","name":"PANIGAH","postal_code":"24355"},{"id":"1111160003","district_id":"1111160","name":"PALOH AWE","postal_code":"24355"},{"id":"1111160004","district_id":"1111160","name":"REULEUT TIMUR","postal_code":"24355"},{"id":"1111160005","district_id":"1111160","name":"REULEUT BARAT","postal_code":"24355"},{"id":"1111160006","district_id":"1111160","name":"PINTO MAKMUR","postal_code":"24355"},{"id":"1111160007","district_id":"1111160","name":"TUMPOK BEURANDANG","postal_code":"24355"},{"id":"1111160008","district_id":"1111160","name":"PALOH RAYA","postal_code":"24173"},{"id":"1111160009","district_id":"1111160","name":"MEUNASAH PINTO","postal_code":"24355"},{"id":"1111160010","district_id":"1111160","name":"KUALA DUA","postal_code":"78553"},{"id":"1111160011","district_id":"1111160","name":"KEUDE MANE","postal_code":"24355"},{"id":"1111160012","district_id":"1111160","name":"MANE TUNONG","postal_code":"24355"},{"id":"1111160013","district_id":"1111160","name":"PANTE GURAH","postal_code":"24355"},{"id":"1111160014","district_id":"1111160","name":"KAMBAM","postal_code":"24355"},{"id":"1111160015","district_id":"1111160","name":"KEUDE BUNGKAIH","postal_code":"24355"},{"id":"1111160016","district_id":"1111160","name":"ULEE MADON","postal_code":"24355"},{"id":"1111160017","district_id":"1111160","name":"MEUNASAH ARON","postal_code":"24355"},{"id":"1111160018","district_id":"1111160","name":"COT TRUENG","postal_code":"24355"},{"id":"1111160019","district_id":"1111160","name":"DAKUTA","postal_code":"24355"},{"id":"1111160020","district_id":"1111160","name":"MEUNASAH DRANG","postal_code":"24355"},{"id":"1111160021","district_id":"1111160","name":"MEUNASAH BARO","postal_code":"24182"},{"id":"1111160022","district_id":"1111160","name":"MEUNASAH LHOK","postal_code":"24186"},{"id":"1111160023","district_id":"1111160","name":"COT SEURANI","postal_code":"24355"},{"id":"1111160024","district_id":"1111160","name":"TANOH ANOUE","postal_code":"23653"}]