[{"id":"1111121001","district_id":"1111121","name":"BUMBAN","postal_code":"96254"},{"id":"1111121002","district_id":"1111121","name":"ALUE NGOM","postal_code":"24385"},{"id":"1111121003","district_id":"1111121","name":"ALUE PANAH","postal_code":"24385"},{"id":"1111121004","district_id":"1111121","name":"ALUE IE MIRAH","postal_code":"24385"},{"id":"1111121005","district_id":"1111121","name":"MADDI","postal_code":"24385"},{"id":"1111121006","district_id":"1111121","name":"TANJONG PUTOH","postal_code":"24385"},{"id":"1111121007","district_id":"1111121","name":"SEULUNYOK","postal_code":"24385"},{"id":"1111121008","district_id":"1111121","name":"RANTO","postal_code":"24372"},{"id":"1111121009","district_id":"1111121","name":"MENYE LHEE","postal_code":"24385"},{"id":"1111121010","district_id":"1111121","name":"KEULILEE","postal_code":"24385"},{"id":"1111121011","district_id":"1111121","name":"PAYA TEUREUBANG","postal_code":"24313"},{"id":"1111121012","district_id":"1111121","name":"SUMBOK RAYEK","postal_code":"24172"},{"id":"1111121013","district_id":"1111121","name":"MAMPLAM","postal_code":"24181"},{"id":"1111121014","district_id":"1111121","name":"KEH","postal_code":"24372"},{"id":"1111121015","district_id":"1111121","name":"DAYAH NIBONG","postal_code":"24385"},{"id":"1111121016","district_id":"1111121","name":"TEUPIN JOK","postal_code":"24385"},{"id":"1111121017","district_id":"1111121","name":"KEUPOK NIBONG","postal_code":"24385"},{"id":"1111121018","district_id":"1111121","name":"KEUDE NIBONG","postal_code":"24385"},{"id":"1111121019","district_id":"1111121","name":"NIBONG WAKEUH","postal_code":"24385"},{"id":"1111121020","district_id":"1111121","name":"NIBONG BAROH","postal_code":"24385"}]