[{"id":"1111040010","district_id":"1111040","name":"MEUDANG ARA","postal_code":"24373"},{"id":"1111040012","district_id":"1111040","name":"SIREN TUJOH","postal_code":"24373"},{"id":"1111040013","district_id":"1111040","name":"CUT NEUHEUN","postal_code":"24373"},{"id":"1111040014","district_id":"1111040","name":"TUMPEUN","postal_code":"67373"},{"id":"1111040015","district_id":"1111040","name":"A L E N","postal_code":"90552"},{"id":"1111040016","district_id":"1111040","name":"DAYAH BLANG SEUREUKUY","postal_code":"24373"},{"id":"1111040017","district_id":"1111040","name":"BLANG PATRA","postal_code":"24373"},{"id":"1111040019","district_id":"1111040","name":"BUKET GLUMPANG","postal_code":"24373"},{"id":"1111040020","district_id":"1111040","name":"SEUNEBOK BARO","postal_code":"24373"},{"id":"1111040021","district_id":"1111040","name":"ALUE MAJRON","postal_code":"24373"},{"id":"1111040022","district_id":"1111040","name":"BLANG MAJRON","postal_code":"24373"},{"id":"1111040023","district_id":"1111040","name":"BLANG SEUREUKUY","postal_code":"24251"},{"id":"1111040024","district_id":"1111040","name":"KAYEE PANYANG","postal_code":"24182"},{"id":"1111040025","district_id":"1111040","name":"ULEE MEURIA","postal_code":"24372"},{"id":"1111040026","district_id":"1111040","name":"PULO BLANG TRIENG","postal_code":"24373"},{"id":"1111040027","district_id":"1111040","name":"RHENG","postal_code":"24165"},{"id":"1111040028","district_id":"1111040","name":"TRIENG MEUDUROU","postal_code":"24373"},{"id":"1111040029","district_id":"1111040","name":"GAROT","postal_code":"24262"},{"id":"1111040030","district_id":"1111040","name":"CIBREK","postal_code":"24372"},{"id":"1111040031","district_id":"1111040","name":"BLANG AWE","postal_code":"24186"},{"id":"1111040032","district_id":"1111040","name":"PULO BLANG MANGAT","postal_code":"24373"},{"id":"1111040033","district_id":"1111040","name":"ULEE GAMPONG","postal_code":"24173"},{"id":"1111040034","district_id":"1111040","name":"BALE","postal_code":"97852"},{"id":"1111040035","district_id":"1111040","name":"BIE","postal_code":"24151"},{"id":"1111040036","district_id":"1111040","name":"NIBONG","postal_code":"24173"},{"id":"1111040037","district_id":"1111040","name":"BARO KULAM GAJAH","postal_code":"24373"},{"id":"1111040038","district_id":"1111040","name":"BEURANDANG","postal_code":"24373"},{"id":"1111040039","district_id":"1111040","name":"MNS GLONG","postal_code":"98358"},{"id":"1111040040","district_id":"1111040","name":"MNS LANGA","postal_code":"98358"},{"id":"1111040041","district_id":"1111040","name":"MNS BEUNOT","postal_code":"98358"},{"id":"1111040042","district_id":"1111040","name":"KEUDE BAYU","postal_code":"24373"},{"id":"1111040043","district_id":"1111040","name":"BLANG BAYU","postal_code":"23671"},{"id":"1111040044","district_id":"1111040","name":"DAYAH BARO","postal_code":"24162"},{"id":"1111040045","district_id":"1111040","name":"DAYAH TUHA","postal_code":"24186"},{"id":"1111040046","district_id":"1111040","name":"BUNGONG","postal_code":"24183"},{"id":"1111040047","district_id":"1111040","name":"PUNTI","postal_code":"84162"},{"id":"1111040048","district_id":"1111040","name":"BAROH BLANG RIMUENG","postal_code":"24373"},{"id":"1111040049","district_id":"1111040","name":"LANCOK","postal_code":"24186"}]