[{"id":"1112011001","district_id":"1112011","name":"UJUNG TANAH","postal_code":"90984"},{"id":"1112011002","district_id":"1112011","name":"KUTA PAYA","postal_code":"23671"},{"id":"1112011003","district_id":"1112011","name":"GEULANGGANG BATEE","postal_code":"23762"},{"id":"1112011004","district_id":"1112011","name":"MEUNASAH TENGAH","postal_code":"24262"},{"id":"1112011005","district_id":"1112011","name":"MEUNASAH SUKON","postal_code":"24172"},{"id":"1112011006","district_id":"1112011","name":"COT BAK-U","postal_code":"23362"},{"id":"1112011007","district_id":"1112011","name":"MEURANDEH","postal_code":"24416"},{"id":"1112011008","district_id":"1112011","name":"PADANG KELELE","postal_code":"36655"},{"id":"1112011009","district_id":"1112011","name":"LADANG TUHA I","postal_code":"23762"},{"id":"1112011010","district_id":"1112011","name":"LADANG TUHA II","postal_code":"23762"},{"id":"1112011011","district_id":"1112011","name":"ALUE RAMBOT","postal_code":"23662"},{"id":"1112011016","district_id":"1112011","name":"SUKA DAMAI","postal_code":"37553"},{"id":"1112011017","district_id":"1112011","name":"TOKOH II","postal_code":"23762"},{"id":"1112011018","district_id":"1112011","name":"KAYE ACEH","postal_code":"99777"}]