[{"id":"1112020001","district_id":"1112020","name":"PADANG BAKJOK","postal_code":"23761"},{"id":"1112020002","district_id":"1112020","name":"SUAK NIBONG","postal_code":"23763"},{"id":"1112020003","district_id":"1112020","name":"DRIEN KIPAH","postal_code":"23763"},{"id":"1112020004","district_id":"1112020","name":"BINEH KRUENG","postal_code":"23763"},{"id":"1112020005","district_id":"1112020","name":"DRIEN JALO","postal_code":"23754"},{"id":"1112020006","district_id":"1112020","name":"PADANG KAWA","postal_code":"23763"},{"id":"1112020007","district_id":"1112020","name":"MESJID","postal_code":"75133"},{"id":"1112020008","district_id":"1112020","name":"ADAN","postal_code":"24188"},{"id":"1112020009","district_id":"1112020","name":"PANTE GEULUMPANG","postal_code":"23763"},{"id":"1112020010","district_id":"1112020","name":"GUNUNG CUT","postal_code":"23752"},{"id":"1112020011","district_id":"1112020","name":"PADANG BAK JEUMPA","postal_code":"85871"},{"id":"1112020012","district_id":"1112020","name":"BLANG PADANG","postal_code":"23763"},{"id":"1112020013","district_id":"1112020","name":"SUAK LABU","postal_code":"36555"},{"id":"1112020014","district_id":"1112020","name":"KUTA BAK DRIN","postal_code":"23763"},{"id":"1112020015","district_id":"1112020","name":"IE LHOP","postal_code":"23656"}]