[{"id":"1113023001","district_id":"1113023","name":"BENER BARU","postal_code":"24653"},{"id":"1113023002","district_id":"1113023","name":"KUTE BUKIT","postal_code":"24563"},{"id":"1113023003","district_id":"1113023","name":"BLANG BENGKIK","postal_code":"24561"},{"id":"1113023004","district_id":"1113023","name":"GANTUNG GELUNI","postal_code":"24653"},{"id":"1113023005","district_id":"1113023","name":"KONG BUR","postal_code":"24653"},{"id":"1113023006","district_id":"1113023","name":"UME LAH","postal_code":"24653"},{"id":"1113023007","district_id":"1113023","name":"AKANG SIWAH","postal_code":"24653"},{"id":"1113023008","district_id":"1113023","name":"TETINGI","postal_code":"24653"},{"id":"1113023009","district_id":"1113023","name":"CINTA MAJU","postal_code":"22395"},{"id":"1113023011","district_id":"1113023","name":"PORANG AYU","postal_code":"24653"},{"id":"1113023012","district_id":"1113023","name":"ANAK REJE","postal_code":"24653"},{"id":"1113023013","district_id":"1113023","name":"RAK LINTANG","postal_code":"24653"}]