[{"id":"1113021001","district_id":"1113021","name":"MARPUNGE","postal_code":"24655"},{"id":"1113021002","district_id":"1113021","name":"RAMUNG MUSARA","postal_code":"24655"},{"id":"1113021003","district_id":"1113021","name":"MELOAK SEPAKAT","postal_code":"24655"},{"id":"1113021004","district_id":"1113021","name":"GUMPANG PEKAN","postal_code":"24655"},{"id":"1113021005","district_id":"1113021","name":"PINTU GAYO","postal_code":"22381"},{"id":"1113021006","district_id":"1113021","name":"JERET ONOM","postal_code":"97791"},{"id":"1113021007","district_id":"1113021","name":"KUTE LENGAT SEPAKAT","postal_code":"24671"},{"id":"1113021008","district_id":"1113021","name":"PUNGKE JAYA","postal_code":"29282"},{"id":"1113021009","district_id":"1113021","name":"SINGAH MULE","postal_code":"16370"},{"id":"1113021010","district_id":"1113021","name":"MELOAK AIH ILANG","postal_code":"86583"},{"id":"1113021011","district_id":"1113021","name":"UNING PUNE","postal_code":"24655"},{"id":"1113021012","district_id":"1113021","name":"PUTRI BETUNG","postal_code":"24655"},{"id":"1113021013","district_id":"1113021","name":"GUMPANG LEMPUH","postal_code":"24655"}]