[{"id":"1113050001","district_id":"1113050","name":"BUKUT","postal_code":"24656"},{"id":"1113050002","district_id":"1113050","name":"SOYO","postal_code":"24656"},{"id":"1113050003","district_id":"1113050","name":"KUTA SANGE","postal_code":"24263"},{"id":"1113050004","district_id":"1113050","name":"RUMPI","postal_code":"24656"},{"id":"1113050005","district_id":"1113050","name":"REMPELAM JABO","postal_code":"24654"},{"id":"1113050006","district_id":"1113050","name":"PADANG","postal_code":"70852"},{"id":"1113050007","district_id":"1113050","name":"TERANGUN","postal_code":"92511"},{"id":"1113050008","district_id":"1113050","name":"REMPELAM PINANG","postal_code":"24654"},{"id":"1113050012","district_id":"1113050","name":"TERLIS","postal_code":"24656"},{"id":"1113050013","district_id":"1113050","name":"BERHUT","postal_code":"24656"},{"id":"1113050015","district_id":"1113050","name":"KUTE REJE","postal_code":"24656"},{"id":"1113050016","district_id":"1113050","name":"GEWAT","postal_code":"24656"},{"id":"1113050017","district_id":"1113050","name":"PANTAN LUES","postal_code":"24656"},{"id":"1113050018","district_id":"1113050","name":"MAKMUR JAYA","postal_code":"36555"},{"id":"1113050019","district_id":"1113050","name":"PERSADA TONGRA","postal_code":"24656"},{"id":"1113050020","district_id":"1113050","name":"BLANG KUNCIR","postal_code":"24656"},{"id":"1113050021","district_id":"1113050","name":"TELEGE JERNIH","postal_code":"24656"},{"id":"1113050022","district_id":"1113050","name":"REJE PUDUNG","postal_code":"24656"},{"id":"1113050023","district_id":"1113050","name":"MELELANG","postal_code":"98915"},{"id":"1113050024","district_id":"1113050","name":"LESTARI","postal_code":"64391"},{"id":"1113050025","district_id":"1113050","name":"BLANG KALA","postal_code":"24656"},{"id":"1113050026","district_id":"1113050","name":"GARUT","postal_code":"35386"},{"id":"1113050027","district_id":"1113050","name":"GAWAR BELANGI","postal_code":"24656"},{"id":"1113050028","district_id":"1113050","name":"RIME RAYA","postal_code":"24656"},{"id":"1113050029","district_id":"1113050","name":"BLANG KEDE","postal_code":"24376"}]