[{"id":"1114080001","district_id":"1114080","name":"KRUENG SIKAJANG","postal_code":"24471"},{"id":"1114080002","district_id":"1114080","name":"SEUNEUBOK PUNTI","postal_code":"24263"},{"id":"1114080003","district_id":"1114080","name":"PAYA KETENGGAR","postal_code":"24471"},{"id":"1114080004","district_id":"1114080","name":"BUKET PANJANG II","postal_code":"24471"},{"id":"1114080005","district_id":"1114080","name":"BUKET PAYA","postal_code":"24262"},{"id":"1114080006","district_id":"1114080","name":"BUKIT PANJANG I","postal_code":"24471"},{"id":"1114080007","district_id":"1114080","name":"SEUNEUBOK BARU","postal_code":"24471"},{"id":"1114080008","district_id":"1114080","name":"BENTENG ANYER","postal_code":"24471"},{"id":"1114080009","district_id":"1114080","name":"MATANG ARA JAWA","postal_code":"24471"},{"id":"1114080010","district_id":"1114080","name":"MATANG ARA ACEH","postal_code":"24471"},{"id":"1114080011","district_id":"1114080","name":"LHOK MEDANG ARA","postal_code":"24471"},{"id":"1114080012","district_id":"1114080","name":"IE BINTAH","postal_code":"24471"},{"id":"1114080013","district_id":"1114080","name":"TUALANG BARU","postal_code":"24671"},{"id":"1114080014","district_id":"1114080","name":"PAHLAWAN","postal_code":"21132"},{"id":"1114080015","district_id":"1114080","name":"GASEH SAYANG","postal_code":"24455"},{"id":"1114080016","district_id":"1114080","name":"SAMPAIMAH","postal_code":"24471"},{"id":"1114080017","district_id":"1114080","name":"GELANGGANG MERAK","postal_code":"24471"},{"id":"1114080018","district_id":"1114080","name":"MATANG CINCIN","postal_code":"24471"},{"id":"1114080019","district_id":"1114080","name":"ALUE IE PUTEH","postal_code":"24471"},{"id":"1114080020","district_id":"1114080","name":"LUENG MANYO","postal_code":"24471"},{"id":"1114080021","district_id":"1114080","name":"RAJA TUHA","postal_code":"24471"},{"id":"1114080022","district_id":"1114080","name":"SEUNEUBOK PIDIE","postal_code":"24394"},{"id":"1114080023","district_id":"1114080","name":"GEUDHAM","postal_code":"24471"},{"id":"1114080024","district_id":"1114080","name":"ALUE SENTANG","postal_code":"24452"},{"id":"1114080025","district_id":"1114080","name":"UJONG TANJONG","postal_code":"23662"},{"id":"1114080026","district_id":"1114080","name":"TANJUNG NERACA","postal_code":"24471"},{"id":"1114080027","district_id":"1114080","name":"DAGANG SETIA","postal_code":"24471"},{"id":"1114080028","district_id":"1114080","name":"SIMPANG LHEE","postal_code":"24451"},{"id":"1114080029","district_id":"1114080","name":"SEUNEUBOK CANTEK","postal_code":"24471"},{"id":"1114080030","district_id":"1114080","name":"MESJID","postal_code":"75133"},{"id":"1114080031","district_id":"1114080","name":"MEUNASAH PAYA","postal_code":"24471"},{"id":"1114080032","district_id":"1114080","name":"MEURANDEH","postal_code":"24416"},{"id":"1114080033","district_id":"1114080","name":"BANDUNG JAYA","postal_code":"39373"},{"id":"1114080034","district_id":"1114080","name":"PANDAN SARI","postal_code":"72211"},{"id":"1114080035","district_id":"1114080","name":"PAYA BARU","postal_code":"24471"},{"id":"1114080036","district_id":"1114080","name":"SAPTA MARGA","postal_code":"83238"}]