[{"id":"1114020005","district_id":"1114020","name":"KEBUN SUNGAI LIPUT","postal_code":"24477"},{"id":"1114020007","district_id":"1114020","name":"ALUR SELEBU","postal_code":"24477"},{"id":"1114020008","district_id":"1114020","name":"SUKA MAKMUR","postal_code":"34595"},{"id":"1114020009","district_id":"1114020","name":"SEUMADAM","postal_code":"24477"},{"id":"1114020010","district_id":"1114020","name":"KARANGJADI","postal_code":"24477"},{"id":"1114020011","district_id":"1114020","name":"KAMPUNG JAWA","postal_code":"95433"},{"id":"1114020012","district_id":"1114020","name":"SIDODADI","postal_code":"34595"},{"id":"1114020013","district_id":"1114020","name":"PURWODADI","postal_code":"56261"},{"id":"1114020014","district_id":"1114020","name":"TANJUNG GENTENG","postal_code":"24477"},{"id":"1114020015","district_id":"1114020","name":"GERENGGAM","postal_code":"24477"},{"id":"1114020016","district_id":"1114020","name":"SIMPANG KANAN","postal_code":"35374"},{"id":"1114020017","district_id":"1114020","name":"TANJUNG MANCANG","postal_code":"24477"},{"id":"1114020018","district_id":"1114020","name":"PANGKALAN","postal_code":"15510"},{"id":"1114020019","district_id":"1114020","name":"SUNGAI LIPUT","postal_code":"24477"},{"id":"1114020020","district_id":"1114020","name":"BUKIT RATA","postal_code":"24568"}]