[{"id":"1114071001","district_id":"1114071","name":"BALING KARANG","postal_code":"24476"},{"id":"1114071002","district_id":"1114071","name":"SUKA MAKMUR","postal_code":"34595"},{"id":"1114071003","district_id":"1114071","name":"SULUM","postal_code":"24476"},{"id":"1114071004","district_id":"1114071","name":"JUAR","postal_code":"24476"},{"id":"1114071005","district_id":"1114071","name":"PEMATANG DURIAN","postal_code":"24476"},{"id":"1114071006","district_id":"1114071","name":"SEKUMUR","postal_code":"24476"},{"id":"1114071007","district_id":"1114071","name":"TANJUNG GELUMPANG","postal_code":"24476"},{"id":"1114071008","district_id":"1114071","name":"LUBUK SIDUP","postal_code":"24476"},{"id":"1114071009","district_id":"1114071","name":"SEKERAK KANAN","postal_code":"24476"},{"id":"1114071010","district_id":"1114071","name":"BANDAR MAHLIGAI","postal_code":"24476"},{"id":"1114071011","district_id":"1114071","name":"SEKERAK KIRI","postal_code":"24476"},{"id":"1114071012","district_id":"1114071","name":"PANTAI PERLAK","postal_code":"24476"},{"id":"1114071013","district_id":"1114071","name":"PANTAI TINJAU","postal_code":"24476"},{"id":"1114071014","district_id":"1114071","name":"KEBUN BATANG ARA","postal_code":"24476"}]