[{"id":"1115010003","district_id":"1115010","name":"KUALA SEMANYAM","postal_code":"29255"},{"id":"1115010005","district_id":"1115010","name":"BLANG LUAH","postal_code":"23662"},{"id":"1115010007","district_id":"1115010","name":"PULO KRUET","postal_code":"23662"},{"id":"1115010009","district_id":"1115010","name":"ALUE BATEUNG BROOK","postal_code":"23662"},{"id":"1115010010","district_id":"1115010","name":"LADANG BARO","postal_code":"23662"},{"id":"1115010011","district_id":"1115010","name":"ALUE KUYUN","postal_code":"23662"},{"id":"1115010013","district_id":"1115010","name":"ALUE RAYA","postal_code":"23662"},{"id":"1115010014","district_id":"1115010","name":"SUKARAMAI","postal_code":"71161"},{"id":"1115010015","district_id":"1115010","name":"UJONG TANJONG","postal_code":"23662"},{"id":"1115010016","district_id":"1115010","name":"ALUE JAMPAK","postal_code":"23662"},{"id":"1115010017","district_id":"1115010","name":"SERBA JADI","postal_code":"20991"},{"id":"1115010018","district_id":"1115010","name":"SERBA GUNA","postal_code":"23662"},{"id":"1115010022","district_id":"1115010","name":"KAYEE UNOU","postal_code":"23662"},{"id":"1115010023","district_id":"1115010","name":"GEULANGGANG GAJAH","postal_code":"23762"},{"id":"1115010024","district_id":"1115010","name":"SIDOJADI","postal_code":"22977"},{"id":"1115010025","district_id":"1115010","name":"SUKAMULIA","postal_code":"83652"},{"id":"1115010026","district_id":"1115010","name":"SIMPANG DUA","postal_code":"23662"},{"id":"1115010027","district_id":"1115010","name":"PANTON BAYU","postal_code":"23672"},{"id":"1115010028","district_id":"1115010","name":"SIMPANG DELI KILANG","postal_code":"36771"},{"id":"1115010029","district_id":"1115010","name":"SIMPANG DELI KAMPONG","postal_code":"36771"},{"id":"1115010030","district_id":"1115010","name":"PULO IE","postal_code":"23661"},{"id":"1115010031","district_id":"1115010","name":"PULO TENGAH","postal_code":"24163"},{"id":"1115010032","district_id":"1115010","name":"KARANG ANYAR","postal_code":"56365"},{"id":"1115010033","district_id":"1115010","name":"SUKAJADI","postal_code":"34765"},{"id":"1115010034","district_id":"1115010","name":"ALUE BILIE","postal_code":"23662"},{"id":"1115010035","district_id":"1115010","name":"BLANG BARO","postal_code":"24184"},{"id":"1115010036","district_id":"1115010","name":"KUTA TRIENG","postal_code":"24186"},{"id":"1115010037","district_id":"1115010","name":"LAMIE","postal_code":"23662"},{"id":"1115010040","district_id":"1115010","name":"UJONG LAMIE","postal_code":"23662"},{"id":"1115010041","district_id":"1115010","name":"TUWI BUYA","postal_code":"23662"},{"id":"1115010042","district_id":"1115010","name":"SUKARAJA","postal_code":"46183"},{"id":"1115010043","district_id":"1115010","name":"GUNUNG CUT","postal_code":"23752"},{"id":"1115010044","district_id":"1115010","name":"SUAK PALEMBANG","postal_code":"23662"},{"id":"1115010045","district_id":"1115010","name":"ALUE GEUTAH","postal_code":"23662"},{"id":"1115010046","district_id":"1115010","name":"ALUE WAKIE","postal_code":"23662"},{"id":"1115010047","district_id":"1115010","name":"KRUENG ALEM","postal_code":"23662"},{"id":"1115010048","district_id":"1115010","name":"ALUE RAMBOT","postal_code":"23662"},{"id":"1115010049","district_id":"1115010","name":"KRUENG SEUMAYAM","postal_code":"23662"},{"id":"1115010050","district_id":"1115010","name":"MAKARTI JAYA","postal_code":"96469"},{"id":"1115010051","district_id":"1115010","name":"SUMBER MAKMUR","postal_code":"34682"}]