[{"id":"1116050004","district_id":"1116050","name":"KUALA BAKONG","postal_code":"23656"},{"id":"1116050009","district_id":"1116050","name":"COT LANGSAT","postal_code":"23656"},{"id":"1116050010","district_id":"1116050","name":"MATAIE","postal_code":"93795"},{"id":"1116050011","district_id":"1116050","name":"JEUMPHEUK","postal_code":"23656"},{"id":"1116050012","district_id":"1116050","name":"BABAH NIPAH","postal_code":"23656"},{"id":"1116050013","district_id":"1116050","name":"KUALA LIGAN","postal_code":"23656"},{"id":"1116050014","district_id":"1116050","name":"SEUMANTOK","postal_code":"23656"},{"id":"1116050027","district_id":"1116050","name":"KRUENG AYON","postal_code":"23656"},{"id":"1116050028","district_id":"1116050","name":"COT PUNTI","postal_code":"23671"},{"id":"1116050029","district_id":"1116050","name":"LIGAN","postal_code":"23656"},{"id":"1116050030","district_id":"1116050","name":"LHOK KRUET","postal_code":"23656"},{"id":"1116050031","district_id":"1116050","name":"PULO RAYA","postal_code":"24165"},{"id":"1116050032","district_id":"1116050","name":"KRUENG NO","postal_code":"23656"},{"id":"1116050033","district_id":"1116050","name":"CRAK MONG","postal_code":"23656"},{"id":"1116050034","district_id":"1116050","name":"MEUNASAH KULAM","postal_code":"24371"},{"id":"1116050035","district_id":"1116050","name":"BLANG MONLUNG","postal_code":"23656"},{"id":"1116050036","district_id":"1116050","name":"ALUE GRO","postal_code":"23656"},{"id":"1116050037","district_id":"1116050","name":"IE JEUREUNGEH","postal_code":"23656"},{"id":"1116050038","district_id":"1116050","name":"RANTO SABON","postal_code":"23656"}]