[{"id":"1174010001","district_id":"1174010","name":"ALUE LIM","postal_code":"24375"},{"id":"1174010002","district_id":"1174010","name":"BLANG BULOH","postal_code":"24375"},{"id":"1174010003","district_id":"1174010","name":"MANE KAREUNG","postal_code":"24375"},{"id":"1174010004","district_id":"1174010","name":"ASAN KAREUNG","postal_code":"24375"},{"id":"1174010005","district_id":"1174010","name":"RAYEUK KAREUNG","postal_code":"24375"},{"id":"1174010006","district_id":"1174010","name":"KUMBANG PUNTEUT","postal_code":"24375"},{"id":"1174010007","district_id":"1174010","name":"BLANG PUNTEUT","postal_code":"24375"},{"id":"1174010008","district_id":"1174010","name":"ULEE BLANG MANE","postal_code":"24375"},{"id":"1174010009","district_id":"1174010","name":"KEUDE PUNTEUT","postal_code":"24263"},{"id":"1174010010","district_id":"1174010","name":"MESJID PUNTEUT","postal_code":"24375"},{"id":"1174010011","district_id":"1174010","name":"TUNONG","postal_code":"24161"},{"id":"1174010012","district_id":"1174010","name":"BALOY","postal_code":"24375"},{"id":"1174010013","district_id":"1174010","name":"TEUNGOH","postal_code":"24152"},{"id":"1174010014","district_id":"1174010","name":"BLANG TEUE","postal_code":"24375"},{"id":"1174010015","district_id":"1174010","name":"JAMBO TIMU","postal_code":"24375"},{"id":"1174010016","district_id":"1174010","name":"MESJID MEURAKSA","postal_code":"24152"},{"id":"1174010017","district_id":"1174010","name":"BLANG CUT","postal_code":"24186"},{"id":"1174010018","district_id":"1174010","name":"KUALA MEURAKSA","postal_code":"28752"},{"id":"1174010019","district_id":"1174010","name":"JEULEUKAT","postal_code":"24188"},{"id":"1174010020","district_id":"1174010","name":"BLANG WEU PANJOU","postal_code":"24375"},{"id":"1174010021","district_id":"1174010","name":"BLANG WEU BAROH","postal_code":"24375"},{"id":"1174010022","district_id":"1174010","name":"SEUNEUBOK","postal_code":"23891"}]