[{"id":"1175040001","district_id":"1175040","name":"PULO BELEN","postal_code":"21182"},{"id":"1175040002","district_id":"1175040","name":"PULO KEDEP","postal_code":"24166"},{"id":"1175040003","district_id":"1175040","name":"SUKA MAJU","postal_code":"37553"},{"id":"1175040004","district_id":"1175040","name":"GUNUNG BAKTI","postal_code":"24782"},{"id":"1175040005","district_id":"1175040","name":"JAMBI","postal_code":"64394"},{"id":"1175040006","district_id":"1175040","name":"SINGGERSING","postal_code":"24782"},{"id":"1175040007","district_id":"1175040","name":"CIPAR PARI","postal_code":"40618"},{"id":"1175040008","district_id":"1175040","name":"NAMO BUAYA","postal_code":"20353"},{"id":"1175040009","district_id":"1175040","name":"CIPAR PARI TIMUR","postal_code":"40618"},{"id":"1175040010","district_id":"1175040","name":"LAE SIMOLAP","postal_code":"24782"},{"id":"1175040011","district_id":"1175040","name":"DARUL MAKMUR","postal_code":"24782"},{"id":"1175040012","district_id":"1175040","name":"PASIR BELO","postal_code":"24782"},{"id":"1175040013","district_id":"1175040","name":"BAWAN","postal_code":"24782"},{"id":"1175040014","district_id":"1175040","name":"SIGRUN","postal_code":"99569"},{"id":"1175040015","district_id":"1175040","name":"LAE LANGGE","postal_code":"24782"},{"id":"1175040016","district_id":"1175040","name":"JABI-JABI","postal_code":"24782"},{"id":"1175040017","district_id":"1175040","name":"BUNGA TANJUNG","postal_code":"36771"},{"id":"1175040018","district_id":"1175040","name":"JABI-JABI BARAT","postal_code":"24782"},{"id":"1175040019","district_id":"1175040","name":"BATU NAPAL","postal_code":"79671"}]