[{"id":"1175010001","district_id":"1175010","name":"BULUH DORI","postal_code":"28452"},{"id":"1175010002","district_id":"1175010","name":"PEGAYO","postal_code":"24782"},{"id":"1175010003","district_id":"1175010","name":"SUBULUSSALAM","postal_code":"24782"},{"id":"1175010004","district_id":"1175010","name":"PASAR PANJANG","postal_code":"24782"},{"id":"1175010005","district_id":"1175010","name":"TANGGA BESI","postal_code":"24782"},{"id":"1175010006","district_id":"1175010","name":"KUTA CEPU","postal_code":"24782"},{"id":"1175010007","district_id":"1175010","name":"SUKA MAKMUR","postal_code":"34595"},{"id":"1175010008","district_id":"1175010","name":"SIKELONDANG","postal_code":"93781"},{"id":"1175010009","district_id":"1175010","name":"MUKTI MAKMUR","postal_code":"24782"},{"id":"1175010010","district_id":"1175010","name":"SUBULUSSALAM BARAT","postal_code":"24782"},{"id":"1175010011","district_id":"1175010","name":"SUBULUSSALAM SELATAN","postal_code":"24782"},{"id":"1175010012","district_id":"1175010","name":"SUBULUSSALAM UTARA","postal_code":"24782"},{"id":"1175010013","district_id":"1175010","name":"LAE ORAM","postal_code":"22254"},{"id":"1175010014","district_id":"1175010","name":"MAKMUR JAYA","postal_code":"36555"},{"id":"1175010015","district_id":"1175010","name":"BELEGEN MULIA","postal_code":"80581"},{"id":"1175010016","district_id":"1175010","name":"DANAU TRAS","postal_code":"37162"},{"id":"1175010017","district_id":"1175010","name":"SUBULUSSALAM TIMUR","postal_code":"24782"}]