[{"id":"1201061001","district_id":"1201061","name":"SIOFA BANUA","postal_code":"22852"},{"id":"1201061002","district_id":"1201061","name":"SIFAOROASI ULUHOU","postal_code":"22876"},{"id":"1201061003","district_id":"1201061","name":"GAZAMANU","postal_code":"22876"},{"id":"1201061004","district_id":"1201061","name":"HILIGANOITA","postal_code":"22876"},{"id":"1201061005","district_id":"1201061","name":"SISARAHILI BAWOLATO","postal_code":"22876"},{"id":"1201061006","district_id":"1201061","name":"DAHANA","postal_code":"22871"},{"id":"1201061007","district_id":"1201061","name":"HILIHORU","postal_code":"22866"},{"id":"1201061008","district_id":"1201061","name":"HILIALAWA","postal_code":"22865"},{"id":"1201061009","district_id":"1201061","name":"HILIWAROKHA","postal_code":"22876"},{"id":"1201061010","district_id":"1201061","name":"HILIFAOSI","postal_code":"22876"},{"id":"1201061011","district_id":"1201061","name":"SITOLUBANUA","postal_code":"22876"},{"id":"1201061012","district_id":"1201061","name":"ORAHILI","postal_code":"22816"},{"id":"1201061013","district_id":"1201061","name":"SIOFAEWALI","postal_code":"22876"},{"id":"1201061014","district_id":"1201061","name":"SOHOYA","postal_code":"22876"},{"id":"1201061015","district_id":"1201061","name":"TAGAULE","postal_code":"22876"},{"id":"1201061016","district_id":"1201061","name":"BOTOHAENGA","postal_code":"22876"},{"id":"1201061017","district_id":"1201061","name":"SINDRONDRO","postal_code":"22876"},{"id":"1201061018","district_id":"1201061","name":"HILIHAO CUGALA","postal_code":"22876"},{"id":"1201061019","district_id":"1201061","name":"SIOFAEWALI SELATAN","postal_code":"22876"},{"id":"1201061020","district_id":"1201061","name":"LAGASIMAHE","postal_code":"22876"},{"id":"1201061021","district_id":"1201061","name":"ORAHUA","postal_code":"22873"},{"id":"1201061022","district_id":"1201061","name":"HOU","postal_code":"22876"},{"id":"1201061023","district_id":"1201061","name":"BANUA SIBOHOU SILIMA EWALI","postal_code":"22876"},{"id":"1201061024","district_id":"1201061","name":"BALALE TOBAA","postal_code":"22876"},{"id":"1201061025","district_id":"1201061","name":"ORAHUA FAONDRATO","postal_code":"22876"}]