[{"id":"1201130020","district_id":"1201130","name":"ONOZITOLI DULU","postal_code":"22811"},{"id":"1201130021","district_id":"1201130","name":"SINARIKHI","postal_code":"22854"},{"id":"1201130022","district_id":"1201130","name":"OMBOLATA SALOO","postal_code":"22851"},{"id":"1201130023","district_id":"1201130","name":"SISOBALAURU","postal_code":"22854"},{"id":"1201130024","district_id":"1201130","name":"TUHEGAFOA II","postal_code":"22854"},{"id":"1201130025","district_id":"1201130","name":"ONONAMOLO I BOTOMUZOI","postal_code":"22854"},{"id":"1201130026","district_id":"1201130","name":"FADORO LAURU","postal_code":"22854"},{"id":"1201130027","district_id":"1201130","name":"D I M A","postal_code":"98315"},{"id":"1201130028","district_id":"1201130","name":"MAZINGO TANOSEO","postal_code":"22851"},{"id":"1201130029","district_id":"1201130","name":"SISOBAHILI I TANOSEO","postal_code":"22854"},{"id":"1201130030","district_id":"1201130","name":"HILIGODU TANOSEO","postal_code":"22851"},{"id":"1201130031","district_id":"1201130","name":"HILIDUHO","postal_code":"22854"},{"id":"1201130032","district_id":"1201130","name":"LASARA TANOSEO","postal_code":"22854"},{"id":"1201130033","district_id":"1201130","name":"ONOWAEMBO HILIGARA","postal_code":"22854"},{"id":"1201130034","district_id":"1201130","name":"SILIMABANUA","postal_code":"22854"},{"id":"1201130035","district_id":"1201130","name":"OMBOLATA SARAHILI","postal_code":"22851"}]