[{"id":"1201132001","district_id":"1201132","name":"ONONAMOLO TALAFU","postal_code":"22815"},{"id":"1201132002","district_id":"1201132","name":"HILIGODU BOTOMUZOI","postal_code":"22815"},{"id":"1201132003","district_id":"1201132","name":"LASARA BOTOMUZOI","postal_code":"22862"},{"id":"1201132004","district_id":"1201132","name":"SIMANAERE BOTOMUZOI","postal_code":"22815"},{"id":"1201132005","district_id":"1201132","name":"HILIWAELE II","postal_code":"22815"},{"id":"1201132006","district_id":"1201132","name":"HILIHAMBAWA BOTOMUZOI","postal_code":"22871"},{"id":"1201132007","district_id":"1201132","name":"HILIWAELE I","postal_code":"22815"},{"id":"1201132008","district_id":"1201132","name":"HILIMBOWO BOTOMUZOI","postal_code":"22815"},{"id":"1201132009","district_id":"1201132","name":"TUHEGAFOA I","postal_code":"22815"},{"id":"1201132010","district_id":"1201132","name":"BALOHILI BOTOMUZOI","postal_code":"22815"},{"id":"1201132011","district_id":"1201132","name":"LOLOANAA","postal_code":"22861"},{"id":"1201132012","district_id":"1201132","name":"FULOLO BOTOMUZOI","postal_code":"22815"},{"id":"1201132013","district_id":"1201132","name":"TETEHOSI BOTOMUZOI","postal_code":"22815"},{"id":"1201132014","district_id":"1201132","name":"MOHILI BERUA BOTOMUZOI","postal_code":"22815"},{"id":"1201132015","district_id":"1201132","name":"SISOBAHILI DOLA","postal_code":"22815"},{"id":"1201132016","district_id":"1201132","name":"TALAFU","postal_code":"22815"},{"id":"1201132017","district_id":"1201132","name":"BANUA SIBOHOU BOTOMUZOI","postal_code":"22815"},{"id":"1201132018","district_id":"1201132","name":"OLANORI","postal_code":"22874"}]