[{"id":"1201062001","district_id":"1201062","name":"ORAHILI","postal_code":"22816"},{"id":"1201062002","district_id":"1201062","name":"HILIMBOWO","postal_code":"22864"},{"id":"1201062003","district_id":"1201062","name":"FATODANO","postal_code":"22861"},{"id":"1201062004","district_id":"1201062","name":"FAHANDRONA","postal_code":"22861"},{"id":"1201062005","district_id":"1201062","name":"HILIBADALU","postal_code":"22873"},{"id":"1201062006","district_id":"1201062","name":"HOLI","postal_code":"22853"},{"id":"1201062007","district_id":"1201062","name":"SISOBAHILI ULUGAWO","postal_code":"22861"},{"id":"1201062008","district_id":"1201062","name":"HILIWETOGELA","postal_code":"22871"},{"id":"1201062009","district_id":"1201062","name":"LAWA-LAWA LUO","postal_code":"22867"},{"id":"1201062010","district_id":"1201062","name":"SIFAOROASI ULUGAWO","postal_code":"22861"},{"id":"1201062011","district_id":"1201062","name":"ONODALINGA","postal_code":"22861"},{"id":"1201062012","district_id":"1201062","name":"MOHILI","postal_code":"22861"},{"id":"1201062013","district_id":"1201062","name":"HILIGAFOA","postal_code":"22866"},{"id":"1201062014","district_id":"1201062","name":"SISARAHILI SOROMAASI","postal_code":"22861"}]