[{"id":"1201070006","district_id":"1201070","name":"HILIOTALUA","postal_code":"22881"},{"id":"1201070008","district_id":"1201070","name":"AKHELAUME","postal_code":"22871"},{"id":"1201070012","district_id":"1201070","name":"TULOMBAHO SALOO","postal_code":"96582"},{"id":"1201070013","district_id":"1201070","name":"OLINDRAWA SISARAHILI","postal_code":"22871"},{"id":"1201070014","district_id":"1201070","name":"LASELA","postal_code":"22871"},{"id":"1201070016","district_id":"1201070","name":"HILISEBUA","postal_code":"22871"},{"id":"1201070017","district_id":"1201070","name":"SOMI","postal_code":"22871"},{"id":"1201070018","district_id":"1201070","name":"SIRETE","postal_code":"22871"},{"id":"1201070019","district_id":"1201070","name":"HILIWETO GIDO","postal_code":"22871"},{"id":"1201070020","district_id":"1201070","name":"LOLOANAA GIDO","postal_code":"22871"},{"id":"1201070022","district_id":"1201070","name":"SISOBAHILI","postal_code":"22817"},{"id":"1201070023","district_id":"1201070","name":"LAHEMO","postal_code":"22871"},{"id":"1201070024","district_id":"1201070","name":"LADEA","postal_code":"22871"},{"id":"1201070027","district_id":"1201070","name":"UMBU","postal_code":"22871"},{"id":"1201070028","district_id":"1201070","name":"SAEWE","postal_code":"22811"},{"id":"1201070029","district_id":"1201070","name":"LOLOZASAI","postal_code":"22871"},{"id":"1201070030","district_id":"1201070","name":"LASARA IDANOI","postal_code":"22871"},{"id":"1201070031","district_id":"1201070","name":"LADEA ORAHUA","postal_code":"22871"},{"id":"1201070032","district_id":"1201070","name":"NIFOLOO LAURU","postal_code":"22871"},{"id":"1201070033","district_id":"1201070","name":"SOMI BOTOGOO","postal_code":"22871"},{"id":"1201070034","district_id":"1201070","name":"HILIZOI","postal_code":"22871"}]