[{"id":"1202011001","district_id":"1202011","name":"SINUNUKAN IV","postal_code":"22988"},{"id":"1202011002","district_id":"1202011","name":"SINUNUKAN II","postal_code":"22988"},{"id":"1202011003","district_id":"1202011","name":"SINUNUKAN I CENTRAL","postal_code":"22988"},{"id":"1202011004","district_id":"1202011","name":"SINUNUKAN III","postal_code":"22988"},{"id":"1202011005","district_id":"1202011","name":"BANJAR AUR UTARA","postal_code":"22988"},{"id":"1202011006","district_id":"1202011","name":"BINTUNGAN BEJANGKAR BARU","postal_code":"22988"},{"id":"1202011007","district_id":"1202011","name":"KAMPUNG KAPAS II","postal_code":"22988"},{"id":"1202011008","district_id":"1202011","name":"PASIR PUTIH","postal_code":"90984"},{"id":"1202011009","district_id":"1202011","name":"SUKA DAMAI","postal_code":"37553"},{"id":"1202011010","district_id":"1202011","name":"WIDO DAREN","postal_code":"97574"},{"id":"1202011011","district_id":"1202011","name":"WONO SARI","postal_code":"34391"},{"id":"1202011012","district_id":"1202011","name":"SINUNUKAN I","postal_code":"22988"},{"id":"1202011013","district_id":"1202011","name":"SIDOMAKMUR","postal_code":"34595"},{"id":"1202011014","district_id":"1202011","name":"AIRAPA","postal_code":"22988"}]