[{"id":"1203080001","district_id":"1203080","name":"KELURAHAN PARDOMUAN","postal_code":"50663"},{"id":"1203080002","district_id":"1203080","name":"SIHUIK KUIK","postal_code":"22732"},{"id":"1203080003","district_id":"1203080","name":"AEK NATAS","postal_code":"22732"},{"id":"1203080004","district_id":"1203080","name":"GUNUNG BARINGIN","postal_code":"22732"},{"id":"1203080005","district_id":"1203080","name":"DOLOK GODANG","postal_code":"62166"},{"id":"1203080006","district_id":"1203080","name":"KELURAHAN SIMARPINGGAN","postal_code":"50663"},{"id":"1203080007","district_id":"1203080","name":"KELURAHAN TAPIAN NAULI","postal_code":"50663"},{"id":"1203080008","district_id":"1203080","name":"TANDIHAT","postal_code":"22732"},{"id":"1203080009","district_id":"1203080","name":"SIHOPUR","postal_code":"22732"},{"id":"1203080010","district_id":"1203080","name":"PERK. SIMARPINGGAN","postal_code":"78774"},{"id":"1203080011","district_id":"1203080","name":"SIAMPORIK DOLOK","postal_code":"22732"},{"id":"1203080012","district_id":"1203080","name":"SIBONG BONG","postal_code":"67175"},{"id":"1203080013","district_id":"1203080","name":"SIAMPORIK LOMBANG","postal_code":"22732"},{"id":"1203080014","district_id":"1203080","name":"KELURAHAN NAPA","postal_code":"50663"},{"id":"1203080015","district_id":"1203080","name":"PINTU PADANG","postal_code":"22732"},{"id":"1203080016","district_id":"1203080","name":"SINYIOR","postal_code":"22732"},{"id":"1203080017","district_id":"1203080","name":"SITUMBAGA","postal_code":"22732"}]