[{"id":"1203090004","district_id":"1203090","name":"SIUHOM","postal_code":"22735"},{"id":"1203090005","district_id":"1203090","name":"SISUNDUNG","postal_code":"22735"},{"id":"1203090006","district_id":"1203090","name":"PARSALAKAN","postal_code":"22735"},{"id":"1203090012","district_id":"1203090","name":"SIALOGO","postal_code":"22654"},{"id":"1203090018","district_id":"1203090","name":"LEMBAH LUBUK RAYA","postal_code":"22735"},{"id":"1203090019","district_id":"1203090","name":"SITARA TOIT","postal_code":"27779"},{"id":"1203090020","district_id":"1203090","name":"LOBU LAYAN SIGORDANG","postal_code":"22735"},{"id":"1203090021","district_id":"1203090","name":"AEK NABARA","postal_code":"22466"},{"id":"1203090022","district_id":"1203090","name":"SIBANGKUA","postal_code":"22735"},{"id":"1203090023","district_id":"1203090","name":"SIGUMURU","postal_code":"22735"},{"id":"1203090024","district_id":"1203090","name":"SITINJAK","postal_code":"22735"},{"id":"1203090025","district_id":"1203090","name":"SIMATORKIS SISOMA","postal_code":"22735"},{"id":"1203090026","district_id":"1203090","name":"PANOBASAN","postal_code":"22735"},{"id":"1203090027","district_id":"1203090","name":"PANOBASAN LOMBANG","postal_code":"22735"}]