[{"id":"1203011031","district_id":"1203011","name":"HUTA PARDOMUAN","postal_code":"22774"},{"id":"1203011032","district_id":"1203011","name":"AEK BADAK JULU","postal_code":"22774"},{"id":"1203011033","district_id":"1203011","name":"AEK BADAK JAE","postal_code":"22774"},{"id":"1203011038","district_id":"1203011","name":"AEK LIBUNG","postal_code":"22774"},{"id":"1203011043","district_id":"1203011","name":"BULU GADING","postal_code":"22774"},{"id":"1203011044","district_id":"1203011","name":"BANGE","postal_code":"22774"},{"id":"1203011047","district_id":"1203011","name":"TOLANG JAE","postal_code":"22774"},{"id":"1203011048","district_id":"1203011","name":"MONDANG","postal_code":"22774"},{"id":"1203011049","district_id":"1203011","name":"JANJI MAULI BARINGIN","postal_code":"22774"},{"id":"1203011050","district_id":"1203011","name":"TOLANG JULU","postal_code":"22774"},{"id":"1203011051","district_id":"1203011","name":"SIPANGE GODANG","postal_code":"22774"},{"id":"1203011052","district_id":"1203011","name":"SIPANGE JULU","postal_code":"22774"},{"id":"1203011053","district_id":"1203011","name":"SIALANG","postal_code":"22774"},{"id":"1203011058","district_id":"1203011","name":"SOMANGGAL PARMONANGAN","postal_code":"22874"},{"id":"1203011059","district_id":"1203011","name":"LUMBAN HUAYAN","postal_code":"22774"},{"id":"1203011060","district_id":"1203011","name":"SAYUR MATINGGI","postal_code":"22774"},{"id":"1203011061","district_id":"1203011","name":"SILAIYA","postal_code":"22774"},{"id":"1203011062","district_id":"1203011","name":"SILAIYA TANJUNG LEUK","postal_code":"22774"},{"id":"1203011063","district_id":"1203011","name":"SIPANGE SIUNJAM","postal_code":"22774"}]