[{"id":"1204072001","district_id":"1204072","name":"LADANG TENGAH","postal_code":"22651"},{"id":"1204072002","district_id":"1204072","name":"URATAN","postal_code":"22651"},{"id":"1204072003","district_id":"1204072","name":"LOBU TUA","postal_code":"22651"},{"id":"1204072004","district_id":"1204072","name":"BONDAR SIHUDON II","postal_code":"22651"},{"id":"1204072005","district_id":"1204072","name":"BONDAR SIHUDON I","postal_code":"22651"},{"id":"1204072006","district_id":"1204072","name":"RINA BOLAK","postal_code":"54181"},{"id":"1204072007","district_id":"1204072","name":"SOSOR GONTING","postal_code":"22651"},{"id":"1204072008","district_id":"1204072","name":"SIRAMI RAMIAN","postal_code":"22651"},{"id":"1204072009","district_id":"1204072","name":"PANGARIBUAN","postal_code":"22651"},{"id":"1204072010","district_id":"1204072","name":"SIJUNGKANG","postal_code":"22651"},{"id":"1204072011","district_id":"1204072","name":"SOGAR","postal_code":"22651"},{"id":"1204072012","district_id":"1204072","name":"SIGOLANG","postal_code":"22651"},{"id":"1204072013","district_id":"1204072","name":"SITIRIS TIRIS","postal_code":"20219"},{"id":"1204072014","district_id":"1204072","name":"SAWAH LAMO","postal_code":"22651"}]