[{"id":"1204050001","district_id":"1204050","name":"UNTE MUNGKUR IV","postal_code":"22562"},{"id":"1204050003","district_id":"1204050","name":"UNTE MUNGKUR III","postal_code":"22562"},{"id":"1204050004","district_id":"1204050","name":"UNTE MUNGKUR II","postal_code":"22562"},{"id":"1204050006","district_id":"1204050","name":"UNTE MUNGKUR I","postal_code":"22562"},{"id":"1204050007","district_id":"1204050","name":"SATAHI NAULI","postal_code":"22562"},{"id":"1204050008","district_id":"1204050","name":"HURLANG MUARA NAULI","postal_code":"22562"},{"id":"1204050009","district_id":"1204050","name":"KOLANG NAULI","postal_code":"22562"},{"id":"1204050010","district_id":"1204050","name":"PASAR ONAN HURLANG","postal_code":"22562"},{"id":"1204050011","district_id":"1204050","name":"SIPAKPAHI AEK LOBU","postal_code":"22562"},{"id":"1204050012","district_id":"1204050","name":"HUDOPA NAULI","postal_code":"22562"},{"id":"1204050013","district_id":"1204050","name":"RAWA MAKMUR","postal_code":"22562"},{"id":"1204050014","district_id":"1204050","name":"MAKARTI NAULI","postal_code":"22562"},{"id":"1204050015","district_id":"1204050","name":"PARGARINGAN","postal_code":"22563"},{"id":"1204050016","district_id":"1204050","name":"SIMARPINGGAN","postal_code":"22563"}]