[{"id":"1204030001","district_id":"1204030","name":"HAJORAN","postal_code":"22612"},{"id":"1204030010","district_id":"1204030","name":"AEK TOLANG","postal_code":"22613"},{"id":"1204030011","district_id":"1204030","name":"PANDAN","postal_code":"57694"},{"id":"1204030012","district_id":"1204030","name":"SIBULUAN INDAH","postal_code":"22614"},{"id":"1204030013","district_id":"1204030","name":"LUBUK TUKKO","postal_code":"22615"},{"id":"1204030015","district_id":"1204030","name":"SIBULUAN NAULI","postal_code":"22616"},{"id":"1204030016","district_id":"1204030","name":"AEK SITIO-TIO","postal_code":"22613"},{"id":"1204030017","district_id":"1204030","name":"SIBULUAN RAYA","postal_code":"22616"},{"id":"1204030018","district_id":"1204030","name":"KALANGAN","postal_code":"66292"},{"id":"1204030019","district_id":"1204030","name":"PANDAN WANGI","postal_code":"83672"},{"id":"1204030020","district_id":"1204030","name":"SIBULUAN TERPADU","postal_code":"22616"},{"id":"1204030021","district_id":"1204030","name":"SITIO-TIO HILIR","postal_code":"22475"},{"id":"1204030022","district_id":"1204030","name":"SIBULUAN BARU","postal_code":"22454"},{"id":"1204030023","district_id":"1204030","name":"LUBUK TUKKO BARU","postal_code":"22615"},{"id":"1204030024","district_id":"1204030","name":"SIHAPORAS NAULI","postal_code":"22654"},{"id":"1204030025","district_id":"1204030","name":"PASAR BARU","postal_code":"20627"},{"id":"1204030026","district_id":"1204030","name":"HAJORAN INDAH","postal_code":"22612"},{"id":"1204030027","district_id":"1204030","name":"MUARA NIBUNG","postal_code":"38886"},{"id":"1204030028","district_id":"1204030","name":"AEK GARUT","postal_code":"22976"},{"id":"1204030029","district_id":"1204030","name":"BUDI LUHUR","postal_code":"35361"},{"id":"1204030030","district_id":"1204030","name":"KALANGAN INDAH","postal_code":"66292"},{"id":"1204030031","district_id":"1204030","name":"MANGGA DUA","postal_code":"97751"}]