[{"id":"1204070010","district_id":"1204070","name":"BUKIT PATUPANGAN","postal_code":"75572"},{"id":"1204070011","district_id":"1204070","name":"KEDAI GEDANG","postal_code":"22564"},{"id":"1204070012","district_id":"1204070","name":"SIGAMBO GAMBO","postal_code":"22564"},{"id":"1204070013","district_id":"1204070","name":"PADANG MASIANG","postal_code":"22564"},{"id":"1204070014","district_id":"1204070","name":"KAMPUNG SOLOK","postal_code":"22564"},{"id":"1204070015","district_id":"1204070","name":"PASAR BATU GERIGIS","postal_code":"22564"},{"id":"1204070016","district_id":"1204070","name":"PASAR TERANDAM","postal_code":"22564"},{"id":"1204070017","district_id":"1204070","name":"KINALI","postal_code":"22564"},{"id":"1204070018","district_id":"1204070","name":"UJUNG BATU","postal_code":"22564"},{"id":"1204070019","district_id":"1204070","name":"KAMPUNG MUDIK","postal_code":"22564"},{"id":"1204070020","district_id":"1204070","name":"GABUNGAN HASANG","postal_code":"22564"},{"id":"1204070024","district_id":"1204070","name":"AEK DAKKA","postal_code":"22564"},{"id":"1204070036","district_id":"1204070","name":"BUNGO TANJUNG","postal_code":"37554"}]