[{"id":"1205180007","district_id":"1205180","name":"HUTA LONTUNG","postal_code":"22476"},{"id":"1205180008","district_id":"1205180","name":"BARIBA NIAEK","postal_code":"22476"},{"id":"1205180009","district_id":"1205180","name":"SILALI TORUAN","postal_code":"22476"},{"id":"1205180010","district_id":"1205180","name":"HUTANA GODANG","postal_code":"28781"},{"id":"1205180011","district_id":"1205180","name":"UNTE MUNGKUR","postal_code":"22476"},{"id":"1205180012","district_id":"1205180","name":"BATU BINUMBUN","postal_code":"22476"},{"id":"1205180013","district_id":"1205180","name":"SIMATUPANG","postal_code":"22476"},{"id":"1205180014","district_id":"1205180","name":"ARITONANG","postal_code":"22476"},{"id":"1205180015","district_id":"1205180","name":"DOLOK MARTUMBUR","postal_code":"22476"},{"id":"1205180016","district_id":"1205180","name":"SITANGGOR","postal_code":"22476"},{"id":"1205180017","district_id":"1205180","name":"HUTA GINJANG","postal_code":"22476"},{"id":"1205180018","district_id":"1205180","name":"SILANDO","postal_code":"22476"},{"id":"1205180019","district_id":"1205180","name":"PAPANDE","postal_code":"22476"},{"id":"1205180020","district_id":"1205180","name":"SIBANDANG","postal_code":"22476"},{"id":"1205180021","district_id":"1205180","name":"SAMPURAN","postal_code":"22476"}]