[{"id":"1205061001","district_id":"1205061","name":"PANSUR NAPITU","postal_code":"22419"},{"id":"1205061002","district_id":"1205061","name":"LOBUHOLE","postal_code":"22417"},{"id":"1205061003","district_id":"1205061","name":"SITOMPUL","postal_code":"22418"},{"id":"1205061004","district_id":"1205061","name":"SANGKARAN","postal_code":"22418"},{"id":"1205061005","district_id":"1205061","name":"ENDA PORTIBI","postal_code":"22417"},{"id":"1205061006","district_id":"1205061","name":"SI RAJA HUTAGALUNG","postal_code":"22417"},{"id":"1205061007","district_id":"1205061","name":"LUMBAN SIAGIAN JAE","postal_code":"22417"},{"id":"1205061008","district_id":"1205061","name":"LUMBAN SIAGIAN JULU","postal_code":"22417"},{"id":"1205061009","district_id":"1205061","name":"SIMORANGKIR HABINSARAN","postal_code":"22417"},{"id":"1205061010","district_id":"1205061","name":"SIMORANGKIR JULU","postal_code":"22417"},{"id":"1205061011","district_id":"1205061","name":"SIMANAMPANG","postal_code":"22417"},{"id":"1205061012","district_id":"1205061","name":"SIDAGAL","postal_code":"22417"}]