[{"id":"1206051001","district_id":"1206051","name":"PANGURURAN","postal_code":"22383"},{"id":"1206051002","district_id":"1206051","name":"PARDOMUAN NAULI","postal_code":"22381"},{"id":"1206051003","district_id":"1206051","name":"LINTONG","postal_code":"22383"},{"id":"1206051004","district_id":"1206051","name":"NATUMINGKA","postal_code":"22383"},{"id":"1206051005","district_id":"1206051","name":"RIANIATE","postal_code":"22383"},{"id":"1206051006","district_id":"1206051","name":"AEK UNSIN","postal_code":"22383"},{"id":"1206051007","district_id":"1206051","name":"PURBA TUA","postal_code":"22383"},{"id":"1206051008","district_id":"1206051","name":"JANJI MARIA","postal_code":"22383"},{"id":"1206051009","district_id":"1206051","name":"PANGURURAN II","postal_code":"22383"},{"id":"1206051010","district_id":"1206051","name":"PANGURURAN III","postal_code":"22383"},{"id":"1206051011","district_id":"1206051","name":"RIGANJANG","postal_code":"22383"},{"id":"1206051012","district_id":"1206051","name":"PASAR BORBOR","postal_code":"22383"},{"id":"1206051013","district_id":"1206051","name":"LUMBAN SEWA","postal_code":"22383"},{"id":"1206051014","district_id":"1206051","name":"HUTA GURGUR","postal_code":"22396"},{"id":"1206051015","district_id":"1206051","name":"SIMARE","postal_code":"22383"}]