[{"id":"1206040001","district_id":"1206040","name":"HAUNATAS I","postal_code":"22381"},{"id":"1206040002","district_id":"1206040","name":"SINTONG MARNIPI","postal_code":"22381"},{"id":"1206040003","district_id":"1206040","name":"SIDULANG","postal_code":"22381"},{"id":"1206040004","district_id":"1206040","name":"HAUNATAS II","postal_code":"22381"},{"id":"1206040005","district_id":"1206040","name":"SIBARANI NASAMPULU","postal_code":"22381"},{"id":"1206040006","district_id":"1206040","name":"SITANGKOLA","postal_code":"22381"},{"id":"1206040007","district_id":"1206040","name":"SIBUEA","postal_code":"22381"},{"id":"1206040008","district_id":"1206040","name":"SIMATIBUNG","postal_code":"22381"},{"id":"1206040009","district_id":"1206040","name":"PARDOMUAN NAULI","postal_code":"22381"},{"id":"1206040010","district_id":"1206040","name":"UJUNG TANDUK","postal_code":"22381"},{"id":"1206040011","district_id":"1206040","name":"PINTU BOSI","postal_code":"22381"},{"id":"1206040012","district_id":"1206040","name":"GASA RIBU","postal_code":"22381"},{"id":"1206040013","district_id":"1206040","name":"PASAR LAGU BOTI","postal_code":"22381"},{"id":"1206040014","district_id":"1206040","name":"ARUAN","postal_code":"22381"},{"id":"1206040015","district_id":"1206040","name":"LUMBAN BAGASAN","postal_code":"22381"},{"id":"1206040016","district_id":"1206040","name":"TINGGIR NIPASIR","postal_code":"22381"},{"id":"1206040017","district_id":"1206040","name":"OMPU RAJA HUTAPEA","postal_code":"22381"},{"id":"1206040018","district_id":"1206040","name":"SITOLUAMA","postal_code":"22381"},{"id":"1206040019","district_id":"1206040","name":"PARDINGGARAN","postal_code":"22381"},{"id":"1206040020","district_id":"1206040","name":"LUMBAN BINANGA","postal_code":"22381"},{"id":"1206040021","district_id":"1206040","name":"SIRAJA GORAT","postal_code":"22381"},{"id":"1206040022","district_id":"1206040","name":"OMPU RAJA HUTAPEA TIMUR","postal_code":"22381"},{"id":"1206040023","district_id":"1206040","name":"OMPU RAJA HATULIAN","postal_code":"22381"}]