[{"id":"1206083001","district_id":"1206083","name":"SIBADIHON","postal_code":"22386"},{"id":"1206083002","district_id":"1206083","name":"NAGA TIMBUL","postal_code":"22386"},{"id":"1206083003","district_id":"1206083","name":"HARUNGGUAN","postal_code":"22386"},{"id":"1206083004","district_id":"1206083","name":"LUMBAN LOBU","postal_code":"22386"},{"id":"1206083005","district_id":"1206083","name":"SINAR SABUNGAN","postal_code":"22386"},{"id":"1206083006","district_id":"1206083","name":"SIHIONG","postal_code":"22386"},{"id":"1206083008","district_id":"1206083","name":"SILAMOSIK II","postal_code":"22386"},{"id":"1206083011","district_id":"1206083","name":"NAGA TIMBUL TIMUR","postal_code":"22386"},{"id":"1206083012","district_id":"1206083","name":"LUMBAN SANGKALAN","postal_code":"22386"},{"id":"1206083013","district_id":"1206083","name":"PARTORUAN LUMBAN LOBU","postal_code":"22386"},{"id":"1206083014","district_id":"1206083","name":"PARDOLOK LUMBAN LOBU","postal_code":"22386"},{"id":"1206083015","district_id":"1206083","name":"SILOMBU","postal_code":"22386"}]