[{"id":"1206060001","district_id":"1206060","name":"PINTU BATU","postal_code":"22382"},{"id":"1206060002","district_id":"1206060","name":"PARDOMUAN","postal_code":"22382"},{"id":"1206060003","district_id":"1206060","name":"OMBUR","postal_code":"22382"},{"id":"1206060004","district_id":"1206060","name":"PARSAMBILAN","postal_code":"22382"},{"id":"1206060005","district_id":"1206060","name":"SIGODANG TUA","postal_code":"22382"},{"id":"1206060006","district_id":"1206060","name":"SINTA DAME","postal_code":"95751"},{"id":"1206060007","district_id":"1206060","name":"NATOLUTALI","postal_code":"22382"},{"id":"1206060008","district_id":"1206060","name":"DALIHAN NATOLU","postal_code":"22382"},{"id":"1206060009","district_id":"1206060","name":"HUTA GURGUR II","postal_code":"22382"},{"id":"1206060010","district_id":"1206060","name":"HUTA GURGUR I","postal_code":"22382"},{"id":"1206060011","district_id":"1206060","name":"SITORANG I","postal_code":"22382"},{"id":"1206060012","district_id":"1206060","name":"HUTA NAMORA","postal_code":"22312"},{"id":"1206060021","district_id":"1206060","name":"SILAEN","postal_code":"22382"},{"id":"1206060022","district_id":"1206060","name":"LUMBAN DOLOK","postal_code":"22382"},{"id":"1206060023","district_id":"1206060","name":"NAPITUPULU","postal_code":"22382"},{"id":"1206060024","district_id":"1206060","name":"HUTAGAOL SIHUJUR","postal_code":"22382"},{"id":"1206060025","district_id":"1206060","name":"SIBIDE BARAT","postal_code":"22382"},{"id":"1206060026","district_id":"1206060","name":"SIBIDE","postal_code":"22382"},{"id":"1206060027","district_id":"1206060","name":"MERANTI BARAT","postal_code":"22382"},{"id":"1206060028","district_id":"1206060","name":"SIMANOBAK","postal_code":"22382"},{"id":"1206060029","district_id":"1206060","name":"MARBULANG","postal_code":"22382"},{"id":"1206060030","district_id":"1206060","name":"SIRINGKIRON","postal_code":"22382"},{"id":"1206060031","district_id":"1206060","name":"PANINDII","postal_code":"22382"}]