[{"id":"1207050001","district_id":"1207050","name":"TANJUNG SIRAM","postal_code":"20585"},{"id":"1207050002","district_id":"1207050","name":"S SATU AEK NABARA","postal_code":"21451"},{"id":"1207050003","district_id":"1207050","name":"KAMPUNG DALAM","postal_code":"37152"},{"id":"1207050004","district_id":"1207050","name":"LINGGA TIGA","postal_code":"21451"},{"id":"1207050005","district_id":"1207050","name":"BANDAR TINGGI","postal_code":"21184"},{"id":"1207050006","district_id":"1207050","name":"S TIGA AEK NABARA","postal_code":"21451"},{"id":"1207050007","district_id":"1207050","name":"S EMPAT AEK NABARA","postal_code":"21451"},{"id":"1207050008","district_id":"1207050","name":"S LIMA AEK NABARA","postal_code":"21451"},{"id":"1207050009","district_id":"1207050","name":"S ENAM AEK NABARA","postal_code":"21451"},{"id":"1207050010","district_id":"1207050","name":"N DELAPAN AEK NABARA","postal_code":"21451"},{"id":"1207050011","district_id":"1207050","name":"N LIMA AEK NABARA","postal_code":"21451"},{"id":"1207050012","district_id":"1207050","name":"S DUA AEK NABARA","postal_code":"21451"},{"id":"1207050013","district_id":"1207050","name":"N TIGA AEK NABARA","postal_code":"21451"},{"id":"1207050014","district_id":"1207050","name":"N DUA AEK NABARA","postal_code":"21451"},{"id":"1207050015","district_id":"1207050","name":"N EMPAT AEK NABARA","postal_code":"21451"},{"id":"1207050016","district_id":"1207050","name":"PERBAUNGAN","postal_code":"21451"},{"id":"1207050017","district_id":"1207050","name":"N TUJUH AEK NABARA","postal_code":"21451"},{"id":"1207050018","district_id":"1207050","name":"MERANTI","postal_code":"28382"},{"id":"1207050019","district_id":"1207050","name":"GUNUNG SELAMAT","postal_code":"21451"},{"id":"1207050020","district_id":"1207050","name":"N ENAM AEK NABARA","postal_code":"21451"},{"id":"1207050021","district_id":"1207050","name":"PEMATANG SELENG","postal_code":"30681"},{"id":"1207050022","district_id":"1207050","name":"PONDOK BATU","postal_code":"22616"},{"id":"1207050023","district_id":"1207050","name":"EMPLASMEN AEK NABARA","postal_code":"21451"},{"id":"1207050024","district_id":"1207050","name":"N SATU AEK NABARA","postal_code":"21451"}]