[{"id":"1208160001","district_id":"1208160","name":"SEI RENGGAS","postal_code":"21213"},{"id":"1208160002","district_id":"1208160","name":"SENDANG SARI","postal_code":"37482"},{"id":"1208160003","district_id":"1208160","name":"KISARAN BARAT","postal_code":"21214"},{"id":"1208160004","district_id":"1208160","name":"TEGAL SARI","postal_code":"72275"},{"id":"1208160005","district_id":"1208160","name":"TEBING KISARAN","postal_code":"21215"},{"id":"1208160006","district_id":"1208160","name":"KISARAN KOTA","postal_code":"21215"},{"id":"1208160007","district_id":"1208160","name":"KISARAN BARU","postal_code":"21216"},{"id":"1208160008","district_id":"1208160","name":"MEKAR BARU","postal_code":"15550"},{"id":"1208160009","district_id":"1208160","name":"SIDODADI","postal_code":"34595"},{"id":"1208160010","district_id":"1208160","name":"DADI MULYO","postal_code":"32366"},{"id":"1208160011","district_id":"1208160","name":"SIDOMUKTI","postal_code":"62363"},{"id":"1208160012","district_id":"1208160","name":"BUNUT","postal_code":"62383"},{"id":"1208160013","district_id":"1208160","name":"BUNUT BARAT","postal_code":"21211"}]