[{"id":"1209020002","district_id":"1209020","name":"KINALANG","postal_code":"38363"},{"id":"1209020006","district_id":"1209020","name":"TIGA RUNGGU","postal_code":"21165"},{"id":"1209020007","district_id":"1209020","name":"PURBA TENGAH","postal_code":"21165"},{"id":"1209020008","district_id":"1209020","name":"PEMATANG PURBA","postal_code":"21165"},{"id":"1209020009","district_id":"1209020","name":"PURBA SIPINGGAN","postal_code":"21165"},{"id":"1209020010","district_id":"1209020","name":"URUNG PURBA","postal_code":"21165"},{"id":"1209020011","district_id":"1209020","name":"TANOH TINGGIR","postal_code":"24673"},{"id":"1209020012","district_id":"1209020","name":"PURBA DOLOK","postal_code":"22453"},{"id":"1209020013","district_id":"1209020","name":"SARIBU JANDI","postal_code":"21167"},{"id":"1209020014","district_id":"1209020","name":"HUTARAJA","postal_code":"22774"},{"id":"1209020015","district_id":"1209020","name":"NAGORI TONGAH","postal_code":"21157"},{"id":"1209020016","district_id":"1209020","name":"URUNG PANE","postal_code":"21261"},{"id":"1209020017","district_id":"1209020","name":"BUNGA SAMPANG","postal_code":"28763"},{"id":"1209020018","district_id":"1209020","name":"BANDAR SAUHUR","postal_code":"34767"}]