[{"id":"1209120001","district_id":"1209120","name":"DOLOK SARIBU BANGUN","postal_code":"21157"},{"id":"1209120002","district_id":"1209120","name":"SIMANABUN","postal_code":"21157"},{"id":"1209120003","district_id":"1209120","name":"MARIAH BUTTU","postal_code":"21157"},{"id":"1209120004","district_id":"1209120","name":"PARDOMUAN TONGAH","postal_code":"21157"},{"id":"1209120005","district_id":"1209120","name":"DOLOK MARAWA","postal_code":"21157"},{"id":"1209120006","district_id":"1209120","name":"NEGERI DOLOK","postal_code":"21157"},{"id":"1209120007","district_id":"1209120","name":"BANDAR NAGORI","postal_code":"21157"},{"id":"1209120008","district_id":"1209120","name":"BANDAR MARUHUR","postal_code":"21157"},{"id":"1209120009","district_id":"1209120","name":"SILAU PARIBUAN","postal_code":"20992"},{"id":"1209120010","district_id":"1209120","name":"SILAU DUNIA","postal_code":"21174"},{"id":"1209120011","district_id":"1209120","name":"BUTTU BAYU","postal_code":"21157"},{"id":"1209120012","district_id":"1209120","name":"NAGORI TANI","postal_code":"21157"},{"id":"1209120013","district_id":"1209120","name":"BAH SARIMAH","postal_code":"21157"},{"id":"1209120014","district_id":"1209120","name":"SINASIH","postal_code":"21157"},{"id":"1209120015","district_id":"1209120","name":"DAMAKITANG","postal_code":"20984"},{"id":"1209120016","district_id":"1209120","name":"PARDOMUAN BANDAR","postal_code":"21157"}]