[{"id":"1209190001","district_id":"1209190","name":"PEMATANG KERASAAN","postal_code":"21184"},{"id":"1209190002","district_id":"1209190","name":"PEMATANG KERASAAN REJO","postal_code":"21184"},{"id":"1209190003","district_id":"1209190","name":"MARIHAT BANDAR","postal_code":"21162"},{"id":"1209190004","district_id":"1209190","name":"TIMBAAN","postal_code":"71181"},{"id":"1209190005","district_id":"1209190","name":"NAGORI BANDAR","postal_code":"21184"},{"id":"1209190006","district_id":"1209190","name":"BANDAR RAKYAT","postal_code":"21184"},{"id":"1209190007","district_id":"1209190","name":"BANDAR PULO","postal_code":"21184"},{"id":"1209190008","district_id":"1209190","name":"BANDAR JAWA","postal_code":"21184"},{"id":"1209190009","district_id":"1209190","name":"PERDAGANGAN I","postal_code":"21184"},{"id":"1209190010","district_id":"1209190","name":"BAH LIAS","postal_code":"21181"},{"id":"1209190011","district_id":"1209190","name":"PERDAGANGAN II","postal_code":"21184"},{"id":"1209190012","district_id":"1209190","name":"PERLANAAN","postal_code":"21184"},{"id":"1209190013","district_id":"1209190","name":"SIDO TANI","postal_code":"21184"},{"id":"1209190014","district_id":"1209190","name":"SUGARANG BAYU","postal_code":"21184"},{"id":"1209190015","district_id":"1209190","name":"PERDAGANGAN III","postal_code":"21184"},{"id":"1209190016","district_id":"1209190","name":"LANDBOUW","postal_code":"93353"}]