[{"id":"1209100003","district_id":"1209100","name":"RAYA BAYU","postal_code":"21162"},{"id":"1209100004","district_id":"1209100","name":"DALIG RAYA","postal_code":"21162"},{"id":"1209100005","district_id":"1209100","name":"PEMATANG RAYA","postal_code":"21162"},{"id":"1209100006","district_id":"1209100","name":"MEREK RAYA","postal_code":"21162"},{"id":"1209100007","district_id":"1209100","name":"BAHAPAL RAYA","postal_code":"21162"},{"id":"1209100008","district_id":"1209100","name":"SONDI RAYA","postal_code":"21162"},{"id":"1209100011","district_id":"1209100","name":"SIPORKAS","postal_code":"21162"},{"id":"1209100012","district_id":"1209100","name":"SILOU HULUAN","postal_code":"22733"},{"id":"1209100013","district_id":"1209100","name":"SILOU BUTTU","postal_code":"22733"},{"id":"1209100014","district_id":"1209100","name":"BONGURON KARIAHAN","postal_code":"63155"},{"id":"1209100015","district_id":"1209100","name":"SIHUBU RAYA","postal_code":"22456"},{"id":"1209100016","district_id":"1209100","name":"RAYA BOSI","postal_code":"71183"},{"id":"1209100017","district_id":"1209100","name":"SIMBOU BARU","postal_code":"91512"},{"id":"1209100019","district_id":"1209100","name":"LOKKUNG RAYA","postal_code":"97562"},{"id":"1209100020","district_id":"1209100","name":"BARINGIN RAYA","postal_code":"21129"},{"id":"1209100021","district_id":"1209100","name":"LIMAG RAYA","postal_code":"21255"},{"id":"1209100022","district_id":"1209100","name":"DAME RAYA","postal_code":"95861"}]