[{"id":"1210050001","district_id":"1210050","name":"PEGAGAN JULU V","postal_code":"22281"},{"id":"1210050002","district_id":"1210050","name":"PEGAGAN JULU IV","postal_code":"22281"},{"id":"1210050003","district_id":"1210050","name":"PEGAGAN JULU II","postal_code":"22281"},{"id":"1210050004","district_id":"1210050","name":"PEGAGAN JULU I","postal_code":"22281"},{"id":"1210050005","district_id":"1210050","name":"PEGAGAN JULU III","postal_code":"22281"},{"id":"1210050006","district_id":"1210050","name":"PEGAGAN JULU VI","postal_code":"22281"},{"id":"1210050007","district_id":"1210050","name":"PEGAGAN JULU VII","postal_code":"22281"},{"id":"1210050008","district_id":"1210050","name":"PEGAGAN JULU VIII","postal_code":"22281"},{"id":"1210050009","district_id":"1210050","name":"PEGAGAN JULU IX","postal_code":"22281"},{"id":"1210050010","district_id":"1210050","name":"PEGAGAN JULU X","postal_code":"22281"},{"id":"1210050011","district_id":"1210050","name":"TANJUNG BERINGIN","postal_code":"39125"},{"id":"1210050012","district_id":"1210050","name":"DOLOK TOLONG","postal_code":"22281"},{"id":"1210050013","district_id":"1210050","name":"KUTA GUGUNG","postal_code":"22153"},{"id":"1210050014","district_id":"1210050","name":"PARGAMBIRAN","postal_code":"20993"},{"id":"1210050015","district_id":"1210050","name":"PERJUANGAN","postal_code":"21332"},{"id":"1210050016","district_id":"1210050","name":"SILEUH-LEUH PARSAORAN","postal_code":"22755"},{"id":"1210050017","district_id":"1210050","name":"PANGGURUAN","postal_code":"66284"},{"id":"1210050018","district_id":"1210050","name":"TANJUNG BERINGIN I","postal_code":"39125"},{"id":"1210050019","district_id":"1210050","name":"BARISAN NAULI","postal_code":"45192"}]