[{"id":"1211071001","district_id":"1211071","name":"TANJUNG PULO","postal_code":"22154"},{"id":"1211071002","district_id":"1211071","name":"TANJUNG MBELANG","postal_code":"22154"},{"id":"1211071003","district_id":"1211071","name":"NARI GUNUNG DUA","postal_code":"22154"},{"id":"1211071004","district_id":"1211071","name":"JANDI MERIAH","postal_code":"22154"},{"id":"1211071005","district_id":"1211071","name":"SUKA TENDEL","postal_code":"22154"},{"id":"1211071006","district_id":"1211071","name":"TANJUNG MERAWA","postal_code":"22154"},{"id":"1211071007","district_id":"1211071","name":"TIGANDERKET","postal_code":"59465"},{"id":"1211071008","district_id":"1211071","name":"PERBAJI","postal_code":"22154"},{"id":"1211071009","district_id":"1211071","name":"TEMBURUN","postal_code":"29791"},{"id":"1211071010","district_id":"1211071","name":"MARDINGDING","postal_code":"22154"},{"id":"1211071011","district_id":"1211071","name":"KUTA MBARU","postal_code":"22271"},{"id":"1211071012","district_id":"1211071","name":"SUSUK","postal_code":"54172"},{"id":"1211071013","district_id":"1211071","name":"GUNUNG MERLAWAN","postal_code":"22154"},{"id":"1211071014","district_id":"1211071","name":"NARI GUNUNG SATU","postal_code":"22154"},{"id":"1211071015","district_id":"1211071","name":"KUTA GALUH","postal_code":"22162"},{"id":"1211071016","district_id":"1211071","name":"PENAMPEN","postal_code":"22154"},{"id":"1211071017","district_id":"1211071","name":"KUTA KEPAR","postal_code":"22154"}]