[{"id":"1211010001","district_id":"1211010","name":"LAU SOLU","postal_code":"22165"},{"id":"1211010002","district_id":"1211010","name":"KUTA PENGKIH","postal_code":"22165"},{"id":"1211010003","district_id":"1211010","name":"RIMO BUNGA","postal_code":"22165"},{"id":"1211010004","district_id":"1211010","name":"LAU MULGAP","postal_code":"20762"},{"id":"1211010005","district_id":"1211010","name":"TANJUNG PAMAH","postal_code":"22165"},{"id":"1211010006","district_id":"1211010","name":"MARDINGDING","postal_code":"22154"},{"id":"1211010007","district_id":"1211010","name":"LAU KASUMPAT","postal_code":"22165"},{"id":"1211010008","district_id":"1211010","name":"BANDAR PURBA","postal_code":"22165"},{"id":"1211010009","district_id":"1211010","name":"LAU PENGULU","postal_code":"22165"},{"id":"1211010010","district_id":"1211010","name":"LAU PAKAM","postal_code":"22165"},{"id":"1211010011","district_id":"1211010","name":"LAU GARUT","postal_code":"20774"},{"id":"1211010012","district_id":"1211010","name":"BUKIT MAKMUR","postal_code":"94479"}]