[{"id":"1212070001","district_id":"1212070","name":"MARDINDING JULU","postal_code":"21167"},{"id":"1212070002","district_id":"1212070","name":"PENEN","postal_code":"20358"},{"id":"1212070003","district_id":"1212070","name":"PER RIA RIA","postal_code":"20358"},{"id":"1212070004","district_id":"1212070","name":"SARI LABA JAHE","postal_code":"20358"},{"id":"1212070005","district_id":"1212070","name":"BIRU BIRU","postal_code":"22758"},{"id":"1212070006","district_id":"1212070","name":"KUALA DEKAH","postal_code":"20358"},{"id":"1212070007","district_id":"1212070","name":"RUMAH GERAT","postal_code":"20358"},{"id":"1212070008","district_id":"1212070","name":"TANJUNG SENA","postal_code":"20358"},{"id":"1212070009","district_id":"1212070","name":"KUTA MULYO","postal_code":"20358"},{"id":"1212070010","district_id":"1212070","name":"MBARUAI","postal_code":"20358"},{"id":"1212070011","district_id":"1212070","name":"NAMO TUALANG","postal_code":"20358"},{"id":"1212070012","district_id":"1212070","name":"KAMPUNG SELAMAT","postal_code":"87213"},{"id":"1212070013","district_id":"1212070","name":"SIDODADI","postal_code":"34595"},{"id":"1212070014","district_id":"1212070","name":"NAMO SURO BARU","postal_code":"20358"},{"id":"1212070015","district_id":"1212070","name":"AJI BAHO","postal_code":"20358"},{"id":"1212070016","district_id":"1212070","name":"CANDI REJO","postal_code":"35213"},{"id":"1212070017","district_id":"1212070","name":"SIDOMULYO","postal_code":"66262"}]