[{"id":"1212090010","district_id":"1212090","name":"MABAR","postal_code":"20242"},{"id":"1212090011","district_id":"1212090","name":"SIBAGANDING","postal_code":"22463"},{"id":"1212090012","district_id":"1212090","name":"BAH BALUA","postal_code":"20581"},{"id":"1212090013","district_id":"1212090","name":"RUMAH DELENG","postal_code":"20581"},{"id":"1212090014","district_id":"1212090","name":"BANDAR GUGUNG","postal_code":"21455"},{"id":"1212090015","district_id":"1212090","name":"BANDAR MERIAH","postal_code":"22161"},{"id":"1212090016","district_id":"1212090","name":"PERGURUAN","postal_code":"20581"},{"id":"1212090017","district_id":"1212090","name":"BANGUN PURBA TENGAH","postal_code":"20581"},{"id":"1212090018","district_id":"1212090","name":"DAMAK MALIHO","postal_code":"20581"},{"id":"1212090019","district_id":"1212090","name":"SUKA LUWE","postal_code":"20581"},{"id":"1212090020","district_id":"1212090","name":"URUNG GANJANG","postal_code":"20581"},{"id":"1212090021","district_id":"1212090","name":"BANDAR KWALA","postal_code":"21411"},{"id":"1212090022","district_id":"1212090","name":"MAROMBUN BARAT","postal_code":"22385"},{"id":"1212090023","district_id":"1212090","name":"MAROMBUN UJUNG JAWI","postal_code":"22385"},{"id":"1212090024","district_id":"1212090","name":"BAH PERAK","postal_code":"20581"},{"id":"1212090025","district_id":"1212090","name":"BANGUN PURBA","postal_code":"28557"},{"id":"1212090026","district_id":"1212090","name":"GREAHAN","postal_code":"59253"},{"id":"1212090027","district_id":"1212090","name":"CIMAHE","postal_code":"43253"},{"id":"1212090028","district_id":"1212090","name":"BATU GINGGING","postal_code":"20581"},{"id":"1212090029","district_id":"1212090","name":"TANJUNG PURBA","postal_code":"20581"},{"id":"1212090030","district_id":"1212090","name":"SIALANG","postal_code":"22774"},{"id":"1212090031","district_id":"1212090","name":"BAGERPANG","postal_code":"20581"},{"id":"1212090032","district_id":"1212090","name":"BATU RATA","postal_code":"20581"},{"id":"1212090033","district_id":"1212090","name":"UJUNG RAMBE","postal_code":"20581"}]