[{"id":"1212260001","district_id":"1212260","name":"AMPLAS","postal_code":"20229"},{"id":"1212260002","district_id":"1212260","name":"KENANGAN","postal_code":"91572"},{"id":"1212260003","district_id":"1212260","name":"TEMBUNG","postal_code":"20225"},{"id":"1212260004","district_id":"1212260","name":"SUMBER REJO TIMUR","postal_code":"20371"},{"id":"1212260005","district_id":"1212260","name":"SEI ROTAN","postal_code":"20371"},{"id":"1212260006","district_id":"1212260","name":"BANDAR KLIPPA","postal_code":"64118"},{"id":"1212260007","district_id":"1212260","name":"BANDAR KHALIPAH","postal_code":"20371"},{"id":"1212260008","district_id":"1212260","name":"MEDAN ESTATE","postal_code":"20371"},{"id":"1212260009","district_id":"1212260","name":"LAUT DENDANG","postal_code":"20371"},{"id":"1212260010","district_id":"1212260","name":"SAMPALI","postal_code":"20371"},{"id":"1212260011","district_id":"1212260","name":"BANDAR SETIA","postal_code":"20371"},{"id":"1212260012","district_id":"1212260","name":"KOLAM","postal_code":"73961"},{"id":"1212260013","district_id":"1212260","name":"SAENTIS","postal_code":"20371"},{"id":"1212260014","district_id":"1212260","name":"CINTA RAKYAT","postal_code":"20356"},{"id":"1212260015","district_id":"1212260","name":"CINTA DAMAI","postal_code":"22383"},{"id":"1212260016","district_id":"1212260","name":"PEMATANG LALANG","postal_code":"20371"},{"id":"1212260017","district_id":"1212260","name":"PERCUT","postal_code":"20371"},{"id":"1212260018","district_id":"1212260","name":"TANJUNG REJO","postal_code":"34769"},{"id":"1212260019","district_id":"1212260","name":"TANJUNG SELAMAT","postal_code":"28992"},{"id":"1212260020","district_id":"1212260","name":"KENANGAN BARU","postal_code":"20371"}]