[{"id":"1212230001","district_id":"1212230","name":"TELAGA SARI","postal_code":"99656"},{"id":"1212230002","district_id":"1212230","name":"SEI MENCIRIM","postal_code":"20351"},{"id":"1212230003","district_id":"1212230","name":"SUKA MAJU","postal_code":"37553"},{"id":"1212230004","district_id":"1212230","name":"SEI BERAS SEKATA","postal_code":"20351"},{"id":"1212230005","district_id":"1212230","name":"TANJUNG SELAMAT","postal_code":"28992"},{"id":"1212230006","district_id":"1212230","name":"SUNGGAL KANAN","postal_code":"20128"},{"id":"1212230007","district_id":"1212230","name":"MEDAN KRIO","postal_code":"20351"},{"id":"1212230008","district_id":"1212230","name":"PAYA GELI","postal_code":"20351"},{"id":"1212230009","district_id":"1212230","name":"PUJI MULYO","postal_code":"20351"},{"id":"1212230010","district_id":"1212230","name":"SEI SEMAYANG","postal_code":"20351"},{"id":"1212230011","district_id":"1212230","name":"SUMBER MELATI DISKI","postal_code":"30961"},{"id":"1212230012","district_id":"1212230","name":"SERBA JADI","postal_code":"20991"},{"id":"1212230013","district_id":"1212230","name":"MULYOREJO","postal_code":"62361"},{"id":"1212230014","district_id":"1212230","name":"KAMPUNG LALANG","postal_code":"21187"},{"id":"1212230015","district_id":"1212230","name":"PURWODADI","postal_code":"56261"},{"id":"1212230016","district_id":"1212230","name":"TANJUNG GUSTA","postal_code":"20125"},{"id":"1212230017","district_id":"1212230","name":"HELVETIA","postal_code":"20124"}]