[{"id":"1213140001","district_id":"1213140","name":"SERAPUH ASLI","postal_code":"20853"},{"id":"1213140002","district_id":"1213140","name":"PEMATANG TENGAH","postal_code":"20853"},{"id":"1213140003","district_id":"1213140","name":"PAYA PERUPUK","postal_code":"20853"},{"id":"1213140004","district_id":"1213140","name":"PEKAN TANJUNG PURA","postal_code":"20853"},{"id":"1213140005","district_id":"1213140","name":"LALANG","postal_code":"20614"},{"id":"1213140006","district_id":"1213140","name":"PANTAI CERMIN","postal_code":"20853"},{"id":"1213140007","district_id":"1213140","name":"PEKUBUAN","postal_code":"20853"},{"id":"1213140008","district_id":"1213140","name":"TELUK BAKUNG","postal_code":"38766"},{"id":"1213140009","district_id":"1213140","name":"PEMATANG SERAI","postal_code":"20853"},{"id":"1213140010","district_id":"1213140","name":"BAJA KUNING","postal_code":"20853"},{"id":"1213140011","district_id":"1213140","name":"PULAU BANYAK","postal_code":"20853"},{"id":"1213140012","district_id":"1213140","name":"PEMATANG CENGAL","postal_code":"20853"},{"id":"1213140013","district_id":"1213140","name":"KWALA SERAPUH","postal_code":"20853"},{"id":"1213140014","district_id":"1213140","name":"KWALA LANGKAT","postal_code":"20853"},{"id":"1213140015","district_id":"1213140","name":"BUBUN","postal_code":"20853"},{"id":"1213140016","district_id":"1213140","name":"TAPAK KUDA","postal_code":"20853"},{"id":"1213140017","district_id":"1213140","name":"SUKAMAJU","postal_code":"34763"},{"id":"1213140018","district_id":"1213140","name":"KARYA MAJU","postal_code":"34767"},{"id":"1213140019","district_id":"1213140","name":"PEMATANG CENGAL BARAT","postal_code":"20853"}]