[{"id":"1213020005","district_id":"1213020","name":"UJUNG BANDAR","postal_code":"20773"},{"id":"1213020006","district_id":"1213020","name":"PARANGGUAM","postal_code":"20773"},{"id":"1213020007","district_id":"1213020","name":"PERKEBUNAN TAMBUNAN","postal_code":"20773"},{"id":"1213020008","district_id":"1213020","name":"LAU TEPU","postal_code":"20773"},{"id":"1213020009","district_id":"1213020","name":"PAMA TAMBUNAN","postal_code":"98481"},{"id":"1213020010","district_id":"1213020","name":"PERKEBUNAN GLUGUR LANGKAT","postal_code":"20773"},{"id":"1213020015","district_id":"1213020","name":"BANDAR TELU","postal_code":"22735"},{"id":"1213020016","district_id":"1213020","name":"TURANGI","postal_code":"20773"},{"id":"1213020017","district_id":"1213020","name":"UJUNG TERAN","postal_code":"22153"},{"id":"1213020018","district_id":"1213020","name":"MINTA KASIH","postal_code":"20773"},{"id":"1213020019","district_id":"1213020","name":"TANJUNG LANGKAT","postal_code":"20773"},{"id":"1213020020","district_id":"1213020","name":"NAMAN JAHE","postal_code":"20773"},{"id":"1213020021","district_id":"1213020","name":"PERKEBUNAN TANJUNG KELILING","postal_code":"20773"},{"id":"1213020025","district_id":"1213020","name":"PONCO WARNO","postal_code":"34174"},{"id":"1213020026","district_id":"1213020","name":"ADIN TENGAH","postal_code":"20773"},{"id":"1213020027","district_id":"1213020","name":"LAU LUGUR","postal_code":"22163"},{"id":"1213020028","district_id":"1213020","name":"PANCUR IDO","postal_code":"20773"}]