[{"id":"1214070006","district_id":"1214070","name":"TUHEMBERUA","postal_code":"22867"},{"id":"1214070009","district_id":"1214070","name":"HILIOTALUA","postal_code":"22881"},{"id":"1214070010","district_id":"1214070","name":"HILISANGOWOLA","postal_code":"22867"},{"id":"1214070011","district_id":"1214070","name":"LAWA-LAWA LUO","postal_code":"22867"},{"id":"1214070012","district_id":"1214070","name":"TESIKHORI","postal_code":"22867"},{"id":"1214070013","district_id":"1214070","name":"KOENDRAFO","postal_code":"22867"},{"id":"1214070021","district_id":"1214070","name":"EWO","postal_code":"22867"},{"id":"1214070023","district_id":"1214070","name":"KOOLOTANO","postal_code":"73961"},{"id":"1214070024","district_id":"1214070","name":"TUMARI","postal_code":"22867"},{"id":"1214070026","district_id":"1214070","name":"BOTOHILI NDRURIA","postal_code":"22867"},{"id":"1214070027","district_id":"1214070","name":"CARITAS SAGAWUNASI","postal_code":"42264"},{"id":"1214070028","district_id":"1214070","name":"ORUDUA LAWA-LAWA LUO","postal_code":"22867"},{"id":"1214070029","district_id":"1214070","name":"HILIFAONDRATO","postal_code":"22867"}]