[{"id":"1214011001","district_id":"1214011","name":"MAKOLE","postal_code":"22881"},{"id":"1214011002","district_id":"1214011","name":"JEKE","postal_code":"22881"},{"id":"1214011003","district_id":"1214011","name":"SIFAURUASI","postal_code":"22881"},{"id":"1214011004","district_id":"1214011","name":"SAERU MELAYU","postal_code":"22881"},{"id":"1214011005","district_id":"1214011","name":"BAWOANALITA SAERU","postal_code":"22865"},{"id":"1214011006","district_id":"1214011","name":"BAWO ORUDUA","postal_code":"22881"},{"id":"1214011007","district_id":"1214011","name":"HALE BALUTA","postal_code":"22881"},{"id":"1214011008","district_id":"1214011","name":"BAWO OFULOA","postal_code":"22881"},{"id":"1214011009","district_id":"1214011","name":"BALUTA","postal_code":"22881"},{"id":"1214011010","district_id":"1214011","name":"EHO BALUTA","postal_code":"22881"},{"id":"1214011011","district_id":"1214011","name":"HILIGEHO SOGAWU","postal_code":"22881"},{"id":"1214011012","district_id":"1214011","name":"HILIOMASIO","postal_code":"22865"}]