[{"id":"1214033001","district_id":"1214033","name":"HILISIMAETANO","postal_code":"22865"},{"id":"1214033003","district_id":"1214033","name":"BAWOGOSALI","postal_code":"22865"},{"id":"1214033004","district_id":"1214033","name":"HILIFALAWU","postal_code":"22865"},{"id":"1214033006","district_id":"1214033","name":"SOTOO HILISIMAETANO","postal_code":"28381"},{"id":"1214033007","district_id":"1214033","name":"EHO HILISIMAETANO","postal_code":"22865"},{"id":"1214033008","district_id":"1214033","name":"SAMADAYA HILISIMAETANO","postal_code":"22865"},{"id":"1214033009","district_id":"1214033","name":"IDALA JAYA HILISIMAETANO","postal_code":"22865"},{"id":"1214033010","district_id":"1214033","name":"FAOMASI HILISIMAETANO","postal_code":"22865"},{"id":"1214033011","district_id":"1214033","name":"HILIAURIFA HILISIMAETANO","postal_code":"22865"},{"id":"1214033012","district_id":"1214033","name":"NDRASO HILISIMAETANO","postal_code":"22865"},{"id":"1214033013","district_id":"1214033","name":"PEKAN HILISIMAETANO","postal_code":"22865"},{"id":"1214033014","district_id":"1214033","name":"BONIA HILISIMAETANO","postal_code":"22865"},{"id":"1214033015","district_id":"1214033","name":"BAWOSAODANO","postal_code":"22865"},{"id":"1214033016","district_id":"1214033","name":"BOWOHOSI","postal_code":"98357"}]