[{"id":"1214030006","district_id":"1214030","name":"HILIGEHO","postal_code":"22865"},{"id":"1214030007","district_id":"1214030","name":"HILITOBARA","postal_code":"22865"},{"id":"1214030008","district_id":"1214030","name":"PASAR TELUK DALAM","postal_code":"22865"},{"id":"1214030009","district_id":"1214030","name":"BAWONIFAOSO","postal_code":"22881"},{"id":"1214030010","district_id":"1214030","name":"BAWOZAUA","postal_code":"22864"},{"id":"1214030011","district_id":"1214030","name":"HILIGANOWO","postal_code":"22865"},{"id":"1214030022","district_id":"1214030","name":"BAWODOBARA","postal_code":"22881"},{"id":"1214030023","district_id":"1214030","name":"BAWOLOWALANI","postal_code":"95863"},{"id":"1214030024","district_id":"1214030","name":"HILISONDREKHA","postal_code":"22865"},{"id":"1214030025","district_id":"1214030","name":"HILISAOOTONIHA","postal_code":"22865"},{"id":"1214030040","district_id":"1214030","name":"HILIANAA","postal_code":"22865"},{"id":"1214030041","district_id":"1214030","name":"HILIGANOWO SALOO","postal_code":"22865"},{"id":"1214030042","district_id":"1214030","name":"HILIGANOWOSA'UA","postal_code":"22865"},{"id":"1214030043","district_id":"1214030","name":"HILILAZA","postal_code":"22865"},{"id":"1214030044","district_id":"1214030","name":"NANOWA","postal_code":"22865"}]