[{"id":"1214041001","district_id":"1214041","name":"HILITOTAO","postal_code":"22864"},{"id":"1214041002","district_id":"1214041","name":"HILIORODUA","postal_code":"22881"},{"id":"1214041003","district_id":"1214041","name":"HILIAMAUZULA","postal_code":"22865"},{"id":"1214041004","district_id":"1214041","name":"SISOBAMBOWO","postal_code":"22866"},{"id":"1214041005","district_id":"1214041","name":"HILIFADOLO","postal_code":"22866"},{"id":"1214041006","district_id":"1214041","name":"ARAMO","postal_code":"22866"},{"id":"1214041007","district_id":"1214041","name":"HILIMAGIAO","postal_code":"22866"},{"id":"1214041008","district_id":"1214041","name":"HUME","postal_code":"22866"},{"id":"1214041009","district_id":"1214041","name":"HILIMEJAYA","postal_code":"22866"},{"id":"1214041010","district_id":"1214041","name":"DAO-DAO","postal_code":"22866"},{"id":"1214041011","district_id":"1214041","name":"SIKHORILAFAU","postal_code":"22866"},{"id":"1214041012","district_id":"1214041","name":"HILIMBOWO","postal_code":"22864"},{"id":"1214041013","district_id":"1214041","name":"HILISAWATO","postal_code":"22866"},{"id":"1214041014","district_id":"1214041","name":"HILIGAFOA","postal_code":"22866"},{"id":"1214041015","district_id":"1214041","name":"BALOHAO","postal_code":"23525"},{"id":"1214041016","district_id":"1214041","name":"HILIADOLOWA","postal_code":"22866"},{"id":"1214041017","district_id":"1214041","name":"HILIGUMBU","postal_code":"22866"},{"id":"1214041018","district_id":"1214041","name":"BAGOA","postal_code":"22866"}]