[{"id":"1214034001","district_id":"1214034","name":"HILIZALOOTANO","postal_code":"22865"},{"id":"1214034002","district_id":"1214034","name":"BAWOLAHUSA","postal_code":"22865"},{"id":"1214034003","district_id":"1214034","name":"HILINAWALO MAZINO","postal_code":"22874"},{"id":"1214034004","district_id":"1214034","name":"HILIZOROILAWA","postal_code":"22865"},{"id":"1214034005","district_id":"1214034","name":"LAWINDRA","postal_code":"22865"},{"id":"1214034006","district_id":"1214034","name":"BAWOLAHUSA DOLI-DOLI","postal_code":"22865"},{"id":"1214034007","district_id":"1214034","name":"HILIZALOTANO LARONO","postal_code":"22865"},{"id":"1214034008","district_id":"1214034","name":"HILIZALOTANO LAOWO","postal_code":"22865"},{"id":"1214034009","district_id":"1214034","name":"LOLOMBOLI","postal_code":"22851"},{"id":"1214034010","district_id":"1214034","name":"HILILAZA HILINAWALO MAZINO","postal_code":"22865"},{"id":"1214034011","district_id":"1214034","name":"HILIFONDEGE HILIZOROILAWA","postal_code":"22865"}]