[{"id":"1215080001","district_id":"1215080","name":"AEK NAULI II","postal_code":"22471"},{"id":"1215080003","district_id":"1215080","name":"AEK NAULI I","postal_code":"22471"},{"id":"1215080004","district_id":"1215080","name":"PANDUMAAN","postal_code":"22457"},{"id":"1215080005","district_id":"1215080","name":"SIPITU HUTA","postal_code":"22457"},{"id":"1215080006","district_id":"1215080","name":"PARSINGGURAN II","postal_code":"22457"},{"id":"1215080007","district_id":"1215080","name":"POLLUNG","postal_code":"22457"},{"id":"1215080008","district_id":"1215080","name":"PARSINGGURAN I","postal_code":"22457"},{"id":"1215080009","district_id":"1215080","name":"RIA RIA","postal_code":"86419"},{"id":"1215080010","district_id":"1215080","name":"HUTA PAUNG","postal_code":"22457"},{"id":"1215080011","district_id":"1215080","name":"PANSUR BATU","postal_code":"22461"},{"id":"1215080012","district_id":"1215080","name":"HUTA JULU","postal_code":"22998"},{"id":"1215080013","district_id":"1215080","name":"PARDOMUAN","postal_code":"22382"},{"id":"1215080014","district_id":"1215080","name":"HUTAPAUNG UTARA","postal_code":"22753"}]