[{"id":"1215020001","district_id":"1215020","name":"AEK GODANG","postal_code":"22733"},{"id":"1215020002","district_id":"1215020","name":"SANGGARAN II","postal_code":"22454"},{"id":"1215020003","district_id":"1215020","name":"JANJI NAGODANG","postal_code":"22454"},{"id":"1215020011","district_id":"1215020","name":"HUTA JULU","postal_code":"22998"},{"id":"1215020012","district_id":"1215020","name":"SIHIKKIT","postal_code":"22454"},{"id":"1215020013","district_id":"1215020","name":"ONAN GANJANG","postal_code":"22454"},{"id":"1215020014","district_id":"1215020","name":"PARBOTIHAN","postal_code":"22454"},{"id":"1215020015","district_id":"1215020","name":"BATU NAGODANG SIATAS","postal_code":"22454"},{"id":"1215020016","district_id":"1215020","name":"SAMPETUA","postal_code":"22454"},{"id":"1215020017","district_id":"1215020","name":"PARNAPA","postal_code":"22454"},{"id":"1215020020","district_id":"1215020","name":"SIBULUAN","postal_code":"22454"},{"id":"1215020021","district_id":"1215020","name":"SIGALOGO","postal_code":"22454"}]