[{"id":"1217090001","district_id":"1217090","name":"TANJUNGAN","postal_code":"35382"},{"id":"1217090002","district_id":"1217090","name":"PARBALOHAN","postal_code":"22395"},{"id":"1217090003","district_id":"1217090","name":"PARDOMUAN","postal_code":"22382"},{"id":"1217090004","district_id":"1217090","name":"PARMONANGAN","postal_code":"22392"},{"id":"1217090005","district_id":"1217090","name":"HUTA GINJANG","postal_code":"22476"},{"id":"1217090006","district_id":"1217090","name":"TOMOK","postal_code":"22395"},{"id":"1217090007","district_id":"1217090","name":"GAROGA","postal_code":"22738"},{"id":"1217090008","district_id":"1217090","name":"TUKTUK SIADONG","postal_code":"22395"},{"id":"1217090009","district_id":"1217090","name":"AMBARITA","postal_code":"22395"},{"id":"1217090010","district_id":"1217090","name":"MARTOBA","postal_code":"22395"},{"id":"1217090011","district_id":"1217090","name":"SIHUSAPI","postal_code":"22395"},{"id":"1217090012","district_id":"1217090","name":"MADUMA","postal_code":"22563"},{"id":"1217090013","district_id":"1217090","name":"SIMANINDO SANGKAL","postal_code":"22395"},{"id":"1217090014","district_id":"1217090","name":"CINTA DAME","postal_code":"22395"},{"id":"1217090015","district_id":"1217090","name":"SIMARMATA","postal_code":"22395"},{"id":"1217090016","district_id":"1217090","name":"DOSROHA","postal_code":"22395"},{"id":"1217090017","district_id":"1217090","name":"TOMOK PARSAORAN","postal_code":"22395"},{"id":"1217090018","district_id":"1217090","name":"UNJUR","postal_code":"98857"},{"id":"1217090019","district_id":"1217090","name":"SIALLAGAN-PINDARAYA","postal_code":"31171"},{"id":"1217090020","district_id":"1217090","name":"MARLUMBA","postal_code":"99568"},{"id":"1217090021","district_id":"1217090","name":"SIMANINDO","postal_code":"22983"}]