[{"id":"1218030001","district_id":"1218030","name":"RIMBUN","postal_code":"20992"},{"id":"1218030002","district_id":"1218030","name":"MARIAH NAGUR","postal_code":"20992"},{"id":"1218030003","district_id":"1218030","name":"PARLAMBEAN","postal_code":"20992"},{"id":"1218030004","district_id":"1218030","name":"NAGA RAJA","postal_code":"20992"},{"id":"1218030005","district_id":"1218030","name":"TINOKKAH","postal_code":"20992"},{"id":"1218030006","district_id":"1218030","name":"BARTONG","postal_code":"20992"},{"id":"1218030007","district_id":"1218030","name":"NAGUR PANE","postal_code":"20992"},{"id":"1218030008","district_id":"1218030","name":"BAJA DOLOK","postal_code":"21181"},{"id":"1218030009","district_id":"1218030","name":"PISPIS","postal_code":"20992"},{"id":"1218030010","district_id":"1218030","name":"MARUBUN","postal_code":"20992"},{"id":"1218030011","district_id":"1218030","name":"SERBANANTI","postal_code":"20992"},{"id":"1218030012","district_id":"1218030","name":"SIPISPIS","postal_code":"20992"},{"id":"1218030013","district_id":"1218030","name":"SILAU PADANG","postal_code":"20992"},{"id":"1218030014","district_id":"1218030","name":"MARJANJI","postal_code":"20992"},{"id":"1218030015","district_id":"1218030","name":"BULUH DURI","postal_code":"20992"},{"id":"1218030016","district_id":"1218030","name":"GUNUNG MANAKO","postal_code":"20992"},{"id":"1218030017","district_id":"1218030","name":"DAMAK URAT","postal_code":"20984"},{"id":"1218030018","district_id":"1218030","name":"SIMALAS","postal_code":"20992"},{"id":"1218030019","district_id":"1218030","name":"SIBARAU","postal_code":"22881"},{"id":"1218030020","district_id":"1218030","name":"GUNUNG PANE","postal_code":"20992"}]