[{"id":"1218110001","district_id":"1218110","name":"UJUNG RAMBUNG","postal_code":"20987"},{"id":"1218110002","district_id":"1218110","name":"CELAWAN","postal_code":"20987"},{"id":"1218110003","district_id":"1218110","name":"BESAR 2 TERJUN","postal_code":"20987"},{"id":"1218110004","district_id":"1218110","name":"SEMENTARA","postal_code":"20987"},{"id":"1218110005","district_id":"1218110","name":"ARA PAYUNG","postal_code":"20987"},{"id":"1218110006","district_id":"1218110","name":"PEMATANG KASIH","postal_code":"20987"},{"id":"1218110007","district_id":"1218110","name":"NAGA KISAR","postal_code":"20987"},{"id":"1218110008","district_id":"1218110","name":"LUBUK SABAN","postal_code":"20987"},{"id":"1218110009","district_id":"1218110","name":"KUALA LAMA","postal_code":"20987"},{"id":"1218110010","district_id":"1218110","name":"PANTAI CERMIN KIRI","postal_code":"20987"},{"id":"1218110011","district_id":"1218110","name":"PANTAI CERMIN KANAN","postal_code":"20987"},{"id":"1218110012","district_id":"1218110","name":"KOTA PARI","postal_code":"20987"}]