[{"id":"1218090001","district_id":"1218090","name":"SEI BULUH","postal_code":"21258"},{"id":"1218090002","district_id":"1218090","name":"LIBERIA","postal_code":"20997"},{"id":"1218090003","district_id":"1218090","name":"PEMATANG SETERAK","postal_code":"20853"},{"id":"1218090004","district_id":"1218090","name":"MATAPAO","postal_code":"20997"},{"id":"1218090005","district_id":"1218090","name":"MAKMUR","postal_code":"90983"},{"id":"1218090006","district_id":"1218090","name":"PASAR BARU","postal_code":"20627"},{"id":"1218090007","district_id":"1218090","name":"PEKAN SIALANG BUAH","postal_code":"20997"},{"id":"1218090008","district_id":"1218090","name":"SIALANG BUAH","postal_code":"20997"},{"id":"1218090009","district_id":"1218090","name":"PEMATANG GUNTUNG","postal_code":"20997"},{"id":"1218090010","district_id":"1218090","name":"SENTANG","postal_code":"20997"},{"id":"1218090011","district_id":"1218090","name":"BOGAK BESAR","postal_code":"20997"},{"id":"1218090012","district_id":"1218090","name":"PEMATANG KUALA","postal_code":"20997"}]