[{"id":"1218012001","district_id":"1218012","name":"DAMAK TOLONG BUHO","postal_code":"20984"},{"id":"1218012002","district_id":"1218012","name":"GUDANG GARAM","postal_code":"20984"},{"id":"1218012003","district_id":"1218012","name":"DOLOK MASANGO","postal_code":"20984"},{"id":"1218012004","district_id":"1218012","name":"SARANG GITING HULU","postal_code":"20984"},{"id":"1218012005","district_id":"1218012","name":"PEGAJAHAN HULU","postal_code":"20986"},{"id":"1218012006","district_id":"1218012","name":"BINTANG BAYU","postal_code":"20984"},{"id":"1218012007","district_id":"1218012","name":"PEGAJAHAN KAHAN","postal_code":"20986"},{"id":"1218012008","district_id":"1218012","name":"SIAHAP","postal_code":"20984"},{"id":"1218012009","district_id":"1218012","name":"BANDAR MAGODANG","postal_code":"64114"},{"id":"1218012010","district_id":"1218012","name":"SARANG GITING KAHAN","postal_code":"20984"},{"id":"1218012011","district_id":"1218012","name":"KAMPUNG KRISTEN","postal_code":"20984"},{"id":"1218012012","district_id":"1218012","name":"UJUNG NEGERI HULU","postal_code":"20984"},{"id":"1218012013","district_id":"1218012","name":"UJUNG NEGERI KAHAN","postal_code":"20984"},{"id":"1218012014","district_id":"1218012","name":"BANDAR NEGERI","postal_code":"20984"},{"id":"1218012015","district_id":"1218012","name":"MARIHAT DOLOK","postal_code":"21173"},{"id":"1218012016","district_id":"1218012","name":"HUTA DURIAN","postal_code":"20984"},{"id":"1218012017","district_id":"1218012","name":"BANDAR PINANG KEBUN","postal_code":"28685"},{"id":"1218012018","district_id":"1218012","name":"BANDAR PINANG RAMBE","postal_code":"20984"},{"id":"1218012019","district_id":"1218012","name":"PANOMBEAN","postal_code":"20984"}]