[{"id":"1219050008","district_id":"1219050","name":"SIPARE-PARE","postal_code":"21256"},{"id":"1219050009","district_id":"1219050","name":"PASAR LAPAN","postal_code":"21256"},{"id":"1219050010","district_id":"1219050","name":"INDRAPURA","postal_code":"30975"},{"id":"1219050011","district_id":"1219050","name":"TANAH MERAH","postal_code":"98363"},{"id":"1219050012","district_id":"1219050","name":"TANJUNG MUDA","postal_code":"20582"},{"id":"1219050013","district_id":"1219050","name":"TANAH TINGGI","postal_code":"97715"},{"id":"1219050014","district_id":"1219050","name":"SUKARAJA","postal_code":"46183"},{"id":"1219050015","district_id":"1219050","name":"PEMATANG PANJANG","postal_code":"27553"},{"id":"1219050016","district_id":"1219050","name":"ARAS","postal_code":"21256"},{"id":"1219050017","district_id":"1219050","name":"LIMAU SUNDAI","postal_code":"20716"},{"id":"1219050021","district_id":"1219050","name":"TANJUNG HARAPAN","postal_code":"34765"},{"id":"1219050022","district_id":"1219050","name":"TANJUNG KUBAH","postal_code":"21256"},{"id":"1219050023","district_id":"1219050","name":"SUKA RAMAI","postal_code":"28111"},{"id":"1219050024","district_id":"1219050","name":"TITI PAYUNG","postal_code":"21256"},{"id":"1219050025","district_id":"1219050","name":"PERKOTAAN","postal_code":"20855"},{"id":"1219050026","district_id":"1219050","name":"INDRASAKTI","postal_code":"21256"},{"id":"1219050027","district_id":"1219050","name":"TANAH RENDAH","postal_code":"21256"},{"id":"1219050028","district_id":"1219050","name":"KAMPUNG KELAPA","postal_code":"21256"},{"id":"1219050029","district_id":"1219050","name":"TANJUNG MULIA","postal_code":"22272"}]