[{"id":"1220041001","district_id":"1220041","name":"MOMPANG II","postal_code":"22753"},{"id":"1220041002","district_id":"1220041","name":"GULANGAN","postal_code":"22753"},{"id":"1220041003","district_id":"1220041","name":"SIMANINGGIR","postal_code":"22611"},{"id":"1220041004","district_id":"1220041","name":"SIUNGGAM JAE","postal_code":"22753"},{"id":"1220041005","district_id":"1220041","name":"SIUNGGAM JULU","postal_code":"22753"},{"id":"1220041006","district_id":"1220041","name":"SIUNGGAM TONGA","postal_code":"22753"},{"id":"1220041007","district_id":"1220041","name":"NAGA SARIBU","postal_code":"21167"},{"id":"1220041008","district_id":"1220041","name":"SIHODA-HODA","postal_code":"22753"},{"id":"1220041009","district_id":"1220041","name":"BANGUN PURBA","postal_code":"28557"},{"id":"1220041010","district_id":"1220041","name":"TANGGA-TANGGA  HAMBENG","postal_code":"98654"},{"id":"1220041011","district_id":"1220041","name":"AEK BAYUR","postal_code":"22733"},{"id":"1220041012","district_id":"1220041","name":"AEK TOLONG","postal_code":"22613"},{"id":"1220041013","district_id":"1220041","name":"PIJOR KOLING","postal_code":"22733"},{"id":"1220041014","district_id":"1220041","name":"PURBA TUA DOLOK","postal_code":"21167"}]