[{"id":"1221080074","district_id":"1221080","name":"GANAL","postal_code":"22742"},{"id":"1221080076","district_id":"1221080","name":"GUNUNG MATINGGI","postal_code":"22742"},{"id":"1221080077","district_id":"1221080","name":"GUNUNG MANAON HR","postal_code":"22742"},{"id":"1221080078","district_id":"1221080","name":"PAYA BUJING","postal_code":"22742"},{"id":"1221080079","district_id":"1221080","name":"BULU CINA","postal_code":"22742"},{"id":"1221080080","district_id":"1221080","name":"GONTING JULU","postal_code":"22742"},{"id":"1221080084","district_id":"1221080","name":"GONTING JAE","postal_code":"22742"},{"id":"1221080085","district_id":"1221080","name":"BINANGA TOLU","postal_code":"22742"},{"id":"1221080086","district_id":"1221080","name":"PASIR LANCAT LAMA","postal_code":"22742"},{"id":"1221080087","district_id":"1221080","name":"PASIR LANCAT BARU","postal_code":"22742"},{"id":"1221080088","district_id":"1221080","name":"RAMBA","postal_code":"22742"},{"id":"1221080089","district_id":"1221080","name":"TARUTUNG SIHODA-HODA","postal_code":"22563"},{"id":"1221080090","district_id":"1221080","name":"PASIR PINANG","postal_code":"22741"},{"id":"1221080091","district_id":"1221080","name":"PULO BARIANG","postal_code":"22742"},{"id":"1221080092","district_id":"1221080","name":"PASAR HURISTAK","postal_code":"22742"},{"id":"1221080093","district_id":"1221080","name":"HURISTAK","postal_code":"22742"},{"id":"1221080094","district_id":"1221080","name":"SIPIROK BARU","postal_code":"22742"},{"id":"1221080095","district_id":"1221080","name":"PARAN TONGA HR (AN)","postal_code":"22742"},{"id":"1221080096","district_id":"1221080","name":"TOBING TINGGI HR","postal_code":"22742"},{"id":"1221080097","district_id":"1221080","name":"TOBING JULU","postal_code":"22742"},{"id":"1221080098","district_id":"1221080","name":"HUTA PASIR ULAK TANO","postal_code":"22742"},{"id":"1221080099","district_id":"1221080","name":"GALA BONANG","postal_code":"22742"},{"id":"1221080100","district_id":"1221080","name":"TOBING JAE","postal_code":"22742"},{"id":"1221080101","district_id":"1221080","name":"SIALA GUNDI","postal_code":"22742"},{"id":"1221080102","district_id":"1221080","name":"TANJUNG MORANG HR","postal_code":"22742"},{"id":"1221080103","district_id":"1221080","name":"TANJUNG BARINGIN","postal_code":"22742"},{"id":"1221080106","district_id":"1221080","name":"SIGADING","postal_code":"22742"}]