[{"id":"1221091001","district_id":"1221091","name":"TOBING TINGGI AN","postal_code":"22755"},{"id":"1221091002","district_id":"1221091","name":"SIPAGABU","postal_code":"22383"},{"id":"1221091003","district_id":"1221091","name":"PARAN TONGA AN","postal_code":"22755"},{"id":"1221091004","district_id":"1221091","name":"TANJUNG","postal_code":"57697"},{"id":"1221091005","district_id":"1221091","name":"PARAN JULU","postal_code":"22742"},{"id":"1221091006","district_id":"1221091","name":"HADUNGDUNG AEK RAMPAH","postal_code":"22755"},{"id":"1221091007","district_id":"1221091","name":"TOBING","postal_code":"22755"},{"id":"1221091008","district_id":"1221091","name":"HADUNG-DUNG PINTU PADANG","postal_code":"22755"},{"id":"1221091009","district_id":"1221091","name":"PADANG GARUGUR JULU","postal_code":"22755"},{"id":"1221091010","district_id":"1221091","name":"SIDOKAN","postal_code":"22755"},{"id":"1221091011","district_id":"1221091","name":"AEK NABARA JULU","postal_code":"22755"},{"id":"1221091012","district_id":"1221091","name":"AEK NABARA TONGA","postal_code":"22755"},{"id":"1221091013","district_id":"1221091","name":"AEK NABARA JAE","postal_code":"22755"},{"id":"1221091014","district_id":"1221091","name":"PADANG GARUGUR JAE","postal_code":"22755"},{"id":"1221091015","district_id":"1221091","name":"JANJI MARIA","postal_code":"22383"},{"id":"1221091016","district_id":"1221091","name":"BANGKUANG","postal_code":"22755"},{"id":"1221091017","district_id":"1221091","name":"TANJUNG ROKAN","postal_code":"22755"},{"id":"1221091018","district_id":"1221091","name":"PAYA BAHUNG","postal_code":"22755"},{"id":"1221091019","district_id":"1221091","name":"AEK BONBAN","postal_code":"22755"},{"id":"1221091020","district_id":"1221091","name":"MARENU","postal_code":"22755"},{"id":"1221091021","district_id":"1221091","name":"PADANG GARUGUR TONGA","postal_code":"22755"},{"id":"1221091022","district_id":"1221091","name":"HUTA BARGOT","postal_code":"22755"},{"id":"1221091023","district_id":"1221091","name":"SAYUR MAHINCAT","postal_code":"22755"},{"id":"1221091024","district_id":"1221091","name":"SAYUR MATUA","postal_code":"22755"},{"id":"1221091025","district_id":"1221091","name":"AEK BUATON","postal_code":"22755"}]