[{"id":"1277030005","district_id":"1277030","name":"PURWODADI","postal_code":"56261"},{"id":"1277030006","district_id":"1277030","name":"GUNUNG HASAHATAN","postal_code":"22733"},{"id":"1277030007","district_id":"1277030","name":"UJUNG GURAP","postal_code":"22733"},{"id":"1277030008","district_id":"1277030","name":"BARUAS","postal_code":"22733"},{"id":"1277030009","district_id":"1277030","name":"AEK BAYUR","postal_code":"22733"},{"id":"1277030010","district_id":"1277030","name":"AEK TUHUL","postal_code":"22733"},{"id":"1277030011","district_id":"1277030","name":"PUDUN JAE","postal_code":"22733"},{"id":"1277030012","district_id":"1277030","name":"PUDUN JULU","postal_code":"22733"},{"id":"1277030013","district_id":"1277030","name":"SILOTING","postal_code":"22733"},{"id":"1277030014","district_id":"1277030","name":"BATANG BAHAL","postal_code":"22733"},{"id":"1277030015","district_id":"1277030","name":"AEK NAJAJI","postal_code":"22733"},{"id":"1277030016","district_id":"1277030","name":"BARGOT TOPONG","postal_code":"22773"},{"id":"1277030017","district_id":"1277030","name":"SIMIRIK","postal_code":"22733"},{"id":"1277030018","district_id":"1277030","name":"BATUNADUA JAE","postal_code":"22733"},{"id":"1277030019","district_id":"1277030","name":"BATUNADUA JULU","postal_code":"22733"}]