[{"id":"1278010001","district_id":"1278010","name":"HILIMBOWO IDANOI","postal_code":"22871"},{"id":"1278010002","district_id":"1278010","name":"HILIWETO IDANOI","postal_code":"22871"},{"id":"1278010003","district_id":"1278010","name":"TUHEGEO II","postal_code":"22871"},{"id":"1278010004","district_id":"1278010","name":"SAMASI","postal_code":"22871"},{"id":"1278010005","district_id":"1278010","name":"LOLOANAA IDANOI","postal_code":"22871"},{"id":"1278010006","district_id":"1278010","name":"OMBOLATA","postal_code":"22853"},{"id":"1278010007","district_id":"1278010","name":"ONOWAEMBO","postal_code":"22871"},{"id":"1278010008","district_id":"1278010","name":"SIWALUBANUA I","postal_code":"22871"},{"id":"1278010009","district_id":"1278010","name":"AWAAI","postal_code":"22871"},{"id":"1278010010","district_id":"1278010","name":"LEWUOGURU IDANOI","postal_code":"22871"},{"id":"1278010011","district_id":"1278010","name":"FADORO","postal_code":"22862"},{"id":"1278010012","district_id":"1278010","name":"SIFALAETE","postal_code":"22871"},{"id":"1278010013","district_id":"1278010","name":"HILIHAMBAWA","postal_code":"22871"},{"id":"1278010014","district_id":"1278010","name":"TETEHOSI I","postal_code":"22871"},{"id":"1278010015","district_id":"1278010","name":"TETEHOSI II","postal_code":"22871"},{"id":"1278010016","district_id":"1278010","name":"BINAKA","postal_code":"22871"},{"id":"1278010017","district_id":"1278010","name":"IDANOTAE","postal_code":"22871"},{"id":"1278010018","district_id":"1278010","name":"FOWA","postal_code":"22871"},{"id":"1278010019","district_id":"1278010","name":"SIWALUBANUA II","postal_code":"22871"},{"id":"1278010020","district_id":"1278010","name":"HUMENE","postal_code":"22871"},{"id":"1278010021","district_id":"1278010","name":"SIMANAERE","postal_code":"22871"},{"id":"1278010022","district_id":"1278010","name":"HELEFANIKHA","postal_code":"22864"},{"id":"1278010023","district_id":"1278010","name":"TUHEGEO I","postal_code":"22871"},{"id":"1278010024","district_id":"1278010","name":"DAHANA","postal_code":"22871"},{"id":"1278010025","district_id":"1278010","name":"HILIMBAWADESOLO","postal_code":"22873"},{"id":"1278010026","district_id":"1278010","name":"BAWODESOLO","postal_code":"22871"}]