[{"id":"1302070001","district_id":"1302070","name":"AMPING PARAK","postal_code":"25662"},{"id":"1302070002","district_id":"1302070","name":"SURANTIH","postal_code":"25662"},{"id":"1302070003","district_id":"1302070","name":"TARATAK","postal_code":"25662"},{"id":"1302070004","district_id":"1302070","name":"AMPING PARAK TIMUR","postal_code":"25662"},{"id":"1302070005","district_id":"1302070","name":"AUR DURI SURANTIH","postal_code":"25662"},{"id":"1302070006","district_id":"1302070","name":"RAWANG GUNUNG MALELO SURANTIH","postal_code":"29561"},{"id":"1302070007","district_id":"1302070","name":"KOTO NAN TIGO SELATAN SURANTIH","postal_code":"25662"},{"id":"1302070008","district_id":"1302070","name":"KOTO NAN TIGO UTARA SURANTIH","postal_code":"25662"},{"id":"1302070009","district_id":"1302070","name":"GANTIANG MUDIAK SELATAN SURANTIH","postal_code":"32385"},{"id":"1302070010","district_id":"1302070","name":"GANTIANG MUDIAK UTARA SURANTIH","postal_code":"32385"},{"id":"1302070011","district_id":"1302070","name":"LANSANO TARATAK","postal_code":"25662"},{"id":"1302070012","district_id":"1302070","name":"KOTO TARATAK","postal_code":"25662"}]