[{"id":"1306060001","district_id":"1306060","name":"BALAH AIA","postal_code":"25573"},{"id":"1306060002","district_id":"1306060","name":"LAREH NAN PANJANG","postal_code":"25573"},{"id":"1306060003","district_id":"1306060","name":"LURAH AMPALU","postal_code":"25573"},{"id":"1306060004","district_id":"1306060","name":"SUNGAI SARIAK","postal_code":"25573"},{"id":"1306060005","district_id":"1306060","name":"BALAH AIE TIMUR","postal_code":"25573"},{"id":"1306060006","district_id":"1306060","name":"BALAH AIE UTARA","postal_code":"25573"},{"id":"1306060007","district_id":"1306060","name":"LAREH NAN PANJANG SELATAN","postal_code":"25573"},{"id":"1306060008","district_id":"1306060","name":"LAREH NAN PANJANG BARAT","postal_code":"25573"},{"id":"1306060009","district_id":"1306060","name":"LIMPATO SUNGAI SARIAK","postal_code":"71391"},{"id":"1306060010","district_id":"1306060","name":"BISATI SUNGAI SARIAK","postal_code":"85661"},{"id":"1306060011","district_id":"1306060","name":"LAREH NAN PANJANG SUNGAI SARIAK","postal_code":"25573"},{"id":"1306060012","district_id":"1306060","name":"AMBUANG KAPUA SUNGAI SARIAK","postal_code":"79357"}]