[{"id":"1371030007","district_id":"1371030","name":"KAMPUNG BARU NAN XX","postal_code":"25225"},{"id":"1371030010","district_id":"1371030","name":"PAMPANGAN NAN XX","postal_code":"25227"},{"id":"1371030011","district_id":"1371030","name":"KOTO BARU NAN XX","postal_code":"25652"},{"id":"1371030012","district_id":"1371030","name":"TANJUANG AUR NAN XX","postal_code":"24264"},{"id":"1371030013","district_id":"1371030","name":"GURUN LAWEH NAN XX","postal_code":"25145"},{"id":"1371030014","district_id":"1371030","name":"BANUARAN NAN XX","postal_code":"25222"},{"id":"1371030016","district_id":"1371030","name":"LUBUK BEGALUNG NAN XX","postal_code":"25221"},{"id":"1371030020","district_id":"1371030","name":"CENGKEH NAN XX","postal_code":"54171"},{"id":"1371030022","district_id":"1371030","name":"GATES NAN XX","postal_code":"25227"},{"id":"1371030023","district_id":"1371030","name":"PAGAMBIRAN AMPULU NAN XX","postal_code":"25226"},{"id":"1371030025","district_id":"1371030","name":"PARAK LAWEH PULAU AIR NAN XX","postal_code":"25223"},{"id":"1371030026","district_id":"1371030","name":"TANJUNG SABA PITAMEH NAN XX","postal_code":"35682"},{"id":"1371030027","district_id":"1371030","name":"TANAH SIRAH PIAI NAN XX","postal_code":"25224"},{"id":"1371030028","district_id":"1371030","name":"KAMPUNG JUA NAN XX","postal_code":"25225"},{"id":"1371030029","district_id":"1371030","name":"BATUANG TABA NAN XX","postal_code":"80582"}]