[{"id":"1376010010","district_id":"1376010","name":"PAKAN SINAYAN","postal_code":"26226"},{"id":"1376010011","district_id":"1376010","name":"KUBU GADANG","postal_code":"26213"},{"id":"1376010012","district_id":"1376010","name":"BULAKAN BALAI KANDI","postal_code":"57551"},{"id":"1376010013","district_id":"1376010","name":"TANJUANG PAUAH","postal_code":"27563"},{"id":"1376010014","district_id":"1376010","name":"IBUAH","postal_code":"36364"},{"id":"1376010015","district_id":"1376010","name":"LABUAH BASILANG","postal_code":"23891"},{"id":"1376010018","district_id":"1376010","name":"PARAK BATUANG","postal_code":"92851"},{"id":"1376010019","district_id":"1376010","name":"PARIK RANTANG","postal_code":"26162"},{"id":"1376010025","district_id":"1376010","name":"PAYOLANSEK","postal_code":"26225"},{"id":"1376010027","district_id":"1376010","name":"TANAH MATI","postal_code":"26223"},{"id":"1376010028","district_id":"1376010","name":"PADANG DATA","postal_code":"71452"},{"id":"1376010029","district_id":"1376010","name":"SUBARANG BATUANG","postal_code":"23752"},{"id":"1376010030","district_id":"1376010","name":"KOTO TANGAH","postal_code":"27281"},{"id":"1376010031","district_id":"1376010","name":"TALANG","postal_code":"66254"},{"id":"1376010032","district_id":"1376010","name":"NUNANG DAYA BANGUN","postal_code":"24552"},{"id":"1376010033","district_id":"1376010","name":"PADANG TINGGI PILIANG","postal_code":"26224"},{"id":"1376010034","district_id":"1376010","name":"PADANGTONGAH BALAINANDUO","postal_code":"50267"},{"id":"1376010035","district_id":"1376010","name":"TANJUANGGODANG SUNGAIPINAGO","postal_code":"25523"}]