[{"id":"1377010001","district_id":"1377010","name":"PASIR SUNUR","postal_code":"29353"},{"id":"1377010002","district_id":"1377010","name":"MARUNGGI","postal_code":"14150"},{"id":"1377010003","district_id":"1377010","name":"KAMPUNG APAR","postal_code":"81115"},{"id":"1377010004","district_id":"1377010","name":"SIKABU","postal_code":"25539"},{"id":"1377010005","district_id":"1377010","name":"PALAK ANEH","postal_code":"25539"},{"id":"1377010006","district_id":"1377010","name":"PADANG CAKUR","postal_code":"25537"},{"id":"1377010007","district_id":"1377010","name":"TALUK","postal_code":"22987"},{"id":"1377010008","district_id":"1377010","name":"MARABAU","postal_code":"25537"},{"id":"1377010009","district_id":"1377010","name":"SUNGAI KASAI","postal_code":"25537"},{"id":"1377010010","district_id":"1377010","name":"BATANG TAJONGKEK","postal_code":"25531"},{"id":"1377010011","district_id":"1377010","name":"BALAI KURAI TAJI","postal_code":"25531"},{"id":"1377010012","district_id":"1377010","name":"PAUH KURAI TAJI","postal_code":"31655"},{"id":"1377010013","district_id":"1377010","name":"SIMPANG","postal_code":"46187"},{"id":"1377010014","district_id":"1377010","name":"TOBOH PALABAH","postal_code":"25536"},{"id":"1377010018","district_id":"1377010","name":"RAMBAI","postal_code":"25533"},{"id":"1377010019","district_id":"1377010","name":"PUNGGUNG LADING","postal_code":"98357"}]