[{"id":"1401051001","district_id":"1401051","name":"PEMBATANG","postal_code":"29553"},{"id":"1401051002","district_id":"1401051","name":"PADANG KUNIK","postal_code":"29553"},{"id":"1401051003","district_id":"1401051","name":"PADANG TANGGUNG","postal_code":"29553"},{"id":"1401051004","district_id":"1401051","name":"TELUK PAUH","postal_code":"29553"},{"id":"1401051005","district_id":"1401051","name":"TANAH BEKALI","postal_code":"29553"},{"id":"1401051006","district_id":"1401051","name":"PULAU DERAS","postal_code":"29553"},{"id":"1401051007","district_id":"1401051","name":"PULAU KUMPAI","postal_code":"29553"},{"id":"1401051008","district_id":"1401051","name":"PULAU TENGAH","postal_code":"94975"},{"id":"1401051009","district_id":"1401051","name":"KOTO PANGEAN","postal_code":"37171"},{"id":"1401051010","district_id":"1401051","name":"SUKAPING","postal_code":"29553"},{"id":"1401051011","district_id":"1401051","name":"PULAU RENGAS","postal_code":"37311"},{"id":"1401051012","district_id":"1401051","name":"PAUH ANGIT","postal_code":"29553"},{"id":"1401051013","district_id":"1401051","name":"RAWANG BINJAI","postal_code":"29553"},{"id":"1401051014","district_id":"1401051","name":"PASAR BARU PANGEAN","postal_code":"29553"},{"id":"1401051015","district_id":"1401051","name":"PAUH ANGIT HULU","postal_code":"29553"},{"id":"1401051016","district_id":"1401051","name":"SAKO","postal_code":"30163"},{"id":"1401051017","district_id":"1401051","name":"SUNGAI LANGSAT","postal_code":"29553"}]