[{"id":"1401010005","district_id":"1401010","name":"PANTAI","postal_code":"30652"},{"id":"1401010006","district_id":"1401010","name":"AIR BULUH","postal_code":"38764"},{"id":"1401010007","district_id":"1401010","name":"LUBUK RAMO","postal_code":"29564"},{"id":"1401010008","district_id":"1401010","name":"KOTO CENGAR","postal_code":"29564"},{"id":"1401010009","district_id":"1401010","name":"SEBERANG CENGAR","postal_code":"29564"},{"id":"1401010010","district_id":"1401010","name":"SANGAU","postal_code":"29564"},{"id":"1401010011","district_id":"1401010","name":"BANJAR PADANG","postal_code":"29564"},{"id":"1401010012","district_id":"1401010","name":"LUBUK JAMBI","postal_code":"38374"},{"id":"1401010013","district_id":"1401010","name":"KOTO LUBUK JAMBI","postal_code":"29564"},{"id":"1401010014","district_id":"1401010","name":"KASANG","postal_code":"25586"},{"id":"1401010016","district_id":"1401010","name":"AUR DURI","postal_code":"37111"},{"id":"1401010017","district_id":"1401010","name":"BUKIT KAUMAN","postal_code":"29564"},{"id":"1401010018","district_id":"1401010","name":"SUNGAI MANAU","postal_code":"37361"},{"id":"1401010028","district_id":"1401010","name":"SAIK","postal_code":"29564"},{"id":"1401010029","district_id":"1401010","name":"PEBAUN HULU","postal_code":"29564"},{"id":"1401010030","district_id":"1401010","name":"PEBAUN HILIR","postal_code":"29564"},{"id":"1401010031","district_id":"1401010","name":"KINALI","postal_code":"22564"},{"id":"1401010032","district_id":"1401010","name":"PULAU BINJAI","postal_code":"30654"},{"id":"1401010033","district_id":"1401010","name":"SEBERANG PANTAI","postal_code":"29564"},{"id":"1401010034","district_id":"1401010","name":"LUAI","postal_code":"29564"},{"id":"1401010035","district_id":"1401010","name":"RANTAU SIALANG","postal_code":"30865"},{"id":"1401010036","district_id":"1401010","name":"BANJAR GUNTUNG","postal_code":"29564"},{"id":"1401010038","district_id":"1401010","name":"BUKIT PEDUSUNAN","postal_code":"28463"},{"id":"1401010041","district_id":"1401010","name":"MUARO TOMBANG","postal_code":"29564"}]