[{"id":"1401061001","district_id":"1401061","name":"PULAU PANJANG HULU","postal_code":"29565"},{"id":"1401061002","district_id":"1401061","name":"PULAU  PANJANG HILIR","postal_code":"71552"},{"id":"1401061003","district_id":"1401061","name":"BEDENG SIKURAN","postal_code":"29565"},{"id":"1401061004","district_id":"1401061","name":"BANJAR NANTIGO","postal_code":"29565"},{"id":"1401061005","district_id":"1401061","name":"PASAR INUMAN","postal_code":"29565"},{"id":"1401061006","district_id":"1401061","name":"PULAU SIPAN","postal_code":"29565"},{"id":"1401061007","district_id":"1401061","name":"PULAU BUSUK","postal_code":"29565"},{"id":"1401061008","district_id":"1401061","name":"KOTO INUMAN","postal_code":"29565"},{"id":"1401061009","district_id":"1401061","name":"SIGARUNTANG","postal_code":"29565"},{"id":"1401061010","district_id":"1401061","name":"PULAU BUSUK JAYA","postal_code":"29565"},{"id":"1401061011","district_id":"1401061","name":"SEBERANG PULAU BUSUK","postal_code":"29565"},{"id":"1401061012","district_id":"1401061","name":"KETAPING JAYA","postal_code":"29565"},{"id":"1401061013","district_id":"1401061","name":"LEBUH LURUS","postal_code":"29565"},{"id":"1401061014","district_id":"1401061","name":"KAMPUNG BARU KOTO","postal_code":"29565"}]