[{"id":"1401011001","district_id":"1401011","name":"SUNGAI KELELAWAR","postal_code":"30967"},{"id":"1401011002","district_id":"1401011","name":"SUNGAI ALAH","postal_code":"29565"},{"id":"1401011003","district_id":"1401011","name":"LUBUK AMBACANG","postal_code":"29565"},{"id":"1401011004","district_id":"1401011","name":"KOTO KOMBU","postal_code":"29565"},{"id":"1401011005","district_id":"1401011","name":"SUMPU","postal_code":"29565"},{"id":"1401011006","district_id":"1401011","name":"INUMAN","postal_code":"29565"},{"id":"1401011007","district_id":"1401011","name":"TANJUNG MEDANG","postal_code":"31171"},{"id":"1401011008","district_id":"1401011","name":"MUDIK ULO","postal_code":"29565"},{"id":"1401011009","district_id":"1401011","name":"SUNGAI PINANG","postal_code":"25654"},{"id":"1401011010","district_id":"1401011","name":"TANJUNG","postal_code":"57697"},{"id":"1401011011","district_id":"1401011","name":"SEROSAH","postal_code":"31452"},{"id":"1401011012","district_id":"1401011","name":"SAMPURAGO","postal_code":"29565"}]