[{"id":"1403121001","district_id":"1403121","name":"TANJUNG SIMPANG","postal_code":"29255"},{"id":"1403121002","district_id":"1403121","name":"SIMPANG KATEMAN","postal_code":"29255"},{"id":"1403121003","district_id":"1403121","name":"PELANGIRAN","postal_code":"29255"},{"id":"1403121004","district_id":"1403121","name":"ROTAN SEMELUR","postal_code":"29255"},{"id":"1403121005","district_id":"1403121","name":"BAUNG REJO JAYA","postal_code":"74214"},{"id":"1403121006","district_id":"1403121","name":"TAGAGIRI TAMA JAYA","postal_code":"29255"},{"id":"1403121007","district_id":"1403121","name":"PINANG JAYA","postal_code":"30661"},{"id":"1403121008","district_id":"1403121","name":"WONOSARI","postal_code":"56318"},{"id":"1403121009","district_id":"1403121","name":"TEGAL REJO JAYA","postal_code":"94615"},{"id":"1403121010","district_id":"1403121","name":"INTAN MULYA JAYA","postal_code":"29255"},{"id":"1403121011","district_id":"1403121","name":"SAKA PALAS JAYA","postal_code":"29255"},{"id":"1403121012","district_id":"1403121","name":"CATUR KARYA","postal_code":"71572"},{"id":"1403121013","district_id":"1403121","name":"BAGAN JAYA","postal_code":"29255"},{"id":"1403121014","district_id":"1403121","name":"TELUK BUNIAN","postal_code":"29255"},{"id":"1403121015","district_id":"1403121","name":"HIDAYAH","postal_code":"29255"},{"id":"1403121016","district_id":"1403121","name":"TERUSAN BERINGIN JAYA","postal_code":"29255"}]