[{"id":"1403080001","district_id":"1403080","name":"KUALA SEBATU","postal_code":"29252"},{"id":"1403080002","district_id":"1403080","name":"SUNGAI RAYA","postal_code":"36771"},{"id":"1403080003","district_id":"1403080","name":"SUNGAI JUNJANGAN","postal_code":"29252"},{"id":"1403080004","district_id":"1403080","name":"SUNGAI LUAR","postal_code":"34616"},{"id":"1403080005","district_id":"1403080","name":"SUNGAI DUSUN","postal_code":"36772"},{"id":"1403080006","district_id":"1403080","name":"SUNGAI PIRING","postal_code":"29252"},{"id":"1403080007","district_id":"1403080","name":"TANJUNG SIANTAR","postal_code":"29252"},{"id":"1403080008","district_id":"1403080","name":"SUNGAI RAWA","postal_code":"28662"},{"id":"1403080009","district_id":"1403080","name":"SIALANG JAYA","postal_code":"28557"},{"id":"1403080010","district_id":"1403080","name":"GEMILANG JAYA","postal_code":"29252"},{"id":"1403080011","district_id":"1403080","name":"TASIK RAYA","postal_code":"29252"},{"id":"1403080012","district_id":"1403080","name":"PASIR EMAS","postal_code":"29563"},{"id":"1403080013","district_id":"1403080","name":"SIMPANG JAYA","postal_code":"23661"}]