[{"id":"1406070001","district_id":"1406070","name":"KUAPAN","postal_code":"28462"},{"id":"1406070002","district_id":"1406070","name":"AUR SATI","postal_code":"79356"},{"id":"1406070003","district_id":"1406070","name":"TAMBANG","postal_code":"63418"},{"id":"1406070004","district_id":"1406070","name":"PADANG LUAS","postal_code":"70853"},{"id":"1406070005","district_id":"1406070","name":"GOBAH","postal_code":"28462"},{"id":"1406070006","district_id":"1406070","name":"TERANTANG","postal_code":"74314"},{"id":"1406070007","district_id":"1406070","name":"RIMBA PANJANG","postal_code":"28953"},{"id":"1406070008","district_id":"1406070","name":"KUALU","postal_code":"28462"},{"id":"1406070009","district_id":"1406070","name":"TELUK KENIDAI","postal_code":"28462"},{"id":"1406070010","district_id":"1406070","name":"PARIT BARU","postal_code":"79452"},{"id":"1406070011","district_id":"1406070","name":"KEMANG INDAH","postal_code":"30681"},{"id":"1406070012","district_id":"1406070","name":"SUNGAI PINANG","postal_code":"25654"},{"id":"1406070013","district_id":"1406070","name":"KUALU NENAS","postal_code":"28462"},{"id":"1406070014","district_id":"1406070","name":"TARAI BANGUN","postal_code":"28462"},{"id":"1406070015","district_id":"1406070","name":"PALUNG RAYA","postal_code":"28462"},{"id":"1406070016","district_id":"1406070","name":"PULAU PERMAI","postal_code":"28462"},{"id":"1406070017","district_id":"1406070","name":"BALAM JAYA","postal_code":"34388"}]