[{"id":"1407060004","district_id":"1407060","name":"KEPENUHAN TENGAH","postal_code":"28559"},{"id":"1407060005","district_id":"1407060","name":"KEPENUHAN BARAT","postal_code":"28559"},{"id":"1407060006","district_id":"1407060","name":"KEPENUHAN RAYA","postal_code":"28559"},{"id":"1407060007","district_id":"1407060","name":"KEPENUHAN BARU","postal_code":"28559"},{"id":"1407060008","district_id":"1407060","name":"UPT SP III KOTO TENGAH\/KEPENUHAN MAKMUR","postal_code":"39262"},{"id":"1407060009","district_id":"1407060","name":"KEPENUHAN TIMUR","postal_code":"28559"},{"id":"1407060010","district_id":"1407060","name":"KEPENUHAN HILIR","postal_code":"28559"},{"id":"1407060011","district_id":"1407060","name":"UPT SP IV KOTO TENGAH\/KEPENUHAN SEJATI","postal_code":"39262"},{"id":"1407060012","district_id":"1407060","name":"KEPENUHAN SEI MANDIAN","postal_code":"28559"},{"id":"1407060013","district_id":"1407060","name":"ULAK PATIAN","postal_code":"28559"},{"id":"1407060016","district_id":"1407060","name":"RANTAU BINUANG SAKTI","postal_code":"28559"},{"id":"1407060017","district_id":"1407060","name":"KEPENUHAN BARAT MULYA","postal_code":"28559"},{"id":"1407060018","district_id":"1407060","name":"KEPENUHAN BARAT SUNGAI ROKAN JAYA","postal_code":"28559"}]