[{"id":"1410010001","district_id":"1410010","name":"TANJUNG PERANAP","postal_code":"28753"},{"id":"1410010002","district_id":"1410010","name":"TANJUNG","postal_code":"57697"},{"id":"1410010003","district_id":"1410010","name":"INSIT","postal_code":"28753"},{"id":"1410010004","district_id":"1410010","name":"TENAN","postal_code":"28753"},{"id":"1410010005","district_id":"1410010","name":"KUNDUR","postal_code":"28753"},{"id":"1410010006","district_id":"1410010","name":"BATANG MALAS","postal_code":"28753"},{"id":"1410010007","district_id":"1410010","name":"ALAI","postal_code":"31171"},{"id":"1410010008","district_id":"1410010","name":"MEKONG","postal_code":"28753"},{"id":"1410010009","district_id":"1410010","name":"MANTIASA","postal_code":"28753"},{"id":"1410010010","district_id":"1410010","name":"GOGOK DARUSSALAM","postal_code":"28753"},{"id":"1410010011","district_id":"1410010","name":"MAINI DARUL AMAN","postal_code":"28753"},{"id":"1410010012","district_id":"1410010","name":"MENGKIKIP","postal_code":"28753"},{"id":"1410010013","district_id":"1410010","name":"ALAI SELATAN","postal_code":"28753"},{"id":"1410010014","district_id":"1410010","name":"TANJUNG DARUL TAKZIM","postal_code":"28753"}]