[{"id":"1471022001","district_id":"1471022","name":"KULIM","postal_code":"28286"},{"id":"1471022002","district_id":"1471022","name":"TENGKERANG TIMUR","postal_code":"77212"},{"id":"1471022003","district_id":"1471022","name":"REJOSARI","postal_code":"56372"},{"id":"1471022004","district_id":"1471022","name":"SAIL","postal_code":"28285"},{"id":"1471022005","district_id":"1471022","name":"SIALANG RAMPAI","postal_code":"28755"},{"id":"1471022006","district_id":"1471022","name":"PEBATUAN","postal_code":"52222"},{"id":"1471022007","district_id":"1471022","name":"MENTANGOR","postal_code":"78683"},{"id":"1471022008","district_id":"1471022","name":"PEMATANG KAPAU","postal_code":"37314"},{"id":"1471022009","district_id":"1471022","name":"SIALANG SAKTI","postal_code":"28671"},{"id":"1471022010","district_id":"1471022","name":"TUAH NEGERI","postal_code":"24673"},{"id":"1471022011","district_id":"1471022","name":"MELEBUNG","postal_code":"70617"},{"id":"1471022012","district_id":"1471022","name":"INDUSTRI TENAYAN","postal_code":"93512"},{"id":"1471022013","district_id":"1471022","name":"BAMBU KUNING","postal_code":"15415"}]