[{"id":"1501092001","district_id":"1501092","name":"BATU HAMPAR","postal_code":"28983"},{"id":"1501092002","district_id":"1501092","name":"SUNGAI ASAM","postal_code":"25584"},{"id":"1501092003","district_id":"1501092","name":"BENTO","postal_code":"37163"},{"id":"1501092004","district_id":"1501092","name":"BEDENG DELAPAN","postal_code":"37163"},{"id":"1501092005","district_id":"1501092","name":"SAKO DUA","postal_code":"30165"},{"id":"1501092006","district_id":"1501092","name":"BEDENG DUA","postal_code":"37163"},{"id":"1501092007","district_id":"1501092","name":"KAMPUNG BARU","postal_code":"34765"},{"id":"1501092008","district_id":"1501092","name":"PATOK EMPAT","postal_code":"37163"},{"id":"1501092009","district_id":"1501092","name":"SUNGAI LINTANG","postal_code":"38767"},{"id":"1501092010","district_id":"1501092","name":"SUNGAI JAMBU","postal_code":"27264"},{"id":"1501092011","district_id":"1501092","name":"GIRI MULYO","postal_code":"94684"},{"id":"1501092012","district_id":"1501092","name":"SUNGAI KERING","postal_code":"37163"},{"id":"1501092013","district_id":"1501092","name":"GUNUNG LABU","postal_code":"37163"},{"id":"1501092014","district_id":"1501092","name":"KEBUN BARU","postal_code":"23891"},{"id":"1501092015","district_id":"1501092","name":"SUNGAI RENAH","postal_code":"37163"},{"id":"1501092016","district_id":"1501092","name":"PASAR MINGGU","postal_code":"37163"},{"id":"1501092017","district_id":"1501092","name":"ENSATU","postal_code":"37163"}]