[{"id":"1501082001","district_id":"1501082","name":"MUKAI HILIR","postal_code":"37162"},{"id":"1501082002","district_id":"1501082","name":"SUNGAI LANGKAP","postal_code":"37162"},{"id":"1501082003","district_id":"1501082","name":"SUNGAI KUNING","postal_code":"29563"},{"id":"1501082004","district_id":"1501082","name":"PASIR JAYA","postal_code":"15135"},{"id":"1501082005","district_id":"1501082","name":"MUKAI PINTU","postal_code":"37162"},{"id":"1501082006","district_id":"1501082","name":"MUKAI TENGAH","postal_code":"37162"},{"id":"1501082007","district_id":"1501082","name":"MUKAI MUDIK","postal_code":"37162"},{"id":"1501082008","district_id":"1501082","name":"TEBING TINGGI","postal_code":"37571"},{"id":"1501082009","district_id":"1501082","name":"SENIMPIK","postal_code":"37162"},{"id":"1501082010","district_id":"1501082","name":"MUKAI TINGGI","postal_code":"37162"},{"id":"1501082011","district_id":"1501082","name":"LUBUK TABUN","postal_code":"31581"},{"id":"1501082012","district_id":"1501082","name":"MUKAI SEBERANG","postal_code":"37162"},{"id":"1501082013","district_id":"1501082","name":"TALANG TINGGI","postal_code":"38883"},{"id":"1501082014","district_id":"1501082","name":"KOTO LUA","postal_code":"37162"}]