[{"id":"1503030008","district_id":"1503030","name":"PEMATANG KULIM","postal_code":"20997"},{"id":"1503030009","district_id":"1503030","name":"BATU PUTIH","postal_code":"84455"},{"id":"1503030010","district_id":"1503030","name":"PELAWAN","postal_code":"37482"},{"id":"1503030011","district_id":"1503030","name":"SUNGAI MERAH","postal_code":"37482"},{"id":"1503030012","district_id":"1503030","name":"PENEGAH","postal_code":"37482"},{"id":"1503030013","district_id":"1503030","name":"PULAU ARO","postal_code":"37482"},{"id":"1503030014","district_id":"1503030","name":"BUKIT","postal_code":"37482"},{"id":"1503030015","district_id":"1503030","name":"LUBUK SEPUH","postal_code":"37482"},{"id":"1503030016","district_id":"1503030","name":"MUARA DANAU","postal_code":"36554"},{"id":"1503030017","district_id":"1503030","name":"RANTAU TENANG","postal_code":"31453"},{"id":"1503030018","district_id":"1503030","name":"MEKARSARI","postal_code":"46156"},{"id":"1503030019","district_id":"1503030","name":"PASARPELAWAN","postal_code":"62284"},{"id":"1503030020","district_id":"1503030","name":"PELAWAN JAYA","postal_code":"37482"},{"id":"1503030021","district_id":"1503030","name":"LUBUKSAYAK","postal_code":"27777"}]