[{"id":"1503010001","district_id":"1503010","name":"SIMPANG NARSO","postal_code":"37485"},{"id":"1503010002","district_id":"1503010","name":"BATU EMPANG","postal_code":"37485"},{"id":"1503010003","district_id":"1503010","name":"BATIN PENGAMBANG","postal_code":"24582"},{"id":"1503010004","district_id":"1503010","name":"MUARA AIR DUA","postal_code":"76282"},{"id":"1503010005","district_id":"1503010","name":"SUNGAI KERADAK","postal_code":"37485"},{"id":"1503010006","district_id":"1503010","name":"TAMBAK RATU","postal_code":"37485"},{"id":"1503010007","district_id":"1503010","name":"RANTAU PANJANG","postal_code":"24782"},{"id":"1503010008","district_id":"1503010","name":"PEKAN GEDANG","postal_code":"37485"},{"id":"1503010009","district_id":"1503010","name":"PULAU SALAK BARU","postal_code":"37485"},{"id":"1503010010","district_id":"1503010","name":"BUKIT KALIMAU ULU","postal_code":"37485"},{"id":"1503010011","district_id":"1503010","name":"RADEN ANOM","postal_code":"37485"},{"id":"1503010012","district_id":"1503010","name":"DATUK NAN DUO","postal_code":"37485"},{"id":"1503010013","district_id":"1503010","name":"PADANG JERING","postal_code":"37485"},{"id":"1503010014","district_id":"1503010","name":"KASIRO","postal_code":"37485"},{"id":"1503010015","district_id":"1503010","name":"KASIRO ILIR","postal_code":"37485"},{"id":"1503010016","district_id":"1503010","name":"SUNGAI BEMBAN","postal_code":"37485"},{"id":"1503010017","district_id":"1503010","name":"SUNGAI BAUNG","postal_code":"36553"},{"id":"1503010018","district_id":"1503010","name":"MUARA CUBAN","postal_code":"42314"},{"id":"1503010019","district_id":"1503010","name":"LUBUK BANGKAR","postal_code":"37485"},{"id":"1503010020","district_id":"1503010","name":"MUARA PEMUAT","postal_code":"75558"},{"id":"1503010021","district_id":"1503010","name":"BUKITSULAH","postal_code":"37173"},{"id":"1503010022","district_id":"1503010","name":"PANIBAN BARU","postal_code":"37485"},{"id":"1503010023","district_id":"1503010","name":"BUKIT BERANTAI","postal_code":"37485"}]