[{"id":"1503041001","district_id":"1503041","name":"TANJUNG GAGAK","postal_code":"37481"},{"id":"1503041002","district_id":"1503041","name":"RANTAU GEDANG","postal_code":"37481"},{"id":"1503041003","district_id":"1503041","name":"PULAU BUAYO","postal_code":"37481"},{"id":"1503041004","district_id":"1503041","name":"BATU PENYABUNG","postal_code":"37481"},{"id":"1503041005","district_id":"1503041","name":"TELUK KECIMBUNG","postal_code":"37255"},{"id":"1503041006","district_id":"1503041","name":"DUSUN DALAM","postal_code":"37481"},{"id":"1503041007","district_id":"1503041","name":"PULAU LINTANG","postal_code":"37481"},{"id":"1503041008","district_id":"1503041","name":"PENARUN","postal_code":"37481"},{"id":"1503041009","district_id":"1503041","name":"PULAU MALAKO","postal_code":"38764"},{"id":"1503041010","district_id":"1503041","name":"TANJUNG","postal_code":"57697"},{"id":"1503041011","district_id":"1503041","name":"LIMBUR TEMBESI","postal_code":"37481"},{"id":"1503041012","district_id":"1503041","name":"BANGUN JAYO","postal_code":"37481"},{"id":"1503041023","district_id":"1503041","name":"MUARALATI","postal_code":"37481"},{"id":"1503041024","district_id":"1503041","name":"TELUK MANCUR","postal_code":"37481"},{"id":"1503041025","district_id":"1503041","name":"SUKAJADI","postal_code":"34765"}]