[{"id":"1503060001","district_id":"1503060","name":"GURUN MUDO","postal_code":"37492"},{"id":"1503060002","district_id":"1503060","name":"GURUN TUO","postal_code":"37492"},{"id":"1503060003","district_id":"1503060","name":"SIMPANG GURUN TUO","postal_code":"37492"},{"id":"1503060004","district_id":"1503060","name":"PEMUSIRAN","postal_code":"36771"},{"id":"1503060005","district_id":"1503060","name":"RANGKILING SIMPANG","postal_code":"37492"},{"id":"1503060006","district_id":"1503060","name":"RANGKILING","postal_code":"37492"},{"id":"1503060007","district_id":"1503060","name":"MANDIANGIN TUO","postal_code":"37492"},{"id":"1503060008","district_id":"1503060","name":"MANDIANGIN","postal_code":"37492"},{"id":"1503060009","district_id":"1503060","name":"DESA TAMAN DEWA","postal_code":"38382"},{"id":"1503060010","district_id":"1503060","name":"SIMPANG KERTOPATI","postal_code":"37492"},{"id":"1503060011","district_id":"1503060","name":"KERTO PATI","postal_code":"37492"},{"id":"1503060012","district_id":"1503060","name":"MUARA KETALO","postal_code":"37572"},{"id":"1503060013","district_id":"1503060","name":"BUKIT PERANGINAN","postal_code":"37492"},{"id":"1503060014","district_id":"1503060","name":"PETIDURAN BARU","postal_code":"37492"},{"id":"1503060015","district_id":"1503060","name":"GURUH BARU","postal_code":"37492"},{"id":"1503060016","district_id":"1503060","name":"SUNGAI BUTANG","postal_code":"37492"},{"id":"1503060017","district_id":"1503060","name":"BUTANG BARU","postal_code":"37492"},{"id":"1503060018","district_id":"1503060","name":"MERANTIH BARU","postal_code":"22384"},{"id":"1503060019","district_id":"1503060","name":"JATI BARU","postal_code":"28763"},{"id":"1503060020","district_id":"1503060","name":"TALANG SERDANG","postal_code":"37492"},{"id":"1503060021","district_id":"1503060","name":"GURUN BARU","postal_code":"27261"},{"id":"1503060022","district_id":"1503060","name":"MANDIANGIN PASAR","postal_code":"37492"},{"id":"1503060023","district_id":"1503060","name":"KUTE JAYE","postal_code":"37492"},{"id":"1503060024","district_id":"1503060","name":"SUNGAI ROTAN","postal_code":"30661"},{"id":"1503060025","district_id":"1503060","name":"SUKA MAJU","postal_code":"37553"},{"id":"1503060026","district_id":"1503060","name":"MERANTI JAYA","postal_code":"37492"},{"id":"1503060027","district_id":"1503060","name":"JERNANG BARU","postal_code":"37492"},{"id":"1503060028","district_id":"1503060","name":"JATI BARU MUDO","postal_code":"37492"}]