[{"id":"1505050003","district_id":"1505050","name":"SUNGAI BERTAM","postal_code":"36361"},{"id":"1505050004","district_id":"1505050","name":"MUHAJIRIN","postal_code":"97713"},{"id":"1505050005","district_id":"1505050","name":"MARO SEBO","postal_code":"36382"},{"id":"1505050006","district_id":"1505050","name":"KELURAHAN PIJOAN","postal_code":"50663"},{"id":"1505050007","district_id":"1505050","name":"MUARA PIJOAN","postal_code":"76283"},{"id":"1505050008","district_id":"1505050","name":"SIMPANG SUNGAI DUREN","postal_code":"26253"},{"id":"1505050009","district_id":"1505050","name":"MENDALO DARAT","postal_code":"36361"},{"id":"1505050010","district_id":"1505050","name":"SUNGAI DUREN","postal_code":"36361"},{"id":"1505050011","district_id":"1505050","name":"MENDALO LAUT","postal_code":"36361"},{"id":"1505050012","district_id":"1505050","name":"PENYENGAT OLAK","postal_code":"36361"},{"id":"1505050013","district_id":"1505050","name":"SEMBUBUK","postal_code":"36361"},{"id":"1505050014","district_id":"1505050","name":"SARANG BURUNG","postal_code":"36361"},{"id":"1505050015","district_id":"1505050","name":"PEMATANG JERING","postal_code":"36361"},{"id":"1505050016","district_id":"1505050","name":"RENGAS BANDUNG","postal_code":"36361"},{"id":"1505050017","district_id":"1505050","name":"SENAUNG","postal_code":"36361"},{"id":"1505050018","district_id":"1505050","name":"KEDEMANGAN","postal_code":"24561"},{"id":"1505050019","district_id":"1505050","name":"DANAU SARANG ELANG","postal_code":"36361"},{"id":"1505050020","district_id":"1505050","name":"SIMPANG LIMO","postal_code":"36361"},{"id":"1505050021","district_id":"1505050","name":"PEMATANG GAJAH","postal_code":"36361"},{"id":"1505050022","district_id":"1505050","name":"MENDALO INDAH","postal_code":"36361"}]