[{"id":"1508021001","district_id":"1508021","name":"TAMBUN ARANG","postal_code":"37572"},{"id":"1508021002","district_id":"1508021","name":"JATI BELARIK","postal_code":"37573"},{"id":"1508021003","district_id":"1508021","name":"PUNTIKALO","postal_code":"37573"},{"id":"1508021004","district_id":"1508021","name":"LEMBAK BUNGUR","postal_code":"37573"},{"id":"1508021005","district_id":"1508021","name":"TELUK SINGKAWANG","postal_code":"37573"},{"id":"1508021006","district_id":"1508021","name":"TERITI","postal_code":"37573"},{"id":"1508021007","district_id":"1508021","name":"DUSUN TUO SUMAY","postal_code":"29561"},{"id":"1508021008","district_id":"1508021","name":"TELUK LANGKAP","postal_code":"37573"},{"id":"1508021009","district_id":"1508021","name":"SUO SUO","postal_code":"37573"},{"id":"1508021010","district_id":"1508021","name":"MUARA SEKALO","postal_code":"37573"},{"id":"1508021011","district_id":"1508021","name":"SEMAMBU","postal_code":"38764"},{"id":"1508021012","district_id":"1508021","name":"PEMAYONGAN","postal_code":"78758"}]