[{"id":"1509041001","district_id":"1509041","name":"EMBACANG GEDANG","postal_code":"37572"},{"id":"1509041002","district_id":"1509041","name":"SUNGAI MANCUR","postal_code":"37361"},{"id":"1509041003","district_id":"1509041","name":"TANAH PERIUK","postal_code":"76251"},{"id":"1509041004","district_id":"1509041","name":"LUBUK LANDAI","postal_code":"37263"},{"id":"1509041005","district_id":"1509041","name":"PEMATANG PANJANG","postal_code":"27553"},{"id":"1509041006","district_id":"1509041","name":"TEBING TINGGI","postal_code":"37571"},{"id":"1509041007","district_id":"1509041","name":"RANTAU EMBACANG","postal_code":"37263"},{"id":"1509041008","district_id":"1509041","name":"PAKU AJI","postal_code":"37263"},{"id":"1509041009","district_id":"1509041","name":"SUNGAI PURI","postal_code":"37263"},{"id":"1509041010","district_id":"1509041","name":"SUNGAI LILIN","postal_code":"30755"},{"id":"1509041011","district_id":"1509041","name":"SUNGAI TEMBANG","postal_code":"37263"},{"id":"1509041012","district_id":"1509041","name":"RANTAU MAKMUR","postal_code":"36572"}]