[{"id":"1509010001","district_id":"1509010","name":"BATU KERBAU","postal_code":"37262"},{"id":"1509010003","district_id":"1509010","name":"BARU PELEPAT","postal_code":"37262"},{"id":"1509010004","district_id":"1509010","name":"RANTEL","postal_code":"37262"},{"id":"1509010005","district_id":"1509010","name":"BALAI JAYA","postal_code":"28992"},{"id":"1509010006","district_id":"1509010","name":"SUNGAI BERINGIN","postal_code":"26251"},{"id":"1509010007","district_id":"1509010","name":"RANTAU KELOYANG","postal_code":"37262"},{"id":"1509010008","district_id":"1509010","name":"DWI KARYA BAKTI","postal_code":"37262"},{"id":"1509010009","district_id":"1509010","name":"MULIA JAYA","postal_code":"32185"},{"id":"1509010010","district_id":"1509010","name":"GAPURA SUCI","postal_code":"37262"},{"id":"1509010011","district_id":"1509010","name":"MULIA BAKTI","postal_code":"31171"},{"id":"1509010012","district_id":"1509010","name":"CILODANG","postal_code":"37262"},{"id":"1509010029","district_id":"1509010","name":"SUNGAI GURUN","postal_code":"37262"},{"id":"1509010030","district_id":"1509010","name":"SENAMAT","postal_code":"37262"},{"id":"1509010031","district_id":"1509010","name":"SEKAMPIL","postal_code":"37262"},{"id":"1509010032","district_id":"1509010","name":"BUKIT TELAGO","postal_code":"37262"}]