[{"id":"1602050001","district_id":"1602050","name":"ULAK KAPAL","postal_code":"30671"},{"id":"1602050002","district_id":"1602050","name":"TANJUNG MERINDU","postal_code":"30671"},{"id":"1602050003","district_id":"1602050","name":"TANJUNG BARU","postal_code":"35387"},{"id":"1602050004","district_id":"1602050","name":"SERI TANJUNG","postal_code":"30664"},{"id":"1602050005","district_id":"1602050","name":"PENGARAYAN","postal_code":"52192"},{"id":"1602050006","district_id":"1602050","name":"SUKARAMI","postal_code":"30153"},{"id":"1602050012","district_id":"1602050","name":"SUKAMULIA","postal_code":"83652"},{"id":"1602050014","district_id":"1602050","name":"PULAU GEMANTUNG","postal_code":"30671"},{"id":"1602050015","district_id":"1602050","name":"BUMI AGUNG","postal_code":"34763"},{"id":"1602050016","district_id":"1602050","name":"KOTABUMI","postal_code":"30671"},{"id":"1602050017","district_id":"1602050","name":"TANJUNG BERINGIN","postal_code":"39125"},{"id":"1602050018","district_id":"1602050","name":"JUK DADAK","postal_code":"75555"},{"id":"1602050019","district_id":"1602050","name":"ULAK BALAM","postal_code":"30671"},{"id":"1602050020","district_id":"1602050","name":"TANJUNG LAUT","postal_code":"30671"},{"id":"1602050021","district_id":"1602050","name":"TANJUNG LAGA","postal_code":"30671"},{"id":"1602050022","district_id":"1602050","name":"TANJUNG LUBUK","postal_code":"30617"},{"id":"1602050026","district_id":"1602050","name":"JAMBU ILIR","postal_code":"30671"},{"id":"1602050027","district_id":"1602050","name":"ATAR BALAM","postal_code":"27282"},{"id":"1602050028","district_id":"1602050","name":"TANJUNG HARAPAN","postal_code":"34765"},{"id":"1602050029","district_id":"1602050","name":"PULAU GEMANTUNG DARAT","postal_code":"30671"},{"id":"1602050030","district_id":"1602050","name":"PULAU GEMANTUNG ULU","postal_code":"30671"},{"id":"1602050031","district_id":"1602050","name":"PULAU GEMANTUNG ILIR","postal_code":"30671"}]