[{"id":"1603020001","district_id":"1603020","name":"LUBUK NIPIS","postal_code":"31355"},{"id":"1603020002","district_id":"1603020","name":"PADANG BINDU","postal_code":"32278"},{"id":"1603020003","district_id":"1603020","name":"BEDEGUNG","postal_code":"32156"},{"id":"1603020004","district_id":"1603020","name":"INDRAMAYU","postal_code":"31355"},{"id":"1603020005","district_id":"1603020","name":"MUARA MEO","postal_code":"31355"},{"id":"1603020006","district_id":"1603020","name":"PANDAN DULANG","postal_code":"32156"},{"id":"1603020007","district_id":"1603020","name":"SUKA RAJA","postal_code":"30659"},{"id":"1603020008","district_id":"1603020","name":"TANJUNG BARU","postal_code":"35387"},{"id":"1603020009","district_id":"1603020","name":"LAMBUR","postal_code":"36761"},{"id":"1603020010","district_id":"1603020","name":"LEBAK BUDI","postal_code":"31355"},{"id":"1603020011","district_id":"1603020","name":"PANDAN ENIM","postal_code":"31355"},{"id":"1603020012","district_id":"1603020","name":"PADURAKSA","postal_code":"52319"},{"id":"1603020013","district_id":"1603020","name":"EMBAWANG","postal_code":"31355"},{"id":"1603020014","district_id":"1603020","name":"PAGAR DEWA","postal_code":"34693"},{"id":"1603020015","district_id":"1603020","name":"TANJUNG BULAN","postal_code":"34765"},{"id":"1603020016","district_id":"1603020","name":"LESUNG BATU","postal_code":"31656"},{"id":"1603020017","district_id":"1603020","name":"MATAS","postal_code":"31355"},{"id":"1603020018","district_id":"1603020","name":"TANJUNG AGUNG","postal_code":"34762"},{"id":"1603020019","district_id":"1603020","name":"TANJUNG KARANGAN","postal_code":"31355"},{"id":"1603020020","district_id":"1603020","name":"SELEMAN","postal_code":"32156"},{"id":"1603020021","district_id":"1603020","name":"PENYANDINGAN","postal_code":"35379"},{"id":"1603020022","district_id":"1603020","name":"TANJUNG LALANG","postal_code":"30664"},{"id":"1603020023","district_id":"1603020","name":"PULAU PANGGUNG","postal_code":"35679"},{"id":"1603020024","district_id":"1603020","name":"MUARA EMIL","postal_code":"31355"},{"id":"1603020025","district_id":"1603020","name":"SUGIH WARAS","postal_code":"61271"},{"id":"1603020026","district_id":"1603020","name":"PAGAR JATI","postal_code":"31355"}]