[{"id":"1603031001","district_id":"1603031","name":"MARGA MULIA","postal_code":"38764"},{"id":"1603031002","district_id":"1603031","name":"SUMBER RAHAYU","postal_code":"32383"},{"id":"1603031003","district_id":"1603031","name":"KENCANA MULIA","postal_code":"31173"},{"id":"1603031004","district_id":"1603031","name":"SUGIH WARAS","postal_code":"61271"},{"id":"1603031005","district_id":"1603031","name":"PAGAR AGUNG","postal_code":"38883"},{"id":"1603031006","district_id":"1603031","name":"TANJUNG RAYA","postal_code":"34767"},{"id":"1603031007","district_id":"1603031","name":"TANJUNG DALAM","postal_code":"34767"},{"id":"1603031008","district_id":"1603031","name":"SUKARAMI","postal_code":"30153"},{"id":"1603031009","district_id":"1603031","name":"SUGIHAN","postal_code":"57692"},{"id":"1603031010","district_id":"1603031","name":"NEGERI AGUNG","postal_code":"34769"},{"id":"1603031011","district_id":"1603031","name":"BARU RAMBANG","postal_code":"31173"},{"id":"1603031012","district_id":"1603031","name":"AIR KERUH","postal_code":"38886"},{"id":"1603031013","district_id":"1603031","name":"SUGIH WARAS BARAT","postal_code":"61271"}]