[{"id":"1604120026","district_id":"1604120","name":"PAGAR AGUNG","postal_code":"38883"},{"id":"1604120027","district_id":"1604120","name":"PAGAR SARI","postal_code":"31419"},{"id":"1604120028","district_id":"1604120","name":"PAGAR NEGARA","postal_code":"31419"},{"id":"1604120029","district_id":"1604120","name":"KOTA BARU","postal_code":"34769"},{"id":"1604120030","district_id":"1604120","name":"BANDAR AGUNG","postal_code":"34766"},{"id":"1604120031","district_id":"1604120","name":"PASAR LAMA","postal_code":"32115"},{"id":"1604120033","district_id":"1604120","name":"RD. PJKA LAHAT","postal_code":"31419"},{"id":"1604120034","district_id":"1604120","name":"GUNUNG GAJAH","postal_code":"31418"},{"id":"1604120035","district_id":"1604120","name":"LAHAT TENGAH","postal_code":"31419"},{"id":"1604120036","district_id":"1604120","name":"SUKANEGARA","postal_code":"42192"},{"id":"1604120037","district_id":"1604120","name":"SELAWI","postal_code":"31419"},{"id":"1604120039","district_id":"1604120","name":"PASAR BARU","postal_code":"20627"},{"id":"1604120040","district_id":"1604120","name":"PASAR BAWAH","postal_code":"31412"},{"id":"1604120043","district_id":"1604120","name":"KOTA JAYA","postal_code":"31412"},{"id":"1604120044","district_id":"1604120","name":"KOTA NEGARA","postal_code":"32366"},{"id":"1604120045","district_id":"1604120","name":"RD. PJKA BANDAR AGUNG","postal_code":"31419"},{"id":"1604120049","district_id":"1604120","name":"MANGGUL","postal_code":"31419"},{"id":"1604120050","district_id":"1604120","name":"ULAK LEBAR","postal_code":"32157"},{"id":"1604120051","district_id":"1604120","name":"PADANG LENGKUAS","postal_code":"31419"},{"id":"1604120052","district_id":"1604120","name":"KOTA RAYA","postal_code":"28556"},{"id":"1604120053","district_id":"1604120","name":"KEBAN","postal_code":"31419"},{"id":"1604120054","district_id":"1604120","name":"SENABING","postal_code":"31419"},{"id":"1604120055","district_id":"1604120","name":"MAKARTITAMA","postal_code":"31419"},{"id":"1604120056","district_id":"1604120","name":"ULAK MAS","postal_code":"31419"},{"id":"1604120057","district_id":"1604120","name":"SARI BUNGA MAS","postal_code":"31419"},{"id":"1604120058","district_id":"1604120","name":"GIRIMULIYA","postal_code":"31419"},{"id":"1604120059","district_id":"1604120","name":"BANDAR JAYA","postal_code":"36772"},{"id":"1604120060","district_id":"1604120","name":"TALANG JAWA SELATAN","postal_code":"31416"},{"id":"1604120061","district_id":"1604120","name":"TALANG JAWA UTARA","postal_code":"31416"}]