[{"id":"1604111001","district_id":"1604111","name":"DARMA RAHARJA","postal_code":"31452"},{"id":"1604111002","district_id":"1604111","name":"SUKA BAKTI","postal_code":"15810"},{"id":"1604111003","district_id":"1604111","name":"SIDOMAKMUR","postal_code":"34595"},{"id":"1604111004","district_id":"1604111","name":"SAUNG NAGA","postal_code":"32278"},{"id":"1604111005","district_id":"1604111","name":"PENANTIAN","postal_code":"35679"},{"id":"1604111006","district_id":"1604111","name":"SINGAPURA","postal_code":"32156"},{"id":"1604111007","district_id":"1604111","name":"BABAT BARU","postal_code":"31452"},{"id":"1604111008","district_id":"1604111","name":"ULAK BANDUNG","postal_code":"31351"},{"id":"1604111009","district_id":"1604111","name":"JAJARAN BARU","postal_code":"31657"},{"id":"1604111010","district_id":"1604111","name":"WONOREJO","postal_code":"56361"},{"id":"1604111011","district_id":"1604111","name":"SUKA MERINDU","postal_code":"35377"},{"id":"1604111012","district_id":"1604111","name":"JAJARAN LAMA","postal_code":"31452"},{"id":"1604111013","district_id":"1604111","name":"LUBUK SEKETI","postal_code":"31452"},{"id":"1604111014","district_id":"1604111","name":"SUKARAMI","postal_code":"30153"},{"id":"1604111015","district_id":"1604111","name":"PURWO REJO","postal_code":"31452"},{"id":"1604111016","district_id":"1604111","name":"BANDARJAYA","postal_code":"31452"},{"id":"1604111017","district_id":"1604111","name":"WANARAYA","postal_code":"31452"},{"id":"1604111018","district_id":"1604111","name":"PURNAMASARI","postal_code":"31452"},{"id":"1604111019","district_id":"1604111","name":"MEKAR JAYA","postal_code":"34683"}]