[{"id":"1606030001","district_id":"1606030","name":"JIRAK","postal_code":"71554"},{"id":"1606030002","district_id":"1606030","name":"TALANG MANDUNG","postal_code":"30757"},{"id":"1606030003","district_id":"1606030","name":"SUNGAI DUA","postal_code":"30757"},{"id":"1606030004","district_id":"1606030","name":"SETIA JAYA","postal_code":"30757"},{"id":"1606030005","district_id":"1606030","name":"PAGAR KAYA","postal_code":"30757"},{"id":"1606030006","district_id":"1606030","name":"SUKA LALI","postal_code":"30757"},{"id":"1606030007","district_id":"1606030","name":"KERTAYU","postal_code":"30757"},{"id":"1606030008","district_id":"1606030","name":"SINDANG MARGA","postal_code":"35679"},{"id":"1606030009","district_id":"1606030","name":"TEBING BULANG","postal_code":"30757"},{"id":"1606030010","district_id":"1606030","name":"GAJAH MATI","postal_code":"30681"},{"id":"1606030011","district_id":"1606030","name":"RANTAU SIALANG","postal_code":"30865"},{"id":"1606030012","district_id":"1606030","name":"KERTA JAYA","postal_code":"30757"},{"id":"1606030013","district_id":"1606030","name":"RUKUN RAHAYU","postal_code":"30757"},{"id":"1606030014","district_id":"1606030","name":"MEKARJAYA D.1","postal_code":"46183"},{"id":"1606030015","district_id":"1606030","name":"REJO SARI","postal_code":"37353"},{"id":"1606030016","district_id":"1606030","name":"JEMBATAN GANTUNG","postal_code":"30757"},{"id":"1606030017","district_id":"1606030","name":"BARU JAYA","postal_code":"30757"},{"id":"1606030018","district_id":"1606030","name":"LAYAN","postal_code":"24166"},{"id":"1606030019","district_id":"1606030","name":"KERAMAT JAYA","postal_code":"30757"},{"id":"1606030020","district_id":"1606030","name":"SINAR JAYA","postal_code":"30757"},{"id":"1606030021","district_id":"1606030","name":"TALANG SIMPANG","postal_code":"30757"},{"id":"1606030022","district_id":"1606030","name":"BANGKIT JAYA","postal_code":"30757"}]