[{"id":"1606091001","district_id":"1606091","name":"TENGGARO","postal_code":"30754"},{"id":"1606091002","district_id":"1606091","name":"KELUANG","postal_code":"30754"},{"id":"1606091003","district_id":"1606091","name":"SUMBER AGUNG","postal_code":"34595"},{"id":"1606091004","district_id":"1606091","name":"KARYA MAJU","postal_code":"34767"},{"id":"1606091005","district_id":"1606091","name":"TEGAL MULYA","postal_code":"30754"},{"id":"1606091006","district_id":"1606091","name":"MEKAR JAYA","postal_code":"34683"},{"id":"1606091007","district_id":"1606091","name":"LOKA JAYA","postal_code":"79674"},{"id":"1606091008","district_id":"1606091","name":"DAWAS","postal_code":"30754"},{"id":"1606091009","district_id":"1606091","name":"TANJUNG DALAM","postal_code":"34767"},{"id":"1606091010","district_id":"1606091","name":"CIPTA PRAJA","postal_code":"30754"},{"id":"1606091011","district_id":"1606091","name":"MEKARSARI","postal_code":"46156"},{"id":"1606091012","district_id":"1606091","name":"MULYO ASIH","postal_code":"30754"},{"id":"1606091013","district_id":"1606091","name":"SIDO REJO","postal_code":"37553"},{"id":"1606091014","district_id":"1606091","name":"SRIDAMAI","postal_code":"30754"}]