[{"id":"1607030001","district_id":"1607030","name":"TABUAN ASRI (SP VI)","postal_code":"30959"},{"id":"1607030002","district_id":"1607030","name":"TELUK BETUNG","postal_code":"71455"},{"id":"1607030003","district_id":"1607030","name":"BANJARSARI (AIR SENDA IV)","postal_code":"30959"},{"id":"1607030004","district_id":"1607030","name":"BUANA MURTI (AIR SENDA III)","postal_code":"30959"},{"id":"1607030005","district_id":"1607030","name":"TIRTA MULYA (AIR SENDA I)","postal_code":"30656"},{"id":"1607030006","district_id":"1607030","name":"SENDA MUKTI (AIR SENDA II)","postal_code":"30959"},{"id":"1607030007","district_id":"1607030","name":"BUDI ASIH","postal_code":"30959"},{"id":"1607030008","district_id":"1607030","name":"WONOSARI UPT VII PR I","postal_code":"99910"},{"id":"1607030009","district_id":"1607030","name":"MAJATRA UPT VI PR I","postal_code":"30959"},{"id":"1607030010","district_id":"1607030","name":"BUMI REJO","postal_code":"34761"},{"id":"1607030011","district_id":"1607030","name":"SONGO MAKMUR","postal_code":"30959"},{"id":"1607030012","district_id":"1607030","name":"MEKAR SARI UPT XI PR II","postal_code":"21161"},{"id":"1607030013","district_id":"1607030","name":"SUMBER MUKTI","postal_code":"74161"},{"id":"1607030014","district_id":"1607030","name":"WONODADI","postal_code":"57664"},{"id":"1607030015","district_id":"1607030","name":"RUKUN MAKMUR","postal_code":"30959"},{"id":"1607030016","district_id":"1607030","name":"WANA MUKTI","postal_code":"30959"},{"id":"1607030017","district_id":"1607030","name":"SUMBER MULYA","postal_code":"30681"},{"id":"1607030018","district_id":"1607030","name":"RAWA BANDA","postal_code":"30959"},{"id":"1607030019","district_id":"1607030","name":"SUMBER AGUNG","postal_code":"34595"},{"id":"1607030020","district_id":"1607030","name":"KELAPA DUA","postal_code":"15810"},{"id":"1607030021","district_id":"1607030","name":"SUMBER REJO","postal_code":"34388"},{"id":"1607030022","district_id":"1607030","name":"NUNGGAL SARI","postal_code":"30959"},{"id":"1607030023","district_id":"1607030","name":"DANA MULYA","postal_code":"30959"},{"id":"1607030024","district_id":"1607030","name":"SUMBER REJEKI","postal_code":"34769"},{"id":"1607030025","district_id":"1607030","name":"PURWODADI","postal_code":"56261"},{"id":"1607030026","district_id":"1607030","name":"KARANG MANUNGGAL","postal_code":"30959"},{"id":"1607030027","district_id":"1607030","name":"RINGIN HARJO","postal_code":"30959"},{"id":"1607030028","district_id":"1607030","name":"PENUGUAN","postal_code":"30959"},{"id":"1607030029","district_id":"1607030","name":"MUKUT","postal_code":"73852"}]