[{"id":"1607080003","district_id":"1607080","name":"MUARA PADANG","postal_code":"30975"},{"id":"1607080009","district_id":"1607080","name":"KARANG ANYAR","postal_code":"56365"},{"id":"1607080010","district_id":"1607080","name":"TANJUNG BARU","postal_code":"35387"},{"id":"1607080011","district_id":"1607080","name":"SUMBER SARI\/MARGO MULYO","postal_code":"29255"},{"id":"1607080012","district_id":"1607080","name":"PURWODADI","postal_code":"56261"},{"id":"1607080013","district_id":"1607080","name":"SUMBER MAKMUR","postal_code":"34682"},{"id":"1607080014","district_id":"1607080","name":"UPT V JALUR 18\/ SIDOMULYO","postal_code":"39265"},{"id":"1607080015","district_id":"1607080","name":"AIR GADING","postal_code":"32121"},{"id":"1607080016","district_id":"1607080","name":"TIRTO RAHARJO","postal_code":"30975"},{"id":"1607080017","district_id":"1607080","name":"MARGA SUGIHAN","postal_code":"30975"},{"id":"1607080018","district_id":"1607080","name":"SIDOREJO","postal_code":"56361"},{"id":"1607080019","district_id":"1607080","name":"SIDOMULYO","postal_code":"66262"},{"id":"1607080020","district_id":"1607080","name":"DAYA MAKMUR","postal_code":"30975"},{"id":"1607080021","district_id":"1607080","name":"DAYA UTAMA","postal_code":"34594"},{"id":"1607080022","district_id":"1607080","name":"TIRTA JAYA","postal_code":"70815"}]