[{"id":"1607110001","district_id":"1607110","name":"MUKTI JAYA","postal_code":"78571"},{"id":"1607110002","district_id":"1607110","name":"MEKAR SARI (UPT XII)","postal_code":"15129"},{"id":"1607110003","district_id":"1607110","name":"TELANG JAYA","postal_code":"30974"},{"id":"1607110004","district_id":"1607110","name":"TELANG MAKMUR","postal_code":"30974"},{"id":"1607110005","district_id":"1607110","name":"SUMBER HIDUP","postal_code":"30672"},{"id":"1607110006","district_id":"1607110","name":"TELANG REJO","postal_code":"30974"},{"id":"1607110007","district_id":"1607110","name":"TELANG KARYA","postal_code":"30974"},{"id":"1607110012","district_id":"1607110","name":"SUMBER MULYA","postal_code":"30681"},{"id":"1607110013","district_id":"1607110","name":"MARGA RAHAYU","postal_code":"34698"},{"id":"1607110018","district_id":"1607110","name":"PANCA MUKTI","postal_code":"28992"},{"id":"1607110023","district_id":"1607110","name":"MEKAR MUKTI","postal_code":"43175"},{"id":"1607110024","district_id":"1607110","name":"TALANG INDAH","postal_code":"38511"},{"id":"1607110025","district_id":"1607110","name":"UPANG JAYA","postal_code":"30974"},{"id":"1607110026","district_id":"1607110","name":"UPANG CERIA","postal_code":"30974"},{"id":"1607110027","district_id":"1607110","name":"UPANG CEMARA","postal_code":"30974"},{"id":"1607110028","district_id":"1607110","name":"UPANG KARYA","postal_code":"30974"}]