[{"id":"1607010001","district_id":"1607010","name":"MUARA ABAB","postal_code":"30968"},{"id":"1607010002","district_id":"1607010","name":"PELDAS","postal_code":"30968"},{"id":"1607010003","district_id":"1607010","name":"TANJUNG PASIR","postal_code":"36555"},{"id":"1607010004","district_id":"1607010","name":"TANJUNG TIGA","postal_code":"34767"},{"id":"1607010005","district_id":"1607010","name":"RANTAU BAYUR","postal_code":"37371"},{"id":"1607010006","district_id":"1607010","name":"TEBING ABANG","postal_code":"31356"},{"id":"1607010007","district_id":"1607010","name":"PAGAR BULAN","postal_code":"30968"},{"id":"1607010008","district_id":"1607010","name":"LUBUK RENGAS","postal_code":"30968"},{"id":"1607010009","district_id":"1607010","name":"LEBUNG","postal_code":"30968"},{"id":"1607010010","district_id":"1607010","name":"KEMANG BEJALU","postal_code":"30968"},{"id":"1607010011","district_id":"1607010","name":"TANJUNG MENANG MUSI","postal_code":"30968"},{"id":"1607010012","district_id":"1607010","name":"SRI JAYA","postal_code":"34554"},{"id":"1607010013","district_id":"1607010","name":"SEJAGUNG","postal_code":"30968"},{"id":"1607010014","district_id":"1607010","name":"SUNGAI PINANG","postal_code":"25654"},{"id":"1607010015","district_id":"1607010","name":"SEMUNTUL","postal_code":"30968"},{"id":"1607010016","district_id":"1607010","name":"TALANG KEMANG","postal_code":"38875"},{"id":"1607010017","district_id":"1607010","name":"RANTAU HARAPAN","postal_code":"30968"},{"id":"1607010018","district_id":"1607010","name":"SUNGAI LILIN","postal_code":"30755"},{"id":"1607010019","district_id":"1607010","name":"SUKA RELA","postal_code":"73593"},{"id":"1607010020","district_id":"1607010","name":"PENANDINGAN","postal_code":"31357"},{"id":"1607010021","district_id":"1607010","name":"SUNGAI NAIK","postal_code":"31652"}]