[{"id":"1608022001","district_id":"1608022","name":"TANJUNG KEMALA","postal_code":"35675"},{"id":"1608022002","district_id":"1608022","name":"SUKAMARGA","postal_code":"34876"},{"id":"1608022003","district_id":"1608022","name":"SUBIK","postal_code":"32274"},{"id":"1608022004","district_id":"1608022","name":"JEPARA","postal_code":"60171"},{"id":"1608022005","district_id":"1608022","name":"HANGKUSA","postal_code":"95858"},{"id":"1608022006","district_id":"1608022","name":"SUKARAMI","postal_code":"30153"},{"id":"1608022007","district_id":"1608022","name":"SIMPANG SENDER","postal_code":"32274"},{"id":"1608022008","district_id":"1608022","name":"SUMBER MULIA","postal_code":"70815"},{"id":"1608022009","district_id":"1608022","name":"TANJUNG SETIA","postal_code":"34875"},{"id":"1608022010","district_id":"1608022","name":"GEDUNG BARU","postal_code":"34596"},{"id":"1608022011","district_id":"1608022","name":"PADANG RATU","postal_code":"35613"},{"id":"1608022012","district_id":"1608022","name":"TANJUNG SARI","postal_code":"34764"},{"id":"1608022013","district_id":"1608022","name":"SUKABUMI","postal_code":"34762"},{"id":"1608022014","district_id":"1608022","name":"WAY RELAI","postal_code":"32274"},{"id":"1608022015","district_id":"1608022","name":"TANJUNG BARU RANAU","postal_code":"30664"},{"id":"1608022016","district_id":"1608022","name":"SIMPANG SENDER UTARA","postal_code":"32274"},{"id":"1608022017","district_id":"1608022","name":"SIMPANG SENDER SELATAN","postal_code":"32274"},{"id":"1608022018","district_id":"1608022","name":"SIMPANG SENDER TIMUR","postal_code":"32274"},{"id":"1608022019","district_id":"1608022","name":"SIMPANG SENDER TENGAH","postal_code":"32274"},{"id":"1608022020","district_id":"1608022","name":"SUMBER JAYA","postal_code":"34683"},{"id":"1608022021","district_id":"1608022","name":"PAKHDA SUKA","postal_code":"32274"},{"id":"1608022022","district_id":"1608022","name":"SERUMPUN JAYA","postal_code":"32274"}]