[{"id":"1608020020","district_id":"1608020","name":"WAY TIMAH","postal_code":"32274"},{"id":"1608020021","district_id":"1608020","name":"SIPATUHU","postal_code":"32274"},{"id":"1608020022","district_id":"1608020","name":"AIR RUPIK","postal_code":"32274"},{"id":"1608020023","district_id":"1608020","name":"BANDING AGUNG","postal_code":"35377"},{"id":"1608020024","district_id":"1608020","name":"SURABAYA","postal_code":"32366"},{"id":"1608020025","district_id":"1608020","name":"BANDAR AGUNG RANAU","postal_code":"32274"},{"id":"1608020026","district_id":"1608020","name":"SUGIH WARAS","postal_code":"61271"},{"id":"1608020027","district_id":"1608020","name":"SUKA NEGERI","postal_code":"34768"},{"id":"1608020028","district_id":"1608020","name":"RANTAU NIPIS","postal_code":"32274"},{"id":"1608020033","district_id":"1608020","name":"MERBAU","postal_code":"36764"},{"id":"1608020034","district_id":"1608020","name":"TANJUNG AGUNG","postal_code":"34762"},{"id":"1608020035","district_id":"1608020","name":"TELANAI","postal_code":"32274"},{"id":"1608020036","district_id":"1608020","name":"TANJUNG HARAPAN","postal_code":"34765"},{"id":"1608020037","district_id":"1608020","name":"SIDODADI","postal_code":"34595"},{"id":"1608020038","district_id":"1608020","name":"SIPATUHU DUA","postal_code":"32274"},{"id":"1608020039","district_id":"1608020","name":"PENANTIAN","postal_code":"35679"},{"id":"1608020040","district_id":"1608020","name":"SUKAMAJU","postal_code":"34763"},{"id":"1608020041","district_id":"1608020","name":"TANGSI AGUNG","postal_code":"32274"},{"id":"1608020042","district_id":"1608020","name":"SUMBER MAKMUR","postal_code":"34682"},{"id":"1608020043","district_id":"1608020","name":"KARANG INDAH","postal_code":"72275"},{"id":"1608020044","district_id":"1608020","name":"TERAP MULIA","postal_code":"32274"},{"id":"1608020045","district_id":"1608020","name":"SURABAYA TIMUR","postal_code":"32274"}]