[{"id":"1608010001","district_id":"1608010","name":"KOTA DALAM","postal_code":"32276"},{"id":"1608010002","district_id":"1608010","name":"TELUK AGUNG","postal_code":"32276"},{"id":"1608010003","district_id":"1608010","name":"TANJUNG BESAR","postal_code":"32276"},{"id":"1608010004","district_id":"1608010","name":"PULAU DUKU","postal_code":"32276"},{"id":"1608010005","district_id":"1608010","name":"SINAR MARGA","postal_code":"32276"},{"id":"1608010006","district_id":"1608010","name":"KOTA BARU","postal_code":"34769"},{"id":"1608010007","district_id":"1608010","name":"GALANG TINGGI","postal_code":"32276"},{"id":"1608010008","district_id":"1608010","name":"SUKARAJA","postal_code":"46183"},{"id":"1608010009","district_id":"1608010","name":"SRIMENANTI","postal_code":"33214"},{"id":"1608010010","district_id":"1608010","name":"KEPAYANG","postal_code":"71161"},{"id":"1608010011","district_id":"1608010","name":"KEMANG BANDUNG","postal_code":"32276"},{"id":"1608010012","district_id":"1608010","name":"SELABUNG BELIMBING JAYA","postal_code":"32276"},{"id":"1608010013","district_id":"1608010","name":"AIR BARU","postal_code":"32276"},{"id":"1608010014","district_id":"1608010","name":"BUNUT","postal_code":"62383"},{"id":"1608010015","district_id":"1608010","name":"PEREAN","postal_code":"82191"}]