[{"id":"1609051001","district_id":"1609051","name":"TUGUMULYO","postal_code":"30657"},{"id":"1609051002","district_id":"1609051","name":"BANGSA NEGARA","postal_code":"32362"},{"id":"1609051003","district_id":"1609051","name":"TUGU HARUM","postal_code":"32362"},{"id":"1609051004","district_id":"1609051","name":"TULUS AYU","postal_code":"32362"},{"id":"1609051005","district_id":"1609051","name":"KARANG BINANGUN","postal_code":"32362"},{"id":"1609051006","district_id":"1609051","name":"JATI MULYO 1","postal_code":"36763"},{"id":"1609051007","district_id":"1609051","name":"PANDAN SARI 1","postal_code":"72211"},{"id":"1609051008","district_id":"1609051","name":"PELITA JAYA","postal_code":"34875"},{"id":"1609051009","district_id":"1609051","name":"MEKAR JAYA","postal_code":"34683"},{"id":"1609051010","district_id":"1609051","name":"LUBUK HARJO","postal_code":"32386"},{"id":"1609051011","district_id":"1609051","name":"TANAH MERAH","postal_code":"98363"},{"id":"1609051012","district_id":"1609051","name":"JOSO WINANGUN","postal_code":"54172"},{"id":"1609051013","district_id":"1609051","name":"RANTAU JAYA","postal_code":"34766"},{"id":"1609051014","district_id":"1609051","name":"TEBING SARI MULYA","postal_code":"32362"},{"id":"1609051015","district_id":"1609051","name":"MARGA CINTA","postal_code":"32362"},{"id":"1609051016","district_id":"1609051","name":"KARANG BINANGUN II","postal_code":"32362"},{"id":"1609051017","district_id":"1609051","name":"BURNAI SARI MULYA","postal_code":"32185"}]