[{"id":"1609080001","district_id":"1609080","name":"SUMBER RAHAYU","postal_code":"32383"},{"id":"1609080002","district_id":"1609080","name":"SRI BANTOLO","postal_code":"32383"},{"id":"1609080003","district_id":"1609080","name":"PURWOSARI","postal_code":"56364"},{"id":"1609080008","district_id":"1609080","name":"TANJUNG KEMUNING","postal_code":"32383"},{"id":"1609080010","district_id":"1609080","name":"MARGO MULYO","postal_code":"34594"},{"id":"1609080011","district_id":"1609080","name":"KARANG MANIK","postal_code":"32383"},{"id":"1609080012","district_id":"1609080","name":"RAMAN JAYA","postal_code":"32383"},{"id":"1609080013","district_id":"1609080","name":"TEGAL SARI","postal_code":"72275"},{"id":"1609080014","district_id":"1609080","name":"SUMBER JAYA","postal_code":"34683"},{"id":"1609080015","district_id":"1609080","name":"SUMBER SARI","postal_code":"34766"},{"id":"1609080016","district_id":"1609080","name":"SUMBER HARAPAN","postal_code":"79462"},{"id":"1609080017","district_id":"1609080","name":"KELI REJO","postal_code":"32383"},{"id":"1609080018","district_id":"1609080","name":"SUMBER REJO","postal_code":"34388"},{"id":"1609080019","district_id":"1609080","name":"TOTO REJO","postal_code":"32383"},{"id":"1609080020","district_id":"1609080","name":"KEMUNING JAYA","postal_code":"32383"},{"id":"1609080021","district_id":"1609080","name":"BANGUN REJO","postal_code":"34681"},{"id":"1609080022","district_id":"1609080","name":"SRIJAYA","postal_code":"30153"},{"id":"1609080023","district_id":"1609080","name":"BATU MAS","postal_code":"32383"},{"id":"1609080024","district_id":"1609080","name":"SUKA JAYA","postal_code":"34683"},{"id":"1609080025","district_id":"1609080","name":"KARANG JAYA","postal_code":"39153"},{"id":"1609080026","district_id":"1609080","name":"DARMA BUANA","postal_code":"32383"},{"id":"1609080027","district_id":"1609080","name":"TEGAL BESAR","postal_code":"32383"},{"id":"1609080028","district_id":"1609080","name":"REJO MULYO","postal_code":"32383"},{"id":"1609080029","district_id":"1609080","name":"PURWOREJO","postal_code":"57615"},{"id":"1609080030","district_id":"1609080","name":"SUMBER MAKMUR","postal_code":"34682"},{"id":"1609080031","district_id":"1609080","name":"BUDI LUHUR","postal_code":"35361"},{"id":"1609080032","district_id":"1609080","name":"MARGO MULYO MAKMUR","postal_code":"30975"}]