[{"id":"1609010008","district_id":"1609010","name":"TANJUNG KEMALA","postal_code":"35675"},{"id":"1609010009","district_id":"1609010","name":"KOTA BARU","postal_code":"34769"},{"id":"1609010010","district_id":"1609010","name":"PASAR MARTAPURA","postal_code":"32312"},{"id":"1609010011","district_id":"1609010","name":"PAKU SENGKUNYIT","postal_code":"32314"},{"id":"1609010012","district_id":"1609010","name":"DUSUN MARTAPURA","postal_code":"32313"},{"id":"1609010013","district_id":"1609010","name":"KEROMONGAN","postal_code":"32381"},{"id":"1609010014","district_id":"1609010","name":"PERJAYA","postal_code":"32381"},{"id":"1609010021","district_id":"1609010","name":"KOTA BARU BARAT","postal_code":"32315"},{"id":"1609010022","district_id":"1609010","name":"SUKOMULYO","postal_code":"67281"},{"id":"1609010023","district_id":"1609010","name":"KOTA BARU SELATAN","postal_code":"32315"},{"id":"1609010024","district_id":"1609010","name":"SUNGAI TUHA JAYA","postal_code":"32315"},{"id":"1609010025","district_id":"1609010","name":"TERUKIS RAHAYU","postal_code":"32315"},{"id":"1609010026","district_id":"1609010","name":"BUKIT SARI","postal_code":"33123"},{"id":"1609010027","district_id":"1609010","name":"VETERAN JAYA","postal_code":"32315"},{"id":"1609010028","district_id":"1609010","name":"PERJAYA BARAT","postal_code":"32381"},{"id":"1609010029","district_id":"1609010","name":"TANJUNG KEMALA BARAT","postal_code":"32315"}]