[{"id":"1609101001","district_id":"1609101","name":"TANJUNG KUKUH","postal_code":"32184"},{"id":"1609101002","district_id":"1609101","name":"BETUNG","postal_code":"35382"},{"id":"1609101003","district_id":"1609101","name":"TANJUNG MAS","postal_code":"32184"},{"id":"1609101004","district_id":"1609101","name":"MENANGA BESAR","postal_code":"32184"},{"id":"1609101005","district_id":"1609101","name":"MENANGA TENGAH","postal_code":"32184"},{"id":"1609101006","district_id":"1609101","name":"KANGKUNG","postal_code":"32184"},{"id":"1609101007","district_id":"1609101","name":"ADU MANIS","postal_code":"32184"},{"id":"1609101008","district_id":"1609101","name":"SUKA NEGERI","postal_code":"34768"},{"id":"1609101009","district_id":"1609101","name":"SRI TANJUNG","postal_code":"32184"},{"id":"1609101010","district_id":"1609101","name":"KANGKUNG ILIR","postal_code":"32184"},{"id":"1609101011","district_id":"1609101","name":"BETUNG TIMUR","postal_code":"32184"},{"id":"1609101012","district_id":"1609101","name":"MENANGA SARI","postal_code":"32184"},{"id":"1609101013","district_id":"1609101","name":"TANJUNG JAYA","postal_code":"32265"}]