[{"id":"1610062001","district_id":"1610062","name":"TANJUNG DAYANG SELATAN","postal_code":"30862"},{"id":"1610062002","district_id":"1610062","name":"MANDI  ANGIN","postal_code":"85761"},{"id":"1610062003","district_id":"1610062","name":"SUKARAJA BARU","postal_code":"30862"},{"id":"1610062004","district_id":"1610062","name":"SUKARAJA LAMA","postal_code":"30862"},{"id":"1610062005","district_id":"1610062","name":"TANJUNG LUBUK","postal_code":"30617"},{"id":"1610062006","district_id":"1610062","name":"BETI","postal_code":"30862"},{"id":"1610062007","district_id":"1610062","name":"MERANJAT ILIR","postal_code":"30862"},{"id":"1610062008","district_id":"1610062","name":"MERANJAT II","postal_code":"30862"},{"id":"1610062009","district_id":"1610062","name":"MERANJAT I","postal_code":"30862"},{"id":"1610062010","district_id":"1610062","name":"TEBING GERINTING SELATAN","postal_code":"30862"},{"id":"1610062011","district_id":"1610062","name":"ARISAN GADING","postal_code":"30862"},{"id":"1610062012","district_id":"1610062","name":"MERANJAT III","postal_code":"30862"},{"id":"1610062013","district_id":"1610062","name":"TEBING GERINTING UTARA","postal_code":"30862"},{"id":"1610062014","district_id":"1610062","name":"TANJUNG DAYANG UTARA","postal_code":"30862"}]