[{"id":"1610010004","district_id":"1610010","name":"MUNGGU","postal_code":"63462"},{"id":"1610010005","district_id":"1610010","name":"SERI MENANTI","postal_code":"30865"},{"id":"1610010006","district_id":"1610010","name":"RANTAU SIALANG","postal_code":"30865"},{"id":"1610010007","district_id":"1610010","name":"KUANG ANYAR","postal_code":"30865"},{"id":"1610010009","district_id":"1610010","name":"KASAH","postal_code":"30865"},{"id":"1610010011","district_id":"1610010","name":"MUARA KUANG","postal_code":"30865"},{"id":"1610010012","district_id":"1610010","name":"TANABANG ILIR","postal_code":"94972"},{"id":"1610010013","district_id":"1610010","name":"SERI KEMBANG","postal_code":"30865"},{"id":"1610010014","district_id":"1610010","name":"NAGA SARI","postal_code":"36364"},{"id":"1610010015","district_id":"1610010","name":"SUKA CINTA","postal_code":"30865"},{"id":"1610010016","district_id":"1610010","name":"KELAMPADU","postal_code":"20553"},{"id":"1610010017","district_id":"1610010","name":"SUKAJADI","postal_code":"34765"},{"id":"1610010018","district_id":"1610010","name":"RAMA KASIH","postal_code":"34155"},{"id":"1610010019","district_id":"1610010","name":"TANABANG ULU","postal_code":"30865"}]