[{"id":"1610031001","district_id":"1610031","name":"KUMBANG ULU","postal_code":"30867"},{"id":"1610031002","district_id":"1610031","name":"KUMBANG ILIR","postal_code":"30867"},{"id":"1610031003","district_id":"1610031","name":"TANJUNG ALAI","postal_code":"27356"},{"id":"1610031004","district_id":"1610031","name":"MUARA KUMBANG","postal_code":"30867"},{"id":"1610031005","district_id":"1610031","name":"LUBUK RUKAM","postal_code":"32191"},{"id":"1610031006","district_id":"1610031","name":"PANDAN ARANG","postal_code":"30867"},{"id":"1610031007","district_id":"1610031","name":"KANDIS I","postal_code":"30867"},{"id":"1610031008","district_id":"1610031","name":"SANTAPAN BARAT","postal_code":"30867"},{"id":"1610031009","district_id":"1610031","name":"MIJI","postal_code":"30867"},{"id":"1610031010","district_id":"1610031","name":"SANTAPAN TIMUR","postal_code":"30867"},{"id":"1610031011","district_id":"1610031","name":"KANDIS II","postal_code":"30867"},{"id":"1610031012","district_id":"1610031","name":"LUBUK SEGONANG","postal_code":"30867"}]