[{"id":"1611040001","district_id":"1611040","name":"PENANTIAN","postal_code":"35679"},{"id":"1611040002","district_id":"1611040","name":"TALANG PADANG","postal_code":"35377"},{"id":"1611040003","district_id":"1611040","name":"TANJUNG BERINGIN","postal_code":"39125"},{"id":"1611040004","district_id":"1611040","name":"LAWANG AGUNG","postal_code":"37111"},{"id":"1611040005","district_id":"1611040","name":"PAGAR JATI","postal_code":"31355"},{"id":"1611040006","district_id":"1611040","name":"BANDAR AGUNG","postal_code":"34766"},{"id":"1611040007","district_id":"1611040","name":"KEBAN JATI","postal_code":"38571"},{"id":"1611040008","district_id":"1611040","name":"NANJUNGAN","postal_code":"38873"},{"id":"1611040009","district_id":"1611040","name":"TALANG RANDAI","postal_code":"31595"},{"id":"1611040010","district_id":"1611040","name":"AIR MAYAN","postal_code":"31595"},{"id":"1611040011","district_id":"1611040","name":"PADANG GELAI","postal_code":"31595"},{"id":"1611040012","district_id":"1611040","name":"MUARA RUNGGA","postal_code":"31595"},{"id":"1611040013","district_id":"1611040","name":"PADANG BINDU","postal_code":"32278"},{"id":"1611040014","district_id":"1611040","name":"MUARA SINDANG","postal_code":"32272"},{"id":"1611040015","district_id":"1611040","name":"MUARA AMAN","postal_code":"23891"}]