[{"id":"1611070014","district_id":"1611070","name":"UJUNG ALIH","postal_code":"31453"},{"id":"1611070015","district_id":"1611070","name":"LUBUK GELANGGANG","postal_code":"31453"},{"id":"1611070016","district_id":"1611070","name":"ULAK MENGKUDU","postal_code":"31453"},{"id":"1611070017","district_id":"1611070","name":"BATU PANCE","postal_code":"74456"},{"id":"1611070018","district_id":"1611070","name":"AUR GADING","postal_code":"37481"},{"id":"1611070019","district_id":"1611070","name":"TERUSAN LAMA","postal_code":"31453"},{"id":"1611070020","district_id":"1611070","name":"TERUSAN BARU","postal_code":"31453"},{"id":"1611070021","district_id":"1611070","name":"SEGURING KECIL","postal_code":"31453"},{"id":"1611070022","district_id":"1611070","name":"RANTAU TENANG","postal_code":"31453"},{"id":"1611070023","district_id":"1611070","name":"LAMPAR BARU","postal_code":"31453"},{"id":"1611070024","district_id":"1611070","name":"KEMANG MANIS","postal_code":"36554"},{"id":"1611070025","district_id":"1611070","name":"KUPANG","postal_code":"71113"},{"id":"1611070026","district_id":"1611070","name":"MEKAR JAYA","postal_code":"34683"},{"id":"1611070027","district_id":"1611070","name":"MAKARTI JAYA","postal_code":"96469"},{"id":"1611070028","district_id":"1611070","name":"PANCURMAS UNIT JAYA","postal_code":"31453"},{"id":"1611070029","district_id":"1611070","name":"TANJUNG KUPANG","postal_code":"31453"},{"id":"1611070030","district_id":"1611070","name":"PASAR TEBING TINGGI","postal_code":"31453"},{"id":"1611070031","district_id":"1611070","name":"TANJUNG MAKMUR","postal_code":"36554"},{"id":"1611070032","district_id":"1611070","name":"KELUMPANG JAYA","postal_code":"31667"},{"id":"1611070033","district_id":"1611070","name":"PAJAR BAKTI","postal_code":"23656"},{"id":"1611070034","district_id":"1611070","name":"SUGI WARAS","postal_code":"31453"},{"id":"1611070035","district_id":"1611070","name":"BATU RAJA BARU","postal_code":"31453"},{"id":"1611070036","district_id":"1611070","name":"BATU RAJA LAMA","postal_code":"31453"},{"id":"1611070037","district_id":"1611070","name":"KOTA GADING","postal_code":"31453"},{"id":"1611070047","district_id":"1611070","name":"JAYA LOKA","postal_code":"31453"},{"id":"1611070048","district_id":"1611070","name":"TANJUNG KUPANG BARU","postal_code":"31453"}]