[{"id":"1701045001","district_id":"1701045","name":"LUBUK LADUNG","postal_code":"38553"},{"id":"1701045002","district_id":"1701045","name":"AIR SULAU","postal_code":"38553"},{"id":"1701045003","district_id":"1701045","name":"SUKAJAYA","postal_code":"46151"},{"id":"1701045004","district_id":"1701045","name":"SUKARAJA","postal_code":"46183"},{"id":"1701045005","district_id":"1701045","name":"LIMUS","postal_code":"38553"},{"id":"1701045006","district_id":"1701045","name":"PENINDAIAN","postal_code":"31356"},{"id":"1701045007","district_id":"1701045","name":"PADANG BINDU","postal_code":"32278"},{"id":"1701045008","district_id":"1701045","name":"NANJUNGAN","postal_code":"38873"},{"id":"1701045009","district_id":"1701045","name":"PAGAR BANYU","postal_code":"38886"},{"id":"1701045010","district_id":"1701045","name":"SUKARAMI","postal_code":"30153"},{"id":"1701045011","district_id":"1701045","name":"BETUNGAN","postal_code":"38553"},{"id":"1701045012","district_id":"1701045","name":"KARANG CAYA","postal_code":"31356"}]