[{"id":"1703070001","district_id":"1703070","name":"PASAR LAIS","postal_code":"38653"},{"id":"1703070002","district_id":"1703070","name":"PAL TIGA PULUH","postal_code":"38653"},{"id":"1703070003","district_id":"1703070","name":"JAGO BAYO","postal_code":"38653"},{"id":"1703070004","district_id":"1703070","name":"LUBUK LESUNG","postal_code":"38653"},{"id":"1703070005","district_id":"1703070","name":"DUSUN RAJA","postal_code":"38361"},{"id":"1703070006","district_id":"1703070","name":"DURIAN DAUN","postal_code":"38653"},{"id":"1703070007","district_id":"1703070","name":"AIR PADANG","postal_code":"38653"},{"id":"1703070008","district_id":"1703070","name":"DATAR LEBAR","postal_code":"31355"},{"id":"1703070010","district_id":"1703070","name":"TALANG RASAU","postal_code":"38653"},{"id":"1703070011","district_id":"1703070","name":"LUBUK GEDANG","postal_code":"38767"},{"id":"1703070012","district_id":"1703070","name":"SUKA LANGU","postal_code":"38653"},{"id":"1703070026","district_id":"1703070","name":"TABA BARU","postal_code":"31619"},{"id":"1703070027","district_id":"1703070","name":"KALBANG","postal_code":"38653"}]