[{"id":"1703060010","district_id":"1703060","name":"TALANG DENAU","postal_code":"38611"},{"id":"1703060011","district_id":"1703060","name":"GUNUNG SELAN","postal_code":"21451"},{"id":"1703060012","district_id":"1703060","name":"GUNUNG AGUNG","postal_code":"34683"},{"id":"1703060013","district_id":"1703060","name":"RAMA AGUNG","postal_code":"38614"},{"id":"1703060014","district_id":"1703060","name":"GUNUNG ALAM","postal_code":"39265"},{"id":"1703060015","district_id":"1703060","name":"SIDO URIP","postal_code":"38611"},{"id":"1703060016","district_id":"1703060","name":"DATAR RUYUNG","postal_code":"38617"},{"id":"1703060017","district_id":"1703060","name":"TANJUNG RAMAN","postal_code":"31116"},{"id":"1703060020","district_id":"1703060","name":"LUBUK SAUNG","postal_code":"39373"},{"id":"1703060021","district_id":"1703060","name":"KARANG SUCI","postal_code":"38619"},{"id":"1703060022","district_id":"1703060","name":"PURWODADI","postal_code":"56261"},{"id":"1703060023","district_id":"1703060","name":"KARANG ANYAR II","postal_code":"56365"},{"id":"1703060024","district_id":"1703060","name":"KARANG ANYAR","postal_code":"56365"},{"id":"1703060025","district_id":"1703060","name":"TABA TEMBILANG","postal_code":"38611"},{"id":"1703060026","district_id":"1703060","name":"SENALI","postal_code":"38611"},{"id":"1703060027","district_id":"1703060","name":"KURO TIDUR","postal_code":"38611"}]