[{"id":"1703061001","district_id":"1703061","name":"GARDU","postal_code":"41175"},{"id":"1703061002","district_id":"1703061","name":"PAGAR BANYU","postal_code":"38886"},{"id":"1703061003","district_id":"1703061","name":"PEMATANG SAPANG","postal_code":"38611"},{"id":"1703061004","district_id":"1703061","name":"SUMBER AGUNG","postal_code":"34595"},{"id":"1703061005","district_id":"1703061","name":"SIDODADI","postal_code":"34595"},{"id":"1703061006","district_id":"1703061","name":"GUNUNG BESAR","postal_code":"72213"},{"id":"1703061007","district_id":"1703061","name":"KALI","postal_code":"95996"},{"id":"1703061008","district_id":"1703061","name":"PAGAR RUYUNG","postal_code":"72273"},{"id":"1703061009","district_id":"1703061","name":"AIR MERAH","postal_code":"39125"},{"id":"1703061010","district_id":"1703061","name":"TEBING KANING","postal_code":"38611"},{"id":"1703061011","district_id":"1703061","name":"KEMUMU","postal_code":"38611"},{"id":"1703061012","district_id":"1703061","name":"KALAI DUAI","postal_code":"38611"}]