[{"id":"1703080001","district_id":"1703080","name":"LUBUK BANYAU","postal_code":"38657"},{"id":"1703080002","district_id":"1703080","name":"SIDO MUKTI","postal_code":"34595"},{"id":"1703080003","district_id":"1703080","name":"ARGA MULYA","postal_code":"74162"},{"id":"1703080004","district_id":"1703080","name":"TALANG TUA","postal_code":"38883"},{"id":"1703080005","district_id":"1703080","name":"PADANG JAYA","postal_code":"76281"},{"id":"1703080006","district_id":"1703080","name":"TANJUNG HARAPAN","postal_code":"34765"},{"id":"1703080007","district_id":"1703080","name":"MARGA SAKTI","postal_code":"31663"},{"id":"1703080008","district_id":"1703080","name":"MARGA JAYA","postal_code":"34769"},{"id":"1703080009","district_id":"1703080","name":"TANAH HITAM","postal_code":"79466"},{"id":"1703080010","district_id":"1703080","name":"TAMBAK REJO","postal_code":"55552"},{"id":"1703080011","district_id":"1703080","name":"TANAH TINGGI","postal_code":"97715"},{"id":"1703080012","district_id":"1703080","name":"SIDO LUHUR","postal_code":"38877"}]