[{"id":"1704050010","district_id":"1704050","name":"GEDUNG WANI","postal_code":"32278"},{"id":"1704050011","district_id":"1704050","name":"GERAMAT","postal_code":"31453"},{"id":"1704050012","district_id":"1704050","name":"PENANDINGAN","postal_code":"31357"},{"id":"1704050013","district_id":"1704050","name":"TANJUNG ALAM","postal_code":"27281"},{"id":"1704050014","district_id":"1704050","name":"TANJUNG BARU","postal_code":"35387"},{"id":"1704050015","district_id":"1704050","name":"PENGURUNG","postal_code":"38962"},{"id":"1704050016","district_id":"1704050","name":"PINANG JAWA I","postal_code":"38962"},{"id":"1704050017","district_id":"1704050","name":"GUNUNG TERANG","postal_code":"34683"},{"id":"1704050018","district_id":"1704050","name":"TALANG PADANG","postal_code":"35377"},{"id":"1704050019","district_id":"1704050","name":"GUNUNG MEGANG","postal_code":"35679"},{"id":"1704050020","district_id":"1704050","name":"JAWI","postal_code":"38962"},{"id":"1704050021","district_id":"1704050","name":"TALANG BERANGIN","postal_code":"31453"},{"id":"1704050023","district_id":"1704050","name":"PINANG JAWA II","postal_code":"38962"},{"id":"1704050024","district_id":"1704050","name":"PAPAHAN","postal_code":"38962"}]