[{"id":"1704020001","district_id":"1704020","name":"PARDA SUKA","postal_code":"35686"},{"id":"1704020002","district_id":"1704020","name":"AIR LONG","postal_code":"38965"},{"id":"1704020003","district_id":"1704020","name":"LINAU","postal_code":"29874"},{"id":"1704020004","district_id":"1704020","name":"WAY HAWANG","postal_code":"38965"},{"id":"1704020005","district_id":"1704020","name":"TANJUNG BARU","postal_code":"35387"},{"id":"1704020006","district_id":"1704020","name":"PENYANDINGAN","postal_code":"35379"},{"id":"1704020007","district_id":"1704020","name":"TANJUNG AUR","postal_code":"37554"},{"id":"1704020008","district_id":"1704020","name":"KEDATARAN","postal_code":"38965"},{"id":"1704020009","district_id":"1704020","name":"TANJUNG GANTI","postal_code":"38965"},{"id":"1704020011","district_id":"1704020","name":"BENTENG HARAPAN","postal_code":"38965"},{"id":"1704020012","district_id":"1704020","name":"SUKA MENANTI","postal_code":"34556"},{"id":"1704020013","district_id":"1704020","name":"SINAR MULYA","postal_code":"93393"},{"id":"1704020014","district_id":"1704020","name":"BAKAL MAKMUR","postal_code":"38965"},{"id":"1704020015","district_id":"1704020","name":"MUARA JAYA","postal_code":"37111"},{"id":"1704020016","district_id":"1704020","name":"TANJUNG AGUNG","postal_code":"34762"},{"id":"1704020017","district_id":"1704020","name":"ARGA MULIA","postal_code":"94765"},{"id":"1704020018","district_id":"1704020","name":"AIR JELATANG","postal_code":"38965"},{"id":"1704020020","district_id":"1704020","name":"SUMBER HARAPAN","postal_code":"79462"},{"id":"1704020021","district_id":"1704020","name":"TANJUNG BERINGIN","postal_code":"39125"}]