[{"id":"1705010001","district_id":"1705010","name":"TEDUNAN","postal_code":"38875"},{"id":"1705010002","district_id":"1705010","name":"KEMBANG MUMPO","postal_code":"38875"},{"id":"1705010003","district_id":"1705010","name":"KETAPANG BARU","postal_code":"38875"},{"id":"1705010004","district_id":"1705010","name":"PADANG BAKUNG","postal_code":"38875"},{"id":"1705010005","district_id":"1705010","name":"TALANG ALAI","postal_code":"38875"},{"id":"1705010006","district_id":"1705010","name":"JAMBAT AKAR","postal_code":"45563"},{"id":"1705010007","district_id":"1705010","name":"KARANG ANYAR","postal_code":"56365"},{"id":"1705010008","district_id":"1705010","name":"UJUNG PADANG","postal_code":"21187"},{"id":"1705010009","district_id":"1705010","name":"SENDAWAR","postal_code":"38875"},{"id":"1705010010","district_id":"1705010","name":"GELOMBANG","postal_code":"38875"},{"id":"1705010011","district_id":"1705010","name":"LUBUK BETUNG","postal_code":"38875"},{"id":"1705010012","district_id":"1705010","name":"PADANG PERI","postal_code":"38875"},{"id":"1705010013","district_id":"1705010","name":"MARAS TENGAH","postal_code":"38875"},{"id":"1705010014","district_id":"1705010","name":"GUNUNG KEMBANG","postal_code":"38875"},{"id":"1705010015","district_id":"1705010","name":"GUNUNG BANTAN","postal_code":"38875"},{"id":"1705010016","district_id":"1705010","name":"GENTING JUAR","postal_code":"51363"},{"id":"1705010017","district_id":"1705010","name":"PADANG KELAPO","postal_code":"36655"},{"id":"1705010018","district_id":"1705010","name":"TALANG BERINGIN","postal_code":"35679"},{"id":"1705010019","district_id":"1705010","name":"MUARA MARAS","postal_code":"38875"},{"id":"1705010020","district_id":"1705010","name":"PEMATANG RIDING","postal_code":"29351"},{"id":"1705010021","district_id":"1705010","name":"MUARA TIMPUT","postal_code":"38875"},{"id":"1705010022","district_id":"1705010","name":"SERIAN BANDUNG","postal_code":"38875"},{"id":"1705010023","district_id":"1705010","name":"TALANG KEMANG","postal_code":"38875"},{"id":"1705010024","district_id":"1705010","name":"RIMBO BESAR","postal_code":"38875"},{"id":"1705010025","district_id":"1705010","name":"KARANG DAPO","postal_code":"32191"},{"id":"1705010026","district_id":"1705010","name":"MARAS BANTAN","postal_code":"38875"}]