[{"id":"1706010016","district_id":"1706010","name":"AIR BULUH","postal_code":"38764"},{"id":"1706010017","district_id":"1706010","name":"PULAU BARU","postal_code":"38764"},{"id":"1706010018","district_id":"1706010","name":"SEMUNDAM","postal_code":"38764"},{"id":"1706010019","district_id":"1706010","name":"TANJUNG JAYA","postal_code":"32265"},{"id":"1706010020","district_id":"1706010","name":"DUSUN SIBAK","postal_code":"39125"},{"id":"1706010021","district_id":"1706010","name":"MEDAN JAYA","postal_code":"38764"},{"id":"1706010022","district_id":"1706010","name":"TANJUNG HARAPAN","postal_code":"34765"},{"id":"1706010023","district_id":"1706010","name":"PASAR IPUH","postal_code":"22763"},{"id":"1706010024","district_id":"1706010","name":"MANUNGGAL JAYA","postal_code":"98861"},{"id":"1706010025","district_id":"1706010","name":"RETAK HILIR","postal_code":"38764"},{"id":"1706010028","district_id":"1706010","name":"PULAI PAYUNG","postal_code":"30756"},{"id":"1706010029","district_id":"1706010","name":"TANJUNG MEDAN","postal_code":"22774"},{"id":"1706010030","district_id":"1706010","name":"TIRTA MULYA","postal_code":"30656"},{"id":"1706010031","district_id":"1706010","name":"PASAR BARU","postal_code":"20627"},{"id":"1706010032","district_id":"1706010","name":"PULAU MAKMUR","postal_code":"38764"},{"id":"1706010033","district_id":"1706010","name":"MUNDAM MARAP","postal_code":"38764"}]