[{"id":"1708060001","district_id":"1708060","name":"SUKA SARI","postal_code":"15540"},{"id":"1708060002","district_id":"1708060","name":"BUKIT SARI","postal_code":"33123"},{"id":"1708060003","district_id":"1708060","name":"TANGSI DUREN","postal_code":"39372"},{"id":"1708060004","district_id":"1708060","name":"TANGSI BARU","postal_code":"22983"},{"id":"1708060005","district_id":"1708060","name":"PEMATANG DONOK","postal_code":"39373"},{"id":"1708060006","district_id":"1708060","name":"BABAKAN BOGOR","postal_code":"39372"},{"id":"1708060007","district_id":"1708060","name":"BARAT WETAN","postal_code":"39372"},{"id":"1708060008","district_id":"1708060","name":"AIR SEMPIANG","postal_code":"39372"},{"id":"1708060009","district_id":"1708060","name":"TUGU REJO","postal_code":"35386"},{"id":"1708060010","district_id":"1708060","name":"BANDUNG BARU","postal_code":"35674"},{"id":"1708060011","district_id":"1708060","name":"SIDO MAKMUR","postal_code":"34683"},{"id":"1708060012","district_id":"1708060","name":"SUMBER SARI","postal_code":"34766"},{"id":"1708060013","district_id":"1708060","name":"MEKAR SARI","postal_code":"15129"},{"id":"1708060015","district_id":"1708060","name":"SIDO REJO","postal_code":"37553"},{"id":"1708060016","district_id":"1708060","name":"BANDUNG JAYA","postal_code":"39373"}]