[{"id":"1708070001","district_id":"1708070","name":"DASPETAH","postal_code":"39371"},{"id":"1708070002","district_id":"1708070","name":"UJAN MAS BAWAH","postal_code":"39371"},{"id":"1708070003","district_id":"1708070","name":"UJAN MAS ATAS","postal_code":"39371"},{"id":"1708070004","district_id":"1708070","name":"SURO LEMBAK","postal_code":"39371"},{"id":"1708070005","district_id":"1708070","name":"SURO ILIR","postal_code":"39371"},{"id":"1708070006","district_id":"1708070","name":"SURO MUNCAR","postal_code":"39371"},{"id":"1708070007","district_id":"1708070","name":"SURO BARU","postal_code":"39371"},{"id":"1708070008","district_id":"1708070","name":"PEKALONGAN","postal_code":"53362"},{"id":"1708070009","district_id":"1708070","name":"PUNGGUK MERANTI","postal_code":"39371"},{"id":"1708070010","district_id":"1708070","name":"BUMI SARI","postal_code":"34595"},{"id":"1708070011","district_id":"1708070","name":"CUGUNG LALANG","postal_code":"39371"},{"id":"1708070012","district_id":"1708070","name":"SURO BALI","postal_code":"39371"},{"id":"1708070013","district_id":"1708070","name":"TANJUNG ALAM","postal_code":"27281"},{"id":"1708070014","district_id":"1708070","name":"PUNGGUK BERINGANG","postal_code":"25533"},{"id":"1708070015","district_id":"1708070","name":"MERANTI JAYA","postal_code":"37492"},{"id":"1708070016","district_id":"1708070","name":"AIR HITAM","postal_code":"75124"},{"id":"1708070017","district_id":"1708070","name":"DASPETAH II","postal_code":"39371"}]