[{"id":"1708050001","district_id":"1708050","name":"TEBAT MONOK","postal_code":"39372"},{"id":"1708050002","district_id":"1708050","name":"KELILIK","postal_code":"39372"},{"id":"1708050003","district_id":"1708050","name":"IMIGRASI PERMU","postal_code":"39372"},{"id":"1708050004","district_id":"1708050","name":"PERMU","postal_code":"39372"},{"id":"1708050005","district_id":"1708050","name":"PASAR UJUNG","postal_code":"39372"},{"id":"1708050006","district_id":"1708050","name":"KARANG ENDAH","postal_code":"32386"},{"id":"1708050007","district_id":"1708050","name":"WESKUST","postal_code":"98364"},{"id":"1708050008","district_id":"1708050","name":"KAMPUNG BOGOR","postal_code":"39372"},{"id":"1708050009","district_id":"1708050","name":"PENSIUNAN","postal_code":"39372"},{"id":"1708050010","district_id":"1708050","name":"PASAR KEPAHIANG","postal_code":"39372"},{"id":"1708050011","district_id":"1708050","name":"DUSUN KEPAHIANG","postal_code":"78855"},{"id":"1708050012","district_id":"1708050","name":"KUTO REJO","postal_code":"33253"},{"id":"1708050013","district_id":"1708050","name":"KARANG ANYAR","postal_code":"56365"},{"id":"1708050014","district_id":"1708050","name":"TABA TEBELET","postal_code":"39372"},{"id":"1708050015","district_id":"1708050","name":"PELANGKIAN","postal_code":"39372"},{"id":"1708050016","district_id":"1708050","name":"KELOBAK","postal_code":"39372"},{"id":"1708050017","district_id":"1708050","name":"PAGAR GUNUNG","postal_code":"39152"},{"id":"1708050018","district_id":"1708050","name":"SUKA MERINDU","postal_code":"35377"},{"id":"1708050019","district_id":"1708050","name":"KAMPUNG PENSIUNAN","postal_code":"39372"},{"id":"1708050020","district_id":"1708050","name":"PASAR SEJANTUNG","postal_code":"39372"},{"id":"1708050021","district_id":"1708050","name":"PADANG LEKAT","postal_code":"38552"},{"id":"1708050022","district_id":"1708050","name":"BOGOR BARU","postal_code":"39372"},{"id":"1708050023","district_id":"1708050","name":"PERMU BAWAH","postal_code":"39372"}]