[{"id":"1709061001","district_id":"1709061","name":"SEKAYUN","postal_code":"38372"},{"id":"1709061002","district_id":"1709061","name":"SEKAYUN MUDIK","postal_code":"38372"},{"id":"1709061003","district_id":"1709061","name":"SEKAYUN ILIR","postal_code":"38372"},{"id":"1709061004","district_id":"1709061","name":"TALANG DONOK","postal_code":"39261"},{"id":"1709061005","district_id":"1709061","name":"TABA TENGAH","postal_code":"31625"},{"id":"1709061006","district_id":"1709061","name":"PADANG BURNAI","postal_code":"31592"},{"id":"1709061007","district_id":"1709061","name":"LUBUK LANGKAP","postal_code":"38372"},{"id":"1709061008","district_id":"1709061","name":"AIR NAPAL","postal_code":"38373"},{"id":"1709061009","district_id":"1709061","name":"GENTING","postal_code":"60182"},{"id":"1709061010","district_id":"1709061","name":"TALANG PANJANG","postal_code":"38887"},{"id":"1709061011","district_id":"1709061","name":"BANG HAJI","postal_code":"38372"},{"id":"1709061012","district_id":"1709061","name":"SUNGKAI BERAYUN","postal_code":"38372"}]