[{"id":"1709050001","district_id":"1709050","name":"PEKIK NYARING","postal_code":"38371"},{"id":"1709050002","district_id":"1709050","name":"SRIKUNCORO","postal_code":"55664"},{"id":"1709050010","district_id":"1709050","name":"PANCA MUKTI","postal_code":"28992"},{"id":"1709050011","district_id":"1709050","name":"SRIKATON","postal_code":"66252"},{"id":"1709050012","district_id":"1709050","name":"PASAR PEDATI","postal_code":"38371"},{"id":"1709050013","district_id":"1709050","name":"TALANG PAUH","postal_code":"38371"},{"id":"1709050014","district_id":"1709050","name":"SIDODADI","postal_code":"34595"},{"id":"1709050015","district_id":"1709050","name":"TALANG BUSENG","postal_code":"39264"},{"id":"1709050017","district_id":"1709050","name":"KEMBANG AYUN","postal_code":"31581"},{"id":"1709050018","district_id":"1709050","name":"PAGARDEWA","postal_code":"69467"},{"id":"1709050019","district_id":"1709050","name":"SIDOREJO","postal_code":"56361"},{"id":"1709050020","district_id":"1709050","name":"SUNDA KELAPA","postal_code":"38371"},{"id":"1709050021","district_id":"1709050","name":"PONDOK KELAPA","postal_code":"24415"},{"id":"1709050022","district_id":"1709050","name":"PADANG BETUAH","postal_code":"38371"},{"id":"1709050023","district_id":"1709050","name":"BINTANG SELATAN","postal_code":"38371"},{"id":"1709050024","district_id":"1709050","name":"ABU SAKIM","postal_code":"38371"},{"id":"1709050025","district_id":"1709050","name":"HARAPAN","postal_code":"99571"}]