[{"id":"1709010001","district_id":"1709010","name":"AIR SEBAKUL","postal_code":"38385"},{"id":"1709010002","district_id":"1709010","name":"BUKIT","postal_code":"37482"},{"id":"1709010003","district_id":"1709010","name":"LAGAN BUNGIN","postal_code":"38385"},{"id":"1709010004","district_id":"1709010","name":"TABALAGAN","postal_code":"30971"},{"id":"1709010005","district_id":"1709010","name":"LAGAN","postal_code":"38385"},{"id":"1709010006","district_id":"1709010","name":"PULAU PANGGUNG","postal_code":"35679"},{"id":"1709010007","district_id":"1709010","name":"JAYAKARTA","postal_code":"95377"},{"id":"1709010008","district_id":"1709010","name":"TENGAH PADANG","postal_code":"38385"},{"id":"1709010009","district_id":"1709010","name":"KEMBANG SERI","postal_code":"38874"},{"id":"1709010010","district_id":"1709010","name":"TABA PASMAH","postal_code":"38385"},{"id":"1709010011","district_id":"1709010","name":"NAKAU","postal_code":"38385"},{"id":"1709010012","district_id":"1709010","name":"PADANG ULAK TANJUNG","postal_code":"91993"},{"id":"1709010013","district_id":"1709010","name":"PAGAR JATI","postal_code":"31355"},{"id":"1709010014","district_id":"1709010","name":"JUMAT","postal_code":"38385"},{"id":"1709010015","district_id":"1709010","name":"AIR PUTIH","postal_code":"75124"}]