[{"id":"1771030001","district_id":"1771030","name":"KEBUN KELING","postal_code":"38116"},{"id":"1771030004","district_id":"1771030","name":"MALABERO","postal_code":"42176"},{"id":"1771030005","district_id":"1771030","name":"SUMUR MELELE","postal_code":"74552"},{"id":"1771030006","district_id":"1771030","name":"PASAR BERKAS","postal_code":"38119"},{"id":"1771030007","district_id":"1771030","name":"PASAR BARU","postal_code":"20627"},{"id":"1771030008","district_id":"1771030","name":"PASAR JITRA","postal_code":"70671"},{"id":"1771030009","district_id":"1771030","name":"PASAR MELINTANG","postal_code":"20518"},{"id":"1771030011","district_id":"1771030","name":"PONDOK BESI","postal_code":"38117"},{"id":"1771030012","district_id":"1771030","name":"KEBUN ROS","postal_code":"38117"},{"id":"1771030013","district_id":"1771030","name":"PINTU BATU","postal_code":"22382"},{"id":"1771030014","district_id":"1771030","name":"TENGAH PADANG","postal_code":"38385"},{"id":"1771030015","district_id":"1771030","name":"BAJAK","postal_code":"86592"},{"id":"1771030016","district_id":"1771030","name":"KAMPUNG BALI","postal_code":"10250"}]