[{"id":"1802050001","district_id":"1802050","name":"TAMANSARI","postal_code":"52473"},{"id":"1802050002","district_id":"1802050","name":"CAMPANG WAY HANDAK","postal_code":"35675"},{"id":"1802050003","district_id":"1802050","name":"GADING","postal_code":"66352"},{"id":"1802050004","district_id":"1802050","name":"SUMANDA","postal_code":"35675"},{"id":"1802050005","district_id":"1802050","name":"TANJUNG AGUNG","postal_code":"34762"},{"id":"1802050006","district_id":"1802050","name":"BABAKAN","postal_code":"52181"},{"id":"1802050007","district_id":"1802050","name":"GUNUNG KASIH","postal_code":"35675"},{"id":"1802050008","district_id":"1802050","name":"TANJUNG KEMALA","postal_code":"35675"},{"id":"1802050009","district_id":"1802050","name":"BINJAI WANGI","postal_code":"35675"},{"id":"1802050010","district_id":"1802050","name":"SUKAJADI","postal_code":"34765"},{"id":"1802050011","district_id":"1802050","name":"RANTAU TIJANG","postal_code":"35675"},{"id":"1802050012","district_id":"1802050","name":"SINAR AGUNG","postal_code":"35675"},{"id":"1802050013","district_id":"1802050","name":"NEGERI RATU","postal_code":"35384"},{"id":"1802050014","district_id":"1802050","name":"WAY JAHA","postal_code":"35675"},{"id":"1802050015","district_id":"1802050","name":"TIUH MEMON","postal_code":"35675"},{"id":"1802050016","district_id":"1802050","name":"BANJAR AGUNG ILIR","postal_code":"35675"},{"id":"1802050017","district_id":"1802050","name":"BANJAR AGUNG UDIK","postal_code":"35675"},{"id":"1802050018","district_id":"1802050","name":"TANJUNG HERAN","postal_code":"35675"},{"id":"1802050019","district_id":"1802050","name":"TANGKIT SERDANG","postal_code":"35675"},{"id":"1802050020","district_id":"1802050","name":"WAY PRING","postal_code":"34767"},{"id":"1802050021","district_id":"1802050","name":"PUNGKUT","postal_code":"35675"},{"id":"1802050022","district_id":"1802050","name":"SUKAMAJU","postal_code":"34763"},{"id":"1802050023","district_id":"1802050","name":"SUKAMULYA","postal_code":"46151"},{"id":"1802050024","district_id":"1802050","name":"KAYU HUBI","postal_code":"38873"},{"id":"1802050025","district_id":"1802050","name":"GUNUNG TIGA","postal_code":"35675"},{"id":"1802050026","district_id":"1802050","name":"WAY MANAK","postal_code":"35675"},{"id":"1802050027","district_id":"1802050","name":"TALANG LEBAR","postal_code":"35675"}]