[{"id":"1802110001","district_id":"1802110","name":"KARANG BUAH","postal_code":"35683"},{"id":"1802110002","district_id":"1802110","name":"SAWANG BALAK","postal_code":"35683"},{"id":"1802110012","district_id":"1802110","name":"SUKARAJA","postal_code":"46183"},{"id":"1802110013","district_id":"1802110","name":"BANJAR NEGERI","postal_code":"35379"},{"id":"1802110014","district_id":"1802110","name":"GEDUNG","postal_code":"69482"},{"id":"1802110015","district_id":"1802110","name":"KEJADIANLOM","postal_code":"35683"},{"id":"1802110016","district_id":"1802110","name":"SUKAPADANG","postal_code":"35683"},{"id":"1802110017","district_id":"1802110","name":"KACAMARGA","postal_code":"35683"},{"id":"1802110018","district_id":"1802110","name":"PAMPANGAN","postal_code":"35683"},{"id":"1802110019","district_id":"1802110","name":"TANJUNG JATI","postal_code":"35683"},{"id":"1802110021","district_id":"1802110","name":"TANJUNG RAJA","postal_code":"35683"},{"id":"1802110022","district_id":"1802110","name":"WAY RILAU","postal_code":"35683"},{"id":"1802110023","district_id":"1802110","name":"TENGOR","postal_code":"35683"},{"id":"1802110024","district_id":"1802110","name":"BANJAR MANIS","postal_code":"35683"},{"id":"1802110025","district_id":"1802110","name":"TANJUNG BETUAH","postal_code":"35683"},{"id":"1802110026","district_id":"1802110","name":"PUTIH DOH","postal_code":"35683"},{"id":"1802110027","district_id":"1802110","name":"PEKON DOH","postal_code":"35686"},{"id":"1802110038","district_id":"1802110","name":"KUBU LANGKA","postal_code":"36657"},{"id":"1802110039","district_id":"1802110","name":"KUTA KAKHANG","postal_code":"20363"},{"id":"1802110040","district_id":"1802110","name":"SUKA BANJAR","postal_code":"35384"}]