[{"id":"1802041001","district_id":"1802041","name":"MARGOYOSO","postal_code":"35374"},{"id":"1802041002","district_id":"1802041","name":"DADAPAN","postal_code":"35374"},{"id":"1802041003","district_id":"1802041","name":"SIMPANG KANAN","postal_code":"35374"},{"id":"1802041004","district_id":"1802041","name":"MARGODADI","postal_code":"35374"},{"id":"1802041005","district_id":"1802041","name":"ARGOPENI","postal_code":"35374"},{"id":"1802041006","district_id":"1802041","name":"SUMBER MULYO","postal_code":"35374"},{"id":"1802041007","district_id":"1802041","name":"WONOHARJO","postal_code":"57615"},{"id":"1802041008","district_id":"1802041","name":"TEGAL BINANGUN","postal_code":"35374"},{"id":"1802041009","district_id":"1802041","name":"SUMBERREJO","postal_code":"59184"},{"id":"1802041010","district_id":"1802041","name":"SIDOMULYO","postal_code":"66262"},{"id":"1802041011","district_id":"1802041","name":"KEBUMEN","postal_code":"56272"},{"id":"1802041012","district_id":"1802041","name":"ARGOMULYO","postal_code":"34766"},{"id":"1802041013","district_id":"1802041","name":"SIDOREJO","postal_code":"56361"}]