[{"id":"1804082001","district_id":"1804082","name":"LABUHAN RATU EMPAT","postal_code":"34396"},{"id":"1804082002","district_id":"1804082","name":"LABUHAN RATU LIMA","postal_code":"34554"},{"id":"1804082003","district_id":"1804082","name":"LABUHAN RATU TIGA","postal_code":"34375"},{"id":"1804082004","district_id":"1804082","name":"LABUHAN RATU VII","postal_code":"34375"},{"id":"1804082005","district_id":"1804082","name":"LABUHAN RATU","postal_code":"34375"},{"id":"1804082006","district_id":"1804082","name":"LABUHAN RATU ENAM","postal_code":"34375"},{"id":"1804082007","district_id":"1804082","name":"RAJA BASA LAMA","postal_code":"34375"},{"id":"1804082008","district_id":"1804082","name":"RAJA BASA LAMA SATU","postal_code":"34375"},{"id":"1804082009","district_id":"1804082","name":"RAJA BASA LAMA DUA","postal_code":"34375"},{"id":"1804082010","district_id":"1804082","name":"LABUHAN RATU VIII","postal_code":"34375"},{"id":"1804082011","district_id":"1804082","name":"LABUHAN RATU IX","postal_code":"34375"}]