[{"id":"1805011001","district_id":"1805011","name":"MARGA JAYA","postal_code":"34769"},{"id":"1805011002","district_id":"1805011","name":"LINGGA PURA","postal_code":"34176"},{"id":"1805011003","district_id":"1805011","name":"NYUKANG HARJO","postal_code":"34176"},{"id":"1805011004","district_id":"1805011","name":"SIDOHARJO","postal_code":"57682"},{"id":"1805011005","district_id":"1805011","name":"TAMAN SARI","postal_code":"68355"},{"id":"1805011006","district_id":"1805011","name":"NEGERI KATON","postal_code":"34386"},{"id":"1805011007","district_id":"1805011","name":"KARANG ANYAR","postal_code":"56365"},{"id":"1805011008","district_id":"1805011","name":"GALIH KARANGJATI","postal_code":"67175"},{"id":"1805011009","district_id":"1805011","name":"GEDUNG HARTA","postal_code":"34176"},{"id":"1805011010","district_id":"1805011","name":"NEGERI AGUNG","postal_code":"34769"},{"id":"1805011011","district_id":"1805011","name":"TANJUNG RATU","postal_code":"34762"},{"id":"1805011012","district_id":"1805011","name":"GEDUNG HAJI","postal_code":"34176"},{"id":"1805011013","district_id":"1805011","name":"NEGERI JAYA","postal_code":"34769"},{"id":"1805011014","district_id":"1805011","name":"MEKAR HARJO","postal_code":"78872"}]