[{"id":"1805010006","district_id":"1805010","name":"PURWOSARI","postal_code":"56364"},{"id":"1805010008","district_id":"1805010","name":"MOJOKERTO","postal_code":"57292"},{"id":"1805010009","district_id":"1805010","name":"SENDANG AYU","postal_code":"34175"},{"id":"1805010010","district_id":"1805010","name":"SURABAYA","postal_code":"32366"},{"id":"1805010011","district_id":"1805010","name":"BANDARSARI","postal_code":"34175"},{"id":"1805010012","district_id":"1805010","name":"SRI AGUNG","postal_code":"36552"},{"id":"1805010013","district_id":"1805010","name":"KOTA BARU","postal_code":"34769"},{"id":"1805010014","district_id":"1805010","name":"MARGOREJO","postal_code":"62356"},{"id":"1805010015","district_id":"1805010","name":"KARANG TANJUNG","postal_code":"34175"},{"id":"1805010028","district_id":"1805010","name":"KURIPAN","postal_code":"56352"},{"id":"1805010029","district_id":"1805010","name":"HADUYANG RATU","postal_code":"34555"},{"id":"1805010030","district_id":"1805010","name":"PADANG RATU","postal_code":"35613"},{"id":"1805010051","district_id":"1805010","name":"KARANG SARI","postal_code":"35679"},{"id":"1805010061","district_id":"1805010","name":"SUMBERSARI","postal_code":"56365"},{"id":"1805010062","district_id":"1805010","name":"PURWOREJO","postal_code":"57615"}]