[{"id":"1805050001","district_id":"1805050","name":"ADIPURO","postal_code":"56153"},{"id":"1805050002","district_id":"1805050","name":"LEMAN BENAWI","postal_code":"45111"},{"id":"1805050003","district_id":"1805050","name":"DEPOK REJO","postal_code":"34172"},{"id":"1805050004","district_id":"1805050","name":"TEMPURAN","postal_code":"56282"},{"id":"1805050005","district_id":"1805050","name":"SIMBAR WARINGIN","postal_code":"34171"},{"id":"1805050006","district_id":"1805050","name":"TRIMURJO","postal_code":"34172"},{"id":"1805050007","district_id":"1805050","name":"NOTOHARJO","postal_code":"34172"},{"id":"1805050008","district_id":"1805050","name":"UNTORO","postal_code":"34172"},{"id":"1805050009","district_id":"1805050","name":"PURWOADI","postal_code":"34172"},{"id":"1805050010","district_id":"1805050","name":"PURWODADI","postal_code":"56261"},{"id":"1805050011","district_id":"1805050","name":"PUJODADI","postal_code":"35682"},{"id":"1805050012","district_id":"1805050","name":"PUJOKERTO","postal_code":"34172"},{"id":"1805050013","district_id":"1805050","name":"PUJO BASUKI","postal_code":"34172"},{"id":"1805050014","district_id":"1805050","name":"PUJOASRI","postal_code":"34172"}]