[{"id":"1805040017","district_id":"1805040","name":"TERBANGGI SUBING","postal_code":"34161"},{"id":"1805040018","district_id":"1805040","name":"WONO SARI","postal_code":"34391"},{"id":"1805040019","district_id":"1805040","name":"TERBANGGI AGUNG","postal_code":"34161"},{"id":"1805040020","district_id":"1805040","name":"GUNUNG SUGIH RAYA","postal_code":"34161"},{"id":"1805040021","district_id":"1805040","name":"KOMERING AGUNG","postal_code":"34161"},{"id":"1805040022","district_id":"1805040","name":"KOMERING PUTIH","postal_code":"34161"},{"id":"1805040023","district_id":"1805040","name":"PAJAR BULAN","postal_code":"38873"},{"id":"1805040024","district_id":"1805040","name":"SEPUTIH JAYA","postal_code":"34161"},{"id":"1805040025","district_id":"1805040","name":"GUNUNG SARI","postal_code":"34767"},{"id":"1805040026","district_id":"1805040","name":"GUNUNG SUGIH","postal_code":"35368"},{"id":"1805040027","district_id":"1805040","name":"BUYUT UDIK","postal_code":"34161"},{"id":"1805040028","district_id":"1805040","name":"PUTRA BUYUT","postal_code":"34161"},{"id":"1805040029","district_id":"1805040","name":"BUYUT ILIR","postal_code":"34161"},{"id":"1805040030","district_id":"1805040","name":"BUYUT UTARA","postal_code":"34161"},{"id":"1805040031","district_id":"1805040","name":"BANGUN REJO","postal_code":"34681"}]