[{"id":"1805101001","district_id":"1805101","name":"UMAN AGUNG","postal_code":"87152"},{"id":"1805101002","district_id":"1805101","name":"SRI WIJAYA","postal_code":"73553"},{"id":"1805101003","district_id":"1805101","name":"SENDANG AGUNG MATARAM","postal_code":"34169"},{"id":"1805101004","district_id":"1805101","name":"JATI DATAR MATARAM","postal_code":"34169"},{"id":"1805101005","district_id":"1805101","name":"TERBANGGI MULYA","postal_code":"34169"},{"id":"1805101006","district_id":"1805101","name":"TERBANGGI ILIR","postal_code":"34169"},{"id":"1805101007","district_id":"1805101","name":"MATARAM UDIK","postal_code":"34169"},{"id":"1805101008","district_id":"1805101","name":"MATARAM JAYA","postal_code":"30681"},{"id":"1805101009","district_id":"1805101","name":"UPT WAY TERUSAN SP 1","postal_code":"39265"},{"id":"1805101010","district_id":"1805101","name":"UPT WAY TERUSAN SP. 2","postal_code":"39265"},{"id":"1805101011","district_id":"1805101","name":"UPT WAY TERUSAN SP.3","postal_code":"39265"},{"id":"1805101012","district_id":"1805101","name":"SUMBER REJEKI","postal_code":"34769"}]