[{"id":"1805030001","district_id":"1805030","name":"PURWODADI","postal_code":"56261"},{"id":"1805030002","district_id":"1805030","name":"SIDODADI","postal_code":"34595"},{"id":"1805030003","district_id":"1805030","name":"SIDOREJO","postal_code":"56361"},{"id":"1805030004","district_id":"1805030","name":"CIMARIAS","postal_code":"45365"},{"id":"1805030005","district_id":"1805030","name":"BANGUN REJO","postal_code":"34681"},{"id":"1805030006","district_id":"1805030","name":"SIDOLUHUR","postal_code":"55264"},{"id":"1805030007","district_id":"1805030","name":"SIDOMULYO","postal_code":"66262"},{"id":"1805030008","district_id":"1805030","name":"TIMBUL REJO","postal_code":"39125"},{"id":"1805030009","district_id":"1805030","name":"SUKA WARINGIN","postal_code":"34173"},{"id":"1805030010","district_id":"1805030","name":"SUKA NEGARA","postal_code":"34173"},{"id":"1805030011","district_id":"1805030","name":"SRI PENDOWO","postal_code":"34389"},{"id":"1805030012","district_id":"1805030","name":"SINAR SEPUTIH","postal_code":"34173"},{"id":"1805030013","district_id":"1805030","name":"SINAR LUAS","postal_code":"34173"},{"id":"1805030014","district_id":"1805030","name":"TANJUNG JAYA","postal_code":"32265"},{"id":"1805030015","district_id":"1805030","name":"TANJUNG PANDAN","postal_code":"34173"},{"id":"1805030016","district_id":"1805030","name":"MEKAR JAYA","postal_code":"34683"},{"id":"1805030017","district_id":"1805030","name":"SUKA NEGERI","postal_code":"34768"}]