[{"id":"1805012001","district_id":"1805012","name":"KOTA BATU","postal_code":"35384"},{"id":"1805012002","district_id":"1805012","name":"TAWANG NEGERI","postal_code":"34176"},{"id":"1805012003","district_id":"1805012","name":"PAYUNG MAKMUR","postal_code":"34176"},{"id":"1805012004","district_id":"1805012","name":"PAYUNG DADI","postal_code":"34176"},{"id":"1805012005","district_id":"1805012","name":"PAYUNG REJO","postal_code":"34176"},{"id":"1805012006","district_id":"1805012","name":"TANJUNG REJO","postal_code":"34769"},{"id":"1805012007","district_id":"1805012","name":"SANGUN RATU","postal_code":"34176"},{"id":"1805012008","district_id":"1805012","name":"GUNUNG RAYA","postal_code":"72211"},{"id":"1805012009","district_id":"1805012","name":"GUNUNG HAJI","postal_code":"34176"},{"id":"1805012010","district_id":"1805012","name":"NEGERI RATU","postal_code":"35384"},{"id":"1805012011","district_id":"1805012","name":"TANJUNG KEMALA","postal_code":"35675"},{"id":"1805012012","district_id":"1805012","name":"NEGERI KEPAYUNGAN","postal_code":"34176"},{"id":"1805012013","district_id":"1805012","name":"PAYUNG BATU","postal_code":"34176"},{"id":"1805012014","district_id":"1805012","name":"SEGALA MIDER","postal_code":"34176"},{"id":"1805012015","district_id":"1805012","name":"TIAS BANGUN","postal_code":"34176"},{"id":"1805012016","district_id":"1805012","name":"SINAR NEGERI","postal_code":"34176"},{"id":"1805012017","district_id":"1805012","name":"RIAU PERIANGAN","postal_code":"34176"},{"id":"1805012018","district_id":"1805012","name":"PEKANDANGAN","postal_code":"34176"},{"id":"1805012019","district_id":"1805012","name":"PAYUNG MULYA","postal_code":"34176"},{"id":"1805012020","district_id":"1805012","name":"PADANG REJO","postal_code":"35376"}]