[{"id":"1806030017","district_id":"1806030","name":"HUJAN MAS","postal_code":"34558"},{"id":"1806030024","district_id":"1806030","name":"BUMI NABUNG","postal_code":"34558"},{"id":"1806030025","district_id":"1806030","name":"PENGARINGAN","postal_code":"32156"},{"id":"1806030026","district_id":"1806030","name":"SIMPANG ABUNG","postal_code":"23891"},{"id":"1806030027","district_id":"1806030","name":"WAY WAKAK","postal_code":"34558"},{"id":"1806030028","district_id":"1806030","name":"TANJUNG HARTA","postal_code":"34558"},{"id":"1806030029","district_id":"1806030","name":"CAHAYA NEGERI","postal_code":"38877"},{"id":"1806030030","district_id":"1806030","name":"OGAN LIMA","postal_code":"34558"},{"id":"1806030031","district_id":"1806030","name":"KISTANG","postal_code":"34558"},{"id":"1806030032","district_id":"1806030","name":"KEMPLAS","postal_code":"45161"},{"id":"1806030033","district_id":"1806030","name":"PEMATANG KASIH","postal_code":"20987"},{"id":"1806030034","district_id":"1806030","name":"LEPANG BESAR","postal_code":"34558"},{"id":"1806030036","district_id":"1806030","name":"GUNUNG BETUAH","postal_code":"34558"},{"id":"1806030037","district_id":"1806030","name":"BUMI MANDIRI","postal_code":"34558"}]