[{"id":"1807040001","district_id":"1807040","name":"RAMBANG JAYA","postal_code":"34764"},{"id":"1807040002","district_id":"1807040","name":"GISTANG","postal_code":"34764"},{"id":"1807040003","district_id":"1807040","name":"NEGERI BATIN","postal_code":"34764"},{"id":"1807040004","district_id":"1807040","name":"NEGERI BARU","postal_code":"34764"},{"id":"1807040005","district_id":"1807040","name":"BUMI RATU","postal_code":"34764"},{"id":"1807040006","district_id":"1807040","name":"SRIWIJAYA","postal_code":"34764"},{"id":"1807040007","district_id":"1807040","name":"SIDOARJO","postal_code":"34764"},{"id":"1807040008","district_id":"1807040","name":"BRATA YUDA","postal_code":"99357"},{"id":"1807040009","district_id":"1807040","name":"GEDUNG BATIN","postal_code":"34555"},{"id":"1807040025","district_id":"1807040","name":"SRI REJEKI","postal_code":"34764"},{"id":"1807040026","district_id":"1807040","name":"BLAMBANGAN UMPU","postal_code":"34764"},{"id":"1807040027","district_id":"1807040","name":"LEMBASUNG","postal_code":"34764"},{"id":"1807040028","district_id":"1807040","name":"UMPU BAKTI","postal_code":"34764"},{"id":"1807040029","district_id":"1807040","name":"UMPU KENCANA","postal_code":"34764"},{"id":"1807040030","district_id":"1807040","name":"KARANG UMPU","postal_code":"34764"},{"id":"1807040031","district_id":"1807040","name":"GUNUNG SANGKARAN","postal_code":"34764"},{"id":"1807040032","district_id":"1807040","name":"SANGKARAN BHAKTI","postal_code":"34764"},{"id":"1807040033","district_id":"1807040","name":"BUMI BARU","postal_code":"34764"},{"id":"1807040034","district_id":"1807040","name":"TANJUNG SARI","postal_code":"34764"},{"id":"1807040035","district_id":"1807040","name":"TANJUNG RAJA GIHAM","postal_code":"30661"},{"id":"1807040046","district_id":"1807040","name":"SEGARA MIDAR","postal_code":"17211"},{"id":"1807040047","district_id":"1807040","name":"TANJUNG RAJA SAKTI","postal_code":"30661"},{"id":"1807040048","district_id":"1807040","name":"NEGERI BUMI PUTRA","postal_code":"34764"},{"id":"1807040049","district_id":"1807040","name":"PANCA NEGERI","postal_code":"34764"},{"id":"1807040050","district_id":"1807040","name":"GEDUNG RIANG","postal_code":"34764"},{"id":"1807040051","district_id":"1807040","name":"OJOLALI","postal_code":"86183"}]