[{"id":"1807060002","district_id":"1807060","name":"BHAKTI NEGARA","postal_code":"34762"},{"id":"1807060003","district_id":"1807060","name":"TANJUNG SERUPA","postal_code":"34762"},{"id":"1807060004","district_id":"1807060","name":"SUKABUMI","postal_code":"34762"},{"id":"1807060005","district_id":"1807060","name":"TANJUNG AGUNG","postal_code":"34762"},{"id":"1807060006","district_id":"1807060","name":"SERUPA INDAH","postal_code":"34762"},{"id":"1807060007","district_id":"1807060","name":"PAKUAN BARU","postal_code":"34762"},{"id":"1807060008","district_id":"1807060","name":"TANJUNG RATU","postal_code":"34762"},{"id":"1807060009","district_id":"1807060","name":"WAY TAWAR","postal_code":"34762"},{"id":"1807060010","district_id":"1807060","name":"PAKUAN SAKTI","postal_code":"34762"},{"id":"1807060011","district_id":"1807060","name":"NEGARA HARJA","postal_code":"34762"},{"id":"1807060012","district_id":"1807060","name":"NEGARA TAMA","postal_code":"34762"},{"id":"1807060032","district_id":"1807060","name":"BUMI MULYA","postal_code":"34762"},{"id":"1807060035","district_id":"1807060","name":"NEGARA SAKTI","postal_code":"34762"},{"id":"1807060036","district_id":"1807060","name":"NEGARA RATU","postal_code":"34762"},{"id":"1807060037","district_id":"1807060","name":"RUMBIH","postal_code":"34762"},{"id":"1807060038","district_id":"1807060","name":"GUNUNG WARAS","postal_code":"34762"},{"id":"1807060039","district_id":"1807060","name":"GUNUNG CAHYA","postal_code":"34762"},{"id":"1807060040","district_id":"1807060","name":"PAKUAN RATU","postal_code":"34762"},{"id":"1807060041","district_id":"1807060","name":"KARANG AGUNG","postal_code":"34762"}]