[{"id":"1807062001","district_id":"1807062","name":"SRI BASUKI","postal_code":"34769"},{"id":"1807062002","district_id":"1807062","name":"NEGARA JAYA","postal_code":"34769"},{"id":"1807062003","district_id":"1807062","name":"BIMA SAKTI","postal_code":"34769"},{"id":"1807062004","district_id":"1807062","name":"TEGAL MUKTI","postal_code":"34769"},{"id":"1807062005","district_id":"1807062","name":"PAGAR IMAN","postal_code":"34769"},{"id":"1807062006","district_id":"1807062","name":"KALIAWI","postal_code":"34769"},{"id":"1807062007","district_id":"1807062","name":"NEGERI BESAR","postal_code":"34769"},{"id":"1807062008","district_id":"1807062","name":"TIUH BARU","postal_code":"34769"},{"id":"1807062009","district_id":"1807062","name":"KILING KILING","postal_code":"34769"},{"id":"1807062010","district_id":"1807062","name":"KALIAWI INDAH","postal_code":"34769"},{"id":"1807062011","district_id":"1807062","name":"NEGERI JAYA","postal_code":"34769"},{"id":"1807062012","district_id":"1807062","name":"TANJUNG MAS","postal_code":"32184"},{"id":"1807062013","district_id":"1807062","name":"NEGERI KASIH","postal_code":"34769"}]