[{"id":"1809060001","district_id":"1809060","name":"PURWOREJO","postal_code":"57615"},{"id":"1809060002","district_id":"1809060","name":"KAGUNGANRATU","postal_code":"34691"},{"id":"1809060003","district_id":"1809060","name":"PUJORAHAYU","postal_code":"35353"},{"id":"1809060004","district_id":"1809060","name":"KALIREJO","postal_code":"56264"},{"id":"1809060005","district_id":"1809060","name":"TANJUNG REJO","postal_code":"34769"},{"id":"1809060006","district_id":"1809060","name":"NEGERIKATUN","postal_code":"35353"},{"id":"1809060007","district_id":"1809060","name":"NEGARASAKA","postal_code":"35353"},{"id":"1809060008","district_id":"1809060","name":"PEJAMBON","postal_code":"35353"},{"id":"1809060009","district_id":"1809060","name":"HALANGAN RATU","postal_code":"35353"},{"id":"1809060010","district_id":"1809060","name":"TRISNO MAJU","postal_code":"35353"},{"id":"1809060011","district_id":"1809060","name":"LUMBI REJO","postal_code":"35353"},{"id":"1809060012","district_id":"1809060","name":"ROWOREJO","postal_code":"54265"},{"id":"1809060013","district_id":"1809060","name":"SIDOMULYO","postal_code":"66262"},{"id":"1809060014","district_id":"1809060","name":"PONCOKRESNO","postal_code":"35353"},{"id":"1809060015","district_id":"1809060","name":"TRI RAHAYU","postal_code":"35353"},{"id":"1809060016","district_id":"1809060","name":"SINARBANDUNG","postal_code":"35353"},{"id":"1809060017","district_id":"1809060","name":"BANGUN SARI","postal_code":"24782"},{"id":"1809060018","district_id":"1809060","name":"KARANGREJO","postal_code":"56361"},{"id":"1809060019","district_id":"1809060","name":"NEGERI ULANGAN JAYA","postal_code":"35353"}]