[{"id":"1810010004","district_id":"1810010","name":"SELAPAN","postal_code":"35682"},{"id":"1810010005","district_id":"1810010","name":"KEDAUNG","postal_code":"15415"},{"id":"1810010006","district_id":"1810010","name":"SUKA NEGERI","postal_code":"34768"},{"id":"1810010007","district_id":"1810010","name":"RANTAU TIJANG","postal_code":"35675"},{"id":"1810010008","district_id":"1810010","name":"PARDASUKA","postal_code":"35382"},{"id":"1810010009","district_id":"1810010","name":"TANJUNG RUSIA","postal_code":"35682"},{"id":"1810010013","district_id":"1810010","name":"WARGO MULYO","postal_code":"73583"},{"id":"1810010014","district_id":"1810010","name":"PUJODADI","postal_code":"35682"},{"id":"1810010015","district_id":"1810010","name":"SUKOREJO","postal_code":"56351"},{"id":"1810010018","district_id":"1810010","name":"SIDODADI","postal_code":"34595"},{"id":"1810010019","district_id":"1810010","name":"PARDASUKA TIMUR","postal_code":"35682"},{"id":"1810010020","district_id":"1810010","name":"TANJUNG RUSIA TIMUR","postal_code":"35682"},{"id":"1810010021","district_id":"1810010","name":"PARDASUKA SELATAN","postal_code":"35682"}]