[{"id":"1812030001","district_id":"1812030","name":"MULYA ASRI","postal_code":"34681"},{"id":"1812030002","district_id":"1812030","name":"CANDRA KENCANA","postal_code":"34693"},{"id":"1812030003","district_id":"1812030","name":"MULYA KENCANA","postal_code":"34693"},{"id":"1812030004","district_id":"1812030","name":"PULUNG KENCANA","postal_code":"34693"},{"id":"1812030005","district_id":"1812030","name":"TIRTA KENCANA","postal_code":"34693"},{"id":"1812030006","district_id":"1812030","name":"PANARAGAN JAYA","postal_code":"34693"},{"id":"1812030007","district_id":"1812030","name":"PENUMANGAN","postal_code":"34693"},{"id":"1812030008","district_id":"1812030","name":"PENUMANGAN BARU","postal_code":"34693"},{"id":"1812030009","district_id":"1812030","name":"PANARAGAN","postal_code":"34693"},{"id":"1812030010","district_id":"1812030","name":"BANDAR DEWA","postal_code":"34693"},{"id":"1812030011","district_id":"1812030","name":"MENGGALA MAS","postal_code":"34693"},{"id":"1812030013","district_id":"1812030","name":"TUNAS ASRI","postal_code":"34693"},{"id":"1812030014","district_id":"1812030","name":"WONOKERTO","postal_code":"56362"},{"id":"1812030015","district_id":"1812030","name":"PANARAGAN JAYA UTAMA","postal_code":"34693"},{"id":"1812030016","district_id":"1812030","name":"PANARAGAN JAYA INDAH","postal_code":"34693"},{"id":"1812030017","district_id":"1812030","name":"MULYA JAYA","postal_code":"34767"},{"id":"1812030018","district_id":"1812030","name":"TIRTA MAKMUR","postal_code":"30962"},{"id":"1812030019","district_id":"1812030","name":"CANDRA MUKTI","postal_code":"34693"},{"id":"1812030020","district_id":"1812030","name":"CANDRA JAYA","postal_code":"56371"}]