[{"id":"1813010001","district_id":"1813010","name":"WAY BATANG","postal_code":"34877"},{"id":"1813010002","district_id":"1813010","name":"PARDA HAGA","postal_code":"34883"},{"id":"1813010003","district_id":"1813010","name":"TANJUNG SAKTI","postal_code":"34877"},{"id":"1813010004","district_id":"1813010","name":"TANJUNG JATI","postal_code":"35683"},{"id":"1813010005","district_id":"1813010","name":"RATA AGUNG","postal_code":"34877"},{"id":"1813010006","district_id":"1813010","name":"LEMONG","postal_code":"34877"},{"id":"1813010007","district_id":"1813010","name":"CAHAYA NEGERI","postal_code":"38877"},{"id":"1813010008","district_id":"1813010","name":"SUKA MULYA","postal_code":"35675"},{"id":"1813010009","district_id":"1813010","name":"MALAYA","postal_code":"34877"},{"id":"1813010010","district_id":"1813010","name":"BAMBANG","postal_code":"34877"},{"id":"1813010011","district_id":"1813010","name":"PAGAR DALAM","postal_code":"34877"},{"id":"1813010012","district_id":"1813010","name":"BANDAR PUGUNG","postal_code":"34877"},{"id":"1813010013","district_id":"1813010","name":"PENENGAHAN","postal_code":"34769"}]