[{"id":"1813020001","district_id":"1813020","name":"WALUR","postal_code":"34874"},{"id":"1813020002","district_id":"1813020","name":"PADANG RINDU","postal_code":"34876"},{"id":"1813020003","district_id":"1813020","name":"KURIPAN","postal_code":"56352"},{"id":"1813020004","district_id":"1813020","name":"NEGERI RATU","postal_code":"35384"},{"id":"1813020005","district_id":"1813020","name":"KERBANG LANGGAR","postal_code":"34876"},{"id":"1813020006","district_id":"1813020","name":"KERBANG DALAM","postal_code":"34876"},{"id":"1813020007","district_id":"1813020","name":"BALAM","postal_code":"34876"},{"id":"1813020008","district_id":"1813020","name":"WAY NARTA","postal_code":"34876"},{"id":"1813020009","district_id":"1813020","name":"KOTA KARANG","postal_code":"34876"},{"id":"1813020010","district_id":"1813020","name":"BATURAJA","postal_code":"35367"},{"id":"1813020011","district_id":"1813020","name":"GEDAU","postal_code":"34876"},{"id":"1813020012","district_id":"1813020","name":"PEMANCAR","postal_code":"34876"}]