[{"id":"1901090014","district_id":"1901090","name":"KENANGA","postal_code":"15146"},{"id":"1901090015","district_id":"1901090","name":"REBO","postal_code":"33211"},{"id":"1901090016","district_id":"1901090","name":"PARIT PADANG","postal_code":"33215"},{"id":"1901090017","district_id":"1901090","name":"SRIMENANTI","postal_code":"33214"},{"id":"1901090018","district_id":"1901090","name":"SUNGAILIAT","postal_code":"33211"},{"id":"1901090019","district_id":"1901090","name":"KUDAY","postal_code":"28752"},{"id":"1901090020","district_id":"1901090","name":"SINAR BARU","postal_code":"21167"},{"id":"1901090021","district_id":"1901090","name":"LUBUK KELIK","postal_code":"30868"},{"id":"1901090022","district_id":"1901090","name":"SURYA TIMUR","postal_code":"32361"},{"id":"1901090023","district_id":"1901090","name":"JELITIK","postal_code":"79357"},{"id":"1901090024","district_id":"1901090","name":"BUKIT BETUNG","postal_code":"28471"},{"id":"1901090025","district_id":"1901090","name":"SINAR JAYA JELUTUNG","postal_code":"30757"},{"id":"1901090026","district_id":"1901090","name":"MATRAS","postal_code":"36365"}]