[{"id":"1902060007","district_id":"1902060","name":"BULUH TUMBANG","postal_code":"33411"},{"id":"1902060008","district_id":"1902060","name":"PERAWAS","postal_code":"33413"},{"id":"1902060009","district_id":"1902060","name":"LESUNG BATANG","postal_code":"33411"},{"id":"1902060010","district_id":"1902060","name":"PANGKALLALANG","postal_code":"33778"},{"id":"1902060011","district_id":"1902060","name":"DUKONG","postal_code":"33561"},{"id":"1902060012","district_id":"1902060","name":"JURU SEBERANG","postal_code":"33417"},{"id":"1902060013","district_id":"1902060","name":"KOTA","postal_code":"85575"},{"id":"1902060014","district_id":"1902060","name":"PARIT","postal_code":"30862"},{"id":"1902060015","district_id":"1902060","name":"TANJUNG PENDAM","postal_code":"33411"},{"id":"1902060016","district_id":"1902060","name":"AIR SAGA","postal_code":"33415"},{"id":"1902060017","district_id":"1902060","name":"PAAL SATU","postal_code":"33414"},{"id":"1902060018","district_id":"1902060","name":"AIR MERBAU","postal_code":"33411"},{"id":"1902060019","district_id":"1902060","name":"AIK KETEKOK","postal_code":"33411"},{"id":"1902060020","district_id":"1902060","name":"AIK RAYAK","postal_code":"33413"},{"id":"1902060021","district_id":"1902060","name":"AIK PELEMPANG JAYA","postal_code":"33414"},{"id":"1902060022","district_id":"1902060","name":"KAMPONG DAMAI","postal_code":"24164"}]