[{"id":"1903040001","district_id":"1903040","name":"KUNDI","postal_code":"33366"},{"id":"1903040002","district_id":"1903040","name":"SIMPANG TIGA","postal_code":"34767"},{"id":"1903040003","district_id":"1903040","name":"MAYANG","postal_code":"57557"},{"id":"1903040004","district_id":"1903040","name":"RAMBAT","postal_code":"58172"},{"id":"1903040005","district_id":"1903040","name":"SIMPANG GONG","postal_code":"31661"},{"id":"1903040006","district_id":"1903040","name":"PELANGAS","postal_code":"33366"},{"id":"1903040007","district_id":"1903040","name":"BERANG","postal_code":"33366"},{"id":"1903040008","district_id":"1903040","name":"IBUL","postal_code":"31171"},{"id":"1903040009","district_id":"1903040","name":"PERADONG","postal_code":"33366"},{"id":"1903040010","district_id":"1903040","name":"AIR NYATOH","postal_code":"33366"},{"id":"1903040011","district_id":"1903040","name":"PANGEK","postal_code":"33366"},{"id":"1903040012","district_id":"1903040","name":"AIR MENDUYUNG","postal_code":"33366"},{"id":"1903040013","district_id":"1903040","name":"BUKIT TERAK","postal_code":"33366"}]