[{"id":"1904030001","district_id":"1904030","name":"SUNGAI SELAN","postal_code":"33675"},{"id":"1904030002","district_id":"1904030","name":"LAMPUR","postal_code":"33675"},{"id":"1904030003","district_id":"1904030","name":"KERANTAI","postal_code":"33675"},{"id":"1904030008","district_id":"1904030","name":"KERETAK","postal_code":"33675"},{"id":"1904030009","district_id":"1904030","name":"SARANGMANDI","postal_code":"33675"},{"id":"1904030011","district_id":"1904030","name":"KEMINGKING","postal_code":"33675"},{"id":"1904030012","district_id":"1904030","name":"SUNGAI SELAN ATAS","postal_code":"33675"},{"id":"1904030013","district_id":"1904030","name":"RAMADHON","postal_code":"34371"},{"id":"1904030014","district_id":"1904030","name":"KERAKAS","postal_code":"33675"},{"id":"1904030015","district_id":"1904030","name":"TANJUNGPURA","postal_code":"46155"},{"id":"1904030016","district_id":"1904030","name":"KERETAK ATAS","postal_code":"33675"},{"id":"1904030017","district_id":"1904030","name":"MELABUN","postal_code":"33675"}]