[{"id":"3201270006","district_id":"3201270","name":"SUKARAKSA","postal_code":"16660"},{"id":"3201270009","district_id":"3201270","name":"SUKAMAJU","postal_code":"34763"},{"id":"3201270010","district_id":"3201270","name":"CIGUDEG","postal_code":"16660"},{"id":"3201270011","district_id":"3201270","name":"BANYU RESMI","postal_code":"16660"},{"id":"3201270012","district_id":"3201270","name":"WARGAJAYA","postal_code":"16660"},{"id":"3201270013","district_id":"3201270","name":"BUNAR","postal_code":"15610"},{"id":"3201270014","district_id":"3201270","name":"MEKARJAYA","postal_code":"46183"},{"id":"3201270015","district_id":"3201270","name":"CINTAMANIK","postal_code":"52466"},{"id":"3201270016","district_id":"3201270","name":"BANYU WANGI","postal_code":"16660"},{"id":"3201270017","district_id":"3201270","name":"BANYU ASIH","postal_code":"15530"},{"id":"3201270018","district_id":"3201270","name":"TEGALEGA","postal_code":"41363"},{"id":"3201270019","district_id":"3201270","name":"BATU JAJAR","postal_code":"16660"},{"id":"3201270020","district_id":"3201270","name":"RENGASJAJAR","postal_code":"16660"},{"id":"3201270021","district_id":"3201270","name":"BANGUNJAYA","postal_code":"66273"},{"id":"3201270022","district_id":"3201270","name":"ARGAPURA","postal_code":"99222"}]