[{"id":"3201090001","district_id":"3201090","name":"PASIR BUNCIR","postal_code":"16730"},{"id":"3201090002","district_id":"3201090","name":"CINAGARA","postal_code":"45574"},{"id":"3201090003","district_id":"3201090","name":"TANGKIL","postal_code":"66364"},{"id":"3201090004","district_id":"3201090","name":"PASIR MUNCANG","postal_code":"15610"},{"id":"3201090005","district_id":"3201090","name":"MUARA JAYA","postal_code":"37111"},{"id":"3201090006","district_id":"3201090","name":"CARINGIN","postal_code":"15730"},{"id":"3201090007","district_id":"3201090","name":"LEMAH DUHUR","postal_code":"16730"},{"id":"3201090008","district_id":"3201090","name":"CIMANDE","postal_code":"16730"},{"id":"3201090009","district_id":"3201090","name":"PANCAWATI","postal_code":"41371"},{"id":"3201090010","district_id":"3201090","name":"CIDERUM","postal_code":"16730"},{"id":"3201090011","district_id":"3201090","name":"CIHERANG PONDOK","postal_code":"16730"},{"id":"3201090012","district_id":"3201090","name":"CIMANDE HILIR","postal_code":"16730"}]