[{"id":"3201280003","district_id":"3201280","name":"PANGRADIN","postal_code":"16670"},{"id":"3201280004","district_id":"3201280","name":"KALONGSAWAH","postal_code":"16670"},{"id":"3201280005","district_id":"3201280","name":"SIPAK","postal_code":"16670"},{"id":"3201280006","district_id":"3201280","name":"PAMAGERSARI","postal_code":"16330"},{"id":"3201280007","district_id":"3201280","name":"JUGALA JAYA","postal_code":"16670"},{"id":"3201280009","district_id":"3201280","name":"TEGAL WANGI","postal_code":"68166"},{"id":"3201280010","district_id":"3201280","name":"KOLEANG","postal_code":"16670"},{"id":"3201280011","district_id":"3201280","name":"JASINGA","postal_code":"16670"},{"id":"3201280013","district_id":"3201280","name":"CIKOPOMAYAK","postal_code":"16670"},{"id":"3201280014","district_id":"3201280","name":"NEGLASARI","postal_code":"46185"},{"id":"3201280015","district_id":"3201280","name":"BAGOANG","postal_code":"16670"},{"id":"3201280016","district_id":"3201280","name":"BARENGKOK","postal_code":"42185"},{"id":"3201280017","district_id":"3201280","name":"PANGAUR","postal_code":"16670"},{"id":"3201280018","district_id":"3201280","name":"WIRAJAYA","postal_code":"51152"}]