[{"id":"3202200007","district_id":"3202200","name":"PADAASIH","postal_code":"45391"},{"id":"3202200008","district_id":"3202200","name":"CISAAT","postal_code":"43152"},{"id":"3202200009","district_id":"3202200","name":"BABAKAN","postal_code":"52181"},{"id":"3202200010","district_id":"3202200","name":"SUKAMANTRI","postal_code":"46156"},{"id":"3202200011","district_id":"3202200","name":"SUKAMANAH","postal_code":"46131"},{"id":"3202200012","district_id":"3202200","name":"NAGRAK","postal_code":"45392"},{"id":"3202200013","district_id":"3202200","name":"CIBATU","postal_code":"46186"},{"id":"3202200014","district_id":"3202200","name":"CIBOLANG KALER","postal_code":"43152"},{"id":"3202200015","district_id":"3202200","name":"KUTASIRNA","postal_code":"43152"},{"id":"3202200016","district_id":"3202200","name":"SELAJAMBE","postal_code":"43152"},{"id":"3202200017","district_id":"3202200","name":"SUKASARI","postal_code":"46471"},{"id":"3202200018","district_id":"3202200","name":"GUNUNGJAYA","postal_code":"43152"},{"id":"3202200019","district_id":"3202200","name":"SUKARESMI","postal_code":"43152"}]