[{"id":"3202280001","district_id":"3202280","name":"SAMPORA","postal_code":"15345"},{"id":"3202280002","district_id":"3202280","name":"CIJAMBE","postal_code":"45381"},{"id":"3202280003","district_id":"3202280","name":"CIKIRAY","postal_code":"43367"},{"id":"3202280004","district_id":"3202280","name":"MEKARNANGKA","postal_code":"43367"},{"id":"3202280005","district_id":"3202280","name":"CIKIDANG","postal_code":"43367"},{"id":"3202280006","district_id":"3202280","name":"GUNUNG MALANG","postal_code":"43367"},{"id":"3202280007","district_id":"3202280","name":"NANGKAKONENG","postal_code":"43367"},{"id":"3202280008","district_id":"3202280","name":"PANGKALAN","postal_code":"15510"},{"id":"3202280009","district_id":"3202280","name":"BUMISARI","postal_code":"43367"},{"id":"3202280010","district_id":"3202280","name":"CICAREUH","postal_code":"43367"},{"id":"3202280011","district_id":"3202280","name":"TAMANSARI","postal_code":"52473"},{"id":"3202280012","district_id":"3202280","name":"CIKARAE THOYIBAH","postal_code":"45462"}]