[{"id":"3203190001","district_id":"3203190","name":"SUKAMANAH","postal_code":"46131"},{"id":"3203190002","district_id":"3203190","name":"SINDANGASIH","postal_code":"46193"},{"id":"3203190003","district_id":"3203190","name":"LANGENSARI","postal_code":"43192"},{"id":"3203190004","district_id":"3203190","name":"SUKASARI","postal_code":"46471"},{"id":"3203190005","district_id":"3203190","name":"MALEBER","postal_code":"45575"},{"id":"3203190006","district_id":"3203190","name":"SABANDAR","postal_code":"43281"},{"id":"3203190007","district_id":"3203190","name":"BOJONG","postal_code":"56259"},{"id":"3203190008","district_id":"3203190","name":"HEGARMANAH","postal_code":"45363"},{"id":"3203190009","district_id":"3203190","name":"BABAKANCARINGIN","postal_code":"43281"},{"id":"3203190010","district_id":"3203190","name":"CIHERANG","postal_code":"46416"},{"id":"3203190011","district_id":"3203190","name":"SUKAJADI","postal_code":"34765"},{"id":"3203190012","district_id":"3203190","name":"SUKASARANA","postal_code":"43281"},{"id":"3203190013","district_id":"3203190","name":"SUKAMANTRI","postal_code":"46156"},{"id":"3203190014","district_id":"3203190","name":"SUKAMULYA","postal_code":"46151"},{"id":"3203190015","district_id":"3203190","name":"SINDANGLAKA","postal_code":"43281"},{"id":"3203190016","district_id":"3203190","name":"SUKATARIS","postal_code":"43281"}]