[{"id":"3203100001","district_id":"3203100","name":"KERTARAHARJA","postal_code":"46474"},{"id":"3203100002","district_id":"3203100","name":"PAGELARAN","postal_code":"43187"},{"id":"3203100003","district_id":"3203100","name":"PADAMAJU","postal_code":"43266"},{"id":"3203100008","district_id":"3203100","name":"BUNIWANGI","postal_code":"43179"},{"id":"3203100009","district_id":"3203100","name":"BUNIJAYA","postal_code":"43266"},{"id":"3203100010","district_id":"3203100","name":"PANGADEGAN","postal_code":"15560"},{"id":"3203100011","district_id":"3203100","name":"SITUHIANG","postal_code":"43266"},{"id":"3203100012","district_id":"3203100","name":"PASIRBARU","postal_code":"43366"},{"id":"3203100013","district_id":"3203100","name":"SINDANGKERTA","postal_code":"46189"},{"id":"3203100014","district_id":"3203100","name":"KARANGHARJA","postal_code":"15730"},{"id":"3203100015","district_id":"3203100","name":"SELAGEDANG","postal_code":"43266"},{"id":"3203100016","district_id":"3203100","name":"GELAR ANYAR","postal_code":"58164"},{"id":"3203100017","district_id":"3203100","name":"MEKARSARI","postal_code":"46156"},{"id":"3203100018","district_id":"3203100","name":"SUKAMAJU","postal_code":"34763"}]