[{"id":"3204040001","district_id":"3204040","name":"WANASUKA","postal_code":"40378"},{"id":"3204040002","district_id":"3204040","name":"BANJARSARI","postal_code":"66252"},{"id":"3204040003","district_id":"3204040","name":"MARGALUYU","postal_code":"46194"},{"id":"3204040004","district_id":"3204040","name":"SUKALUYU","postal_code":"46462"},{"id":"3204040005","district_id":"3204040","name":"WARNASARI","postal_code":"43151"},{"id":"3204040006","district_id":"3204040","name":"PULOSARI","postal_code":"66292"},{"id":"3204040007","district_id":"3204040","name":"MARGAMEKAR","postal_code":"45311"},{"id":"3204040008","district_id":"3204040","name":"SUKAMANAH","postal_code":"46131"},{"id":"3204040009","district_id":"3204040","name":"MARGAMUKTI","postal_code":"45321"},{"id":"3204040010","district_id":"3204040","name":"PANGALENGAN","postal_code":"40378"},{"id":"3204040011","district_id":"3204040","name":"MARGAMULYA","postal_code":"52472"},{"id":"3204040012","district_id":"3204040","name":"TRIBAKTIMULYA","postal_code":"40378"},{"id":"3204040013","district_id":"3204040","name":"LAMAJANG","postal_code":"40378"}]