[{"id":"3204100001","district_id":"3204100","name":"NAGROG","postal_code":"46189"},{"id":"3204100002","district_id":"3204100","name":"NARAWITA","postal_code":"40395"},{"id":"3204100003","district_id":"3204100","name":"MARGAASIH","postal_code":"40215"},{"id":"3204100004","district_id":"3204100","name":"CICALENGKA WETAN","postal_code":"40395"},{"id":"3204100005","district_id":"3204100","name":"CIKUYA","postal_code":"46188"},{"id":"3204100006","district_id":"3204100","name":"WALUYA","postal_code":"41358"},{"id":"3204100007","district_id":"3204100","name":"PANENJOAN","postal_code":"42195"},{"id":"3204100008","district_id":"3204100","name":"TENJOLAYA","postal_code":"43359"},{"id":"3204100009","district_id":"3204100","name":"CICALENGKA KULON","postal_code":"40395"},{"id":"3204100010","district_id":"3204100","name":"BABAKANPEUTEUY","postal_code":"45552"},{"id":"3204100011","district_id":"3204100","name":"DAMPIT","postal_code":"63285"},{"id":"3204100012","district_id":"3204100","name":"TANJUNGWANGI","postal_code":"45354"}]