[{"id":"3204110001","district_id":"3204110","name":"SUKAMANAH","postal_code":"46131"},{"id":"3204110002","district_id":"3204110","name":"TEGALSUMEDANG","postal_code":"45285"},{"id":"3204110003","district_id":"3204110","name":"RANCAEKEK KULON","postal_code":"40394"},{"id":"3204110004","district_id":"3204110","name":"RANCAEKEK WETAN","postal_code":"40394"},{"id":"3204110005","district_id":"3204110","name":"BOJONGLOA","postal_code":"15730"},{"id":"3204110006","district_id":"3204110","name":"JELEGONG","postal_code":"46352"},{"id":"3204110007","district_id":"3204110","name":"LINGGAR","postal_code":"40394"},{"id":"3204110008","district_id":"3204110","name":"SUKAMULYA","postal_code":"46151"},{"id":"3204110009","district_id":"3204110","name":"HAURPUGUR","postal_code":"40394"},{"id":"3204110010","district_id":"3204110","name":"SANGIANG","postal_code":"15520"},{"id":"3204110011","district_id":"3204110","name":"BOJONGSALAM","postal_code":"40566"},{"id":"3204110012","district_id":"3204110","name":"CANGKUANG","postal_code":"44119"},{"id":"3204110013","district_id":"3204110","name":"NANJUNGMEKAR","postal_code":"40394"},{"id":"3204110014","district_id":"3204110","name":"RANCAEKEK KENCANA","postal_code":"40394"}]