[{"id":"3205290002","district_id":"3205290","name":"CIJOLANG","postal_code":"44186"},{"id":"3205290003","district_id":"3205290","name":"CIGAGADE","postal_code":"44186"},{"id":"3205290004","district_id":"3205290","name":"PASIRWARU","postal_code":"42165"},{"id":"3205290005","district_id":"3205290","name":"LIMBANGANBARAT","postal_code":"44186"},{"id":"3205290006","district_id":"3205290","name":"LIMBANGANTENGAH","postal_code":"44186"},{"id":"3205290007","district_id":"3205290","name":"LIMBANGANTIMUR","postal_code":"44186"},{"id":"3205290008","district_id":"3205290","name":"DUNGUSWIRU","postal_code":"44186"},{"id":"3205290009","district_id":"3205290","name":"GALIHPAKUWON","postal_code":"44186"},{"id":"3205290010","district_id":"3205290","name":"NEGLASARI","postal_code":"46185"},{"id":"3205290011","district_id":"3205290","name":"SURABAYA","postal_code":"32366"},{"id":"3205290012","district_id":"3205290","name":"CIWANGI","postal_code":"41181"},{"id":"3205290013","district_id":"3205290","name":"PANGEUREUNAN","postal_code":"44186"},{"id":"3205290014","district_id":"3205290","name":"SIMPEN KIDUL","postal_code":"44186"},{"id":"3205290015","district_id":"3205290","name":"SIMPEN KALER","postal_code":"44186"}]