[{"id":"3206200001","district_id":"3206200","name":"SIRNAGALIH","postal_code":"46151"},{"id":"3206200002","district_id":"3206200","name":"KERSAMAJU","postal_code":"46463"},{"id":"3206200003","district_id":"3206200","name":"TANJUNGKARANG","postal_code":"46463"},{"id":"3206200004","district_id":"3206200","name":"NANGTANG","postal_code":"46463"},{"id":"3206200005","district_id":"3206200","name":"PUSPARAJA","postal_code":"46463"},{"id":"3206200006","district_id":"3206200","name":"JAYAPURA","postal_code":"32381"},{"id":"3206200007","district_id":"3206200","name":"LENGKONGJAYA","postal_code":"46463"},{"id":"3206200008","district_id":"3206200","name":"TENJONAGARA","postal_code":"46463"},{"id":"3206200009","district_id":"3206200","name":"NANGGERANG","postal_code":"46463"},{"id":"3206200010","district_id":"3206200","name":"SUKAMANAH","postal_code":"46131"},{"id":"3206200011","district_id":"3206200","name":"SIRNAPUTRA","postal_code":"46463"},{"id":"3206200012","district_id":"3206200","name":"SIRNARAJA","postal_code":"46463"},{"id":"3206200013","district_id":"3206200","name":"CIGALONTANG","postal_code":"46463"},{"id":"3206200014","district_id":"3206200","name":"PUSPAMUKTI","postal_code":"46463"},{"id":"3206200015","district_id":"3206200","name":"CIDUGALEUN","postal_code":"46463"},{"id":"3206200016","district_id":"3206200","name":"PARENTAS","postal_code":"46463"}]