[{"id":"3206110009","district_id":"3206110","name":"SUKARASA","postal_code":"46471"},{"id":"3206110010","district_id":"3206110","name":"JAHIANG","postal_code":"46471"},{"id":"3206110011","district_id":"3206110","name":"SUNDAWENANG","postal_code":"46471"},{"id":"3206110012","district_id":"3206110","name":"KAWUNGSARI","postal_code":"46471"},{"id":"3206110013","district_id":"3206110","name":"TENJOWARINGIN","postal_code":"46471"},{"id":"3206110014","district_id":"3206110","name":"KUTAWARINGIN","postal_code":"46471"},{"id":"3206110015","district_id":"3206110","name":"TANJUNGSARI","postal_code":"57672"},{"id":"3206110016","district_id":"3206110","name":"NEGLASARI","postal_code":"46185"},{"id":"3206110017","district_id":"3206110","name":"KARANGMUKTI","postal_code":"46471"},{"id":"3206110018","district_id":"3206110","name":"SALAWU","postal_code":"46471"},{"id":"3206110019","district_id":"3206110","name":"MARGALAKSANA","postal_code":"46183"},{"id":"3206110020","district_id":"3206110","name":"SERANG","postal_code":"56354"}]