[{"id":"3207270001","district_id":"3207270","name":"KERTAYASA","postal_code":"52181"},{"id":"3207270002","district_id":"3207270","name":"KARANGPANINGAL","postal_code":"46255"},{"id":"3207270003","district_id":"3207270","name":"INDRAGIRI","postal_code":"46255"},{"id":"3207270004","district_id":"3207270","name":"PANAWANGAN","postal_code":"46255"},{"id":"3207270005","district_id":"3207270","name":"SAGALAHERANG","postal_code":"41282"},{"id":"3207270006","district_id":"3207270","name":"NAGARAPAGEUH","postal_code":"46255"},{"id":"3207270007","district_id":"3207270","name":"NAGARAJAYA","postal_code":"46255"},{"id":"3207270008","district_id":"3207270","name":"NAGARAJATI","postal_code":"46255"},{"id":"3207270009","district_id":"3207270","name":"JAGABAYA","postal_code":"42352"},{"id":"3207270010","district_id":"3207270","name":"CINYASAG","postal_code":"46255"},{"id":"3207270011","district_id":"3207270","name":"GARDUJAYA","postal_code":"46255"},{"id":"3207270012","district_id":"3207270","name":"SADAPAINGAN","postal_code":"46255"},{"id":"3207270013","district_id":"3207270","name":"BANGUNJAYA","postal_code":"66273"},{"id":"3207270014","district_id":"3207270","name":"GIRILAYA","postal_code":"42372"},{"id":"3207270015","district_id":"3207270","name":"KERTAJAYA","postal_code":"60282"},{"id":"3207270016","district_id":"3207270","name":"NAGARAWANGI","postal_code":"46124"},{"id":"3207270017","district_id":"3207270","name":"NATANEGARA","postal_code":"46255"},{"id":"3207270018","district_id":"3207270","name":"MEKARBUANA","postal_code":"41362"}]