[{"id":"3207120001","district_id":"3207120","name":"SIDAMULIH","postal_code":"46365"},{"id":"3207120002","district_id":"3207120","name":"MARGAJAYA","postal_code":"46462"},{"id":"3207120003","district_id":"3207120","name":"NEGLASARI","postal_code":"46185"},{"id":"3207120004","district_id":"3207120","name":"PAMARICAN","postal_code":"46382"},{"id":"3207120005","district_id":"3207120","name":"SUKAHURIP","postal_code":"46189"},{"id":"3207120006","district_id":"3207120","name":"KERTAHAYU","postal_code":"46361"},{"id":"3207120007","district_id":"3207120","name":"SUKAJADI","postal_code":"34765"},{"id":"3207120008","district_id":"3207120","name":"SUKAMUKTI","postal_code":"46153"},{"id":"3207120009","district_id":"3207120","name":"SIDAHARJA","postal_code":"46382"},{"id":"3207120010","district_id":"3207120","name":"BANGUNSARI","postal_code":"63419"},{"id":"3207120011","district_id":"3207120","name":"SUKAJAYA","postal_code":"46151"},{"id":"3207120012","district_id":"3207120","name":"BANTARSARI","postal_code":"46151"},{"id":"3207120013","district_id":"3207120","name":"PASIRNAGARA","postal_code":"46382"},{"id":"3207120014","district_id":"3207120","name":"MEKARMULYA","postal_code":"45371"}]