[{"id":"3208111001","district_id":"3208111","name":"CIPAKEM","postal_code":"45575"},{"id":"3208111002","district_id":"3208111","name":"GIRIWARINGIN","postal_code":"45575"},{"id":"3208111003","district_id":"3208111","name":"GARAHAJI","postal_code":"45575"},{"id":"3208111004","district_id":"3208111","name":"GALAHERANG","postal_code":"45575"},{"id":"3208111005","district_id":"3208111","name":"MEKARSARI","postal_code":"46156"},{"id":"3208111006","district_id":"3208111","name":"PADAMULYA","postal_code":"41257"},{"id":"3208111007","district_id":"3208111","name":"CIKAHURIPAN","postal_code":"45364"},{"id":"3208111008","district_id":"3208111","name":"PARAKAN","postal_code":"66317"},{"id":"3208111009","district_id":"3208111","name":"KUTAMANDARAKAN","postal_code":"45575"},{"id":"3208111010","district_id":"3208111","name":"MALEBER","postal_code":"45575"},{"id":"3208111011","district_id":"3208111","name":"KARANGTENGAH","postal_code":"57677"},{"id":"3208111012","district_id":"3208111","name":"DUKUHTENGAH","postal_code":"52465"},{"id":"3208111013","district_id":"3208111","name":"BUNIASIH","postal_code":"46156"},{"id":"3208111014","district_id":"3208111","name":"CIPORANG","postal_code":"45514"},{"id":"3208111015","district_id":"3208111","name":"KUTARAJA","postal_code":"45574"},{"id":"3208111016","district_id":"3208111","name":"MANDALAJAYA","postal_code":"46195"}]