[{"id":"3208180001","district_id":"3208180","name":"TRIJAYA","postal_code":"31652"},{"id":"3208180002","district_id":"3208180","name":"RANDOBAWAGIRANG","postal_code":"45558"},{"id":"3208180003","district_id":"3208180","name":"SALAKADOMAS","postal_code":"45558"},{"id":"3208180004","district_id":"3208180","name":"PAKEMBANGAN","postal_code":"45558"},{"id":"3208180007","district_id":"3208180","name":"RANDOBAWAILIR","postal_code":"45558"},{"id":"3208180008","district_id":"3208180","name":"KERTAWINANGUN","postal_code":"45457"},{"id":"3208180009","district_id":"3208180","name":"SEDA","postal_code":"45558"},{"id":"3208180010","district_id":"3208180","name":"NANGGERANGJAYA","postal_code":"45558"},{"id":"3208180011","district_id":"3208180","name":"SUKASARI","postal_code":"46471"},{"id":"3208180012","district_id":"3208180","name":"CIREA","postal_code":"45558"},{"id":"3208180013","district_id":"3208180","name":"NANGGELA","postal_code":"45558"},{"id":"3208180014","district_id":"3208180","name":"MANDIRANCAN","postal_code":"45558"}]