[{"id":"3209171001","district_id":"3209171","name":"ADIDHARMA","postal_code":"45151"},{"id":"3209171002","district_id":"3209171","name":"PASINDANGAN","postal_code":"45458"},{"id":"3209171003","district_id":"3209171","name":"JADIMULYA","postal_code":"46391"},{"id":"3209171004","district_id":"3209171","name":"KLAYAN","postal_code":"45151"},{"id":"3209171005","district_id":"3209171","name":"JATIMERTA","postal_code":"45151"},{"id":"3209171006","district_id":"3209171","name":"ASTANA","postal_code":"45151"},{"id":"3209171007","district_id":"3209171","name":"KALISAPU","postal_code":"52416"},{"id":"3209171008","district_id":"3209171","name":"WANAKAYA","postal_code":"45264"},{"id":"3209171009","district_id":"3209171","name":"GROGOL","postal_code":"52192"},{"id":"3209171010","district_id":"3209171","name":"BABADAN","postal_code":"66253"},{"id":"3209171012","district_id":"3209171","name":"MAYUNG","postal_code":"45151"},{"id":"3209171013","district_id":"3209171","name":"SAMBENG","postal_code":"54224"},{"id":"3209171014","district_id":"3209171","name":"SIRNABAYA","postal_code":"41361"},{"id":"3209171015","district_id":"3209171","name":"MERTASINGA","postal_code":"45151"}]