[{"id":"3209061001","district_id":"3209061","name":"KARANGMANGU","postal_code":"52184"},{"id":"3209061002","district_id":"3209061","name":"KALIGAWE","postal_code":"50164"},{"id":"3209061003","district_id":"3209061","name":"KALIGAWE WETAN","postal_code":"45185"},{"id":"3209061004","district_id":"3209061","name":"CURUG WETAN","postal_code":"15810"},{"id":"3209061006","district_id":"3209061","name":"WILULANG","postal_code":"45185"},{"id":"3209061007","district_id":"3209061","name":"SUSUKAN AGUNG","postal_code":"45185"},{"id":"3209061008","district_id":"3209061","name":"SUSUKAN LEBAK","postal_code":"45185"},{"id":"3209061009","district_id":"3209061","name":"SUSUKAN TONGGOH","postal_code":"45185"},{"id":"3209061010","district_id":"3209061","name":"SAMPIH","postal_code":"51181"},{"id":"3209061011","district_id":"3209061","name":"PASAWAHAN","postal_code":"43359"},{"id":"3209061012","district_id":"3209061","name":"CIAWI ASIH","postal_code":"46156"},{"id":"3209061013","district_id":"3209061","name":"CIAWIJAPURA","postal_code":"45185"}]