[{"id":"3210020009","district_id":"3210020","name":"SINDANGHURIP","postal_code":"45464"},{"id":"3210020010","district_id":"3210020","name":"CIPEUNDEUY","postal_code":"45376"},{"id":"3210020012","district_id":"3210020","name":"CIMANGGUHILIR","postal_code":"45464"},{"id":"3210020013","district_id":"3210020","name":"SALAWANGI","postal_code":"45464"},{"id":"3210020014","district_id":"3210020","name":"SILIHWANGI","postal_code":"45464"},{"id":"3210020015","district_id":"3210020","name":"WADOWETAN","postal_code":"45464"},{"id":"3210020016","district_id":"3210020","name":"BANTARUJEG","postal_code":"45464"},{"id":"3210020017","district_id":"3210020","name":"BABAKANSARI","postal_code":"41162"},{"id":"3210020018","district_id":"3210020","name":"GUNUNGLARANG","postal_code":"45464"},{"id":"3210020019","district_id":"3210020","name":"CIKIDANG","postal_code":"43367"},{"id":"3210020020","district_id":"3210020","name":"CINAMBO","postal_code":"45464"},{"id":"3210020021","district_id":"3210020","name":"HAURGEULIS","postal_code":"45464"},{"id":"3210020022","district_id":"3210020","name":"SUKAMENAK","postal_code":"46196"}]