[{"id":"3211080003","district_id":"3211080","name":"NEGLASARI","postal_code":"46185"},{"id":"3211080004","district_id":"3211080","name":"SUKAMENAK","postal_code":"46196"},{"id":"3211080005","district_id":"3211080","name":"JATIBUNGUR","postal_code":"45372"},{"id":"3211080006","district_id":"3211080","name":"DARMAJAYA","postal_code":"45372"},{"id":"3211080007","district_id":"3211080","name":"DARMARAJA","postal_code":"45372"},{"id":"3211080008","district_id":"3211080","name":"CIPEUTEUY","postal_code":"45372"},{"id":"3211080011","district_id":"3211080","name":"CIKEUSI","postal_code":"45372"},{"id":"3211080012","district_id":"3211080","name":"CIEUNTEUNG","postal_code":"45372"},{"id":"3211080013","district_id":"3211080","name":"TARUNAJAYA","postal_code":"46183"},{"id":"3211080014","district_id":"3211080","name":"SUKARATU","postal_code":"46415"},{"id":"3211080015","district_id":"3211080","name":"LEUWIHIDEUNG","postal_code":"45372"},{"id":"3211080016","district_id":"3211080","name":"CIBOGO","postal_code":"15344"},{"id":"3211080017","district_id":"3211080","name":"CIPAKU","postal_code":"45372"},{"id":"3211080018","district_id":"3211080","name":"KARANG PAKUAN","postal_code":"45372"},{"id":"3211080019","district_id":"3211080","name":"PAKU ALAM","postal_code":"15570"},{"id":"3211080020","district_id":"3211080","name":"RANGGON","postal_code":"45372"}]