[{"id":"3211070001","district_id":"3211070","name":"BANGBAYANG","postal_code":"45371"},{"id":"3211070002","district_id":"3211070","name":"KADUWULUNG","postal_code":"45371"},{"id":"3211070011","district_id":"3211070","name":"CIJATI","postal_code":"45371"},{"id":"3211070012","district_id":"3211070","name":"MEKARMULYA","postal_code":"45371"},{"id":"3211070013","district_id":"3211070","name":"CIKADU","postal_code":"46153"},{"id":"3211070014","district_id":"3211070","name":"KARANGHEULEUT","postal_code":"45371"},{"id":"3211070015","district_id":"3211070","name":"CIJELER","postal_code":"45371"},{"id":"3211070016","district_id":"3211070","name":"AMBIT","postal_code":"45371"},{"id":"3211070017","district_id":"3211070","name":"SUKATALI","postal_code":"45371"},{"id":"3211070018","district_id":"3211070","name":"SITURAJA","postal_code":"45371"},{"id":"3211070019","district_id":"3211070","name":"JATIMEKAR","postal_code":"45371"},{"id":"3211070020","district_id":"3211070","name":"SITURAJA UTARA","postal_code":"45371"},{"id":"3211070021","district_id":"3211070","name":"MALAKA","postal_code":"45371"},{"id":"3211070022","district_id":"3211070","name":"PAMULIHAN","postal_code":"45365"},{"id":"3211070023","district_id":"3211070","name":"CICARIMANAH","postal_code":"45382"}]