[{"id":"3212190002","district_id":"3212190","name":"PRANTI","postal_code":"61253"},{"id":"3212190003","district_id":"3212190","name":"WIRAKANAN","postal_code":"45254"},{"id":"3212190004","district_id":"3212190","name":"KARANGMULYA","postal_code":"52182"},{"id":"3212190005","district_id":"3212190","name":"KARANGANYAR","postal_code":"56362"},{"id":"3212190006","district_id":"3212190","name":"WIRAPANJUNAN","postal_code":"45254"},{"id":"3212190007","district_id":"3212190","name":"PAREAN GIRANG","postal_code":"45254"},{"id":"3212190008","district_id":"3212190","name":"BULAK","postal_code":"60124"},{"id":"3212190009","district_id":"3212190","name":"ILIR","postal_code":"45254"},{"id":"3212190010","district_id":"3212190","name":"SOGE","postal_code":"45254"},{"id":"3212190011","district_id":"3212190","name":"ERETAN WETAN","postal_code":"45254"},{"id":"3212190012","district_id":"3212190","name":"ERETAN KULON","postal_code":"45254"},{"id":"3212190013","district_id":"3212190","name":"KERTAWINANGUN","postal_code":"45457"}]