[{"id":"3212080007","district_id":"3212080","name":"TULUNGAGUNG","postal_code":"45274"},{"id":"3212080008","district_id":"3212080","name":"JENGKOK","postal_code":"45274"},{"id":"3212080009","district_id":"3212080","name":"TEGALWIRANGRONG","postal_code":"45274"},{"id":"3212080010","district_id":"3212080","name":"MANGUNTARA","postal_code":"45274"},{"id":"3212080011","district_id":"3212080","name":"JAMBE","postal_code":"15720"},{"id":"3212080012","district_id":"3212080","name":"LEMAHAYU","postal_code":"45274"},{"id":"3212080013","district_id":"3212080","name":"TENAJAR KIDUL","postal_code":"45274"},{"id":"3212080014","district_id":"3212080","name":"KERTASEMAYA","postal_code":"45274"},{"id":"3212080015","district_id":"3212080","name":"KLIWED","postal_code":"45274"},{"id":"3212080016","district_id":"3212080","name":"TENAJAR","postal_code":"45274"},{"id":"3212080017","district_id":"3212080","name":"LARANGANJAMBE","postal_code":"45274"},{"id":"3212080018","district_id":"3212080","name":"TENAJAR LOR","postal_code":"45274"},{"id":"3212080019","district_id":"3212080","name":"SUKAWERA","postal_code":"45456"}]