[{"id":"3214030001","district_id":"3214030","name":"SUKAHAJI","postal_code":"41256"},{"id":"3214030002","district_id":"3214030","name":"KAROYA","postal_code":"41165"},{"id":"3214030003","district_id":"3214030","name":"CADASSARI","postal_code":"41165"},{"id":"3214030004","district_id":"3214030","name":"CADASMEKAR","postal_code":"41165"},{"id":"3214030005","district_id":"3214030","name":"CITALANG","postal_code":"41111"},{"id":"3214030006","district_id":"3214030","name":"BATUTUMPANG","postal_code":"41165"},{"id":"3214030007","district_id":"3214030","name":"TEGALWARU","postal_code":"41165"},{"id":"3214030008","district_id":"3214030","name":"TEGALSARI","postal_code":"56353"},{"id":"3214030009","district_id":"3214030","name":"WARUNGJERUK","postal_code":"41165"},{"id":"3214030010","district_id":"3214030","name":"GALUMPIT","postal_code":"41165"},{"id":"3214030011","district_id":"3214030","name":"CISARUA","postal_code":"46198"},{"id":"3214030012","district_id":"3214030","name":"SUKAMULYA","postal_code":"46151"},{"id":"3214030013","district_id":"3214030","name":"PASANGGRAHAN","postal_code":"15730"}]