[{"id":"3216130001","district_id":"3216130","name":"BANTARSARI","postal_code":"46151"},{"id":"3216130002","district_id":"3216130","name":"BANTARJAYA","postal_code":"16310"},{"id":"3216130003","district_id":"3216130","name":"KERTASARI","postal_code":"52182"},{"id":"3216130004","district_id":"3216130","name":"KERTAJAYA","postal_code":"60282"},{"id":"3216130005","district_id":"3216130","name":"KARANGHAUR","postal_code":"17710"},{"id":"3216130006","district_id":"3216130","name":"KARANGPATRI","postal_code":"17710"},{"id":"3216130007","district_id":"3216130","name":"KARANGREJA","postal_code":"53357"},{"id":"3216130008","district_id":"3216130","name":"KARANGJAYA","postal_code":"46198"},{"id":"3216130009","district_id":"3216130","name":"SUMBERSARI","postal_code":"56365"},{"id":"3216130010","district_id":"3216130","name":"SUMBERREJA","postal_code":"17710"},{"id":"3216130011","district_id":"3216130","name":"SUMBERURIP","postal_code":"67374"},{"id":"3216130012","district_id":"3216130","name":"KARANGSEGAR","postal_code":"17710"},{"id":"3216130013","district_id":"3216130","name":"KARANGHARJA","postal_code":"15730"}]