[{"id":"3217060001","district_id":"3217060","name":"CINTAASIH","postal_code":"45467"},{"id":"3217060002","district_id":"3217060","name":"KARANGSARI","postal_code":"56373"},{"id":"3217060003","district_id":"3217060","name":"NEGLASARI","postal_code":"46185"},{"id":"3217060004","district_id":"3217060","name":"GIRIMUKTI","postal_code":"46475"},{"id":"3217060005","district_id":"3217060","name":"CIJENUK","postal_code":"40564"},{"id":"3217060006","district_id":"3217060","name":"CICANGKANG HILIR","postal_code":"40564"},{"id":"3217060007","district_id":"3217060","name":"SUKAMULYA","postal_code":"46151"},{"id":"3217060008","district_id":"3217060","name":"CITALEM","postal_code":"40564"},{"id":"3217060009","district_id":"3217060","name":"MEKARSARI","postal_code":"46156"},{"id":"3217060010","district_id":"3217060","name":"SARINAGEN","postal_code":"40564"},{"id":"3217060011","district_id":"3217060","name":"CIBENDA","postal_code":"43177"},{"id":"3217060012","district_id":"3217060","name":"CIJAMBU","postal_code":"45362"},{"id":"3217060013","district_id":"3217060","name":"SIRNAGALIH","postal_code":"46151"},{"id":"3217060014","district_id":"3217060","name":"BARANANGSIANG","postal_code":"16143"}]