[{"id":"3302220002","district_id":"3302220","name":"PLIKEN","postal_code":"53182"},{"id":"3302220003","district_id":"3302220","name":"PURWODADI","postal_code":"56261"},{"id":"3302220004","district_id":"3302220","name":"KARANGTENGAH","postal_code":"57677"},{"id":"3302220005","district_id":"3302220","name":"KRAMAT","postal_code":"56271"},{"id":"3302220006","district_id":"3302220","name":"SAMBENG WETAN","postal_code":"53182"},{"id":"3302220007","district_id":"3302220","name":"SAMBENG KULON","postal_code":"53182"},{"id":"3302220008","district_id":"3302220","name":"PURBADANA","postal_code":"53182"},{"id":"3302220009","district_id":"3302220","name":"KEMBARAN","postal_code":"56372"},{"id":"3302220010","district_id":"3302220","name":"BOJONGSARI","postal_code":"46188"},{"id":"3302220011","district_id":"3302220","name":"KARANGSOKA","postal_code":"53182"},{"id":"3302220012","district_id":"3302220","name":"DUKUHWALUH","postal_code":"53182"},{"id":"3302220013","district_id":"3302220","name":"TAMBAKSARI KIDUL","postal_code":"53182"},{"id":"3302220014","district_id":"3302220","name":"BANTARWUNI","postal_code":"53182"},{"id":"3302220015","district_id":"3302220","name":"KARANGSARI","postal_code":"56373"},{"id":"3302220016","district_id":"3302220","name":"LINGGASARI","postal_code":"41163"}]