[{"id":"3304140001","district_id":"3304140","name":"NAGASARI","postal_code":"30865"},{"id":"3304140002","district_id":"3304140","name":"ARIBAYA","postal_code":"53455"},{"id":"3304140003","district_id":"3304140","name":"LARANGAN","postal_code":"61271"},{"id":"3304140004","district_id":"3304140","name":"KARANGNANGKA","postal_code":"69456"},{"id":"3304140005","district_id":"3304140","name":"SOKARAJA","postal_code":"53455"},{"id":"3304140006","district_id":"3304140","name":"METAWANA","postal_code":"53455"},{"id":"3304140007","district_id":"3304140","name":"GUMINGSIR","postal_code":"53455"},{"id":"3304140008","district_id":"3304140","name":"KAYUARES","postal_code":"53455"},{"id":"3304140009","district_id":"3304140","name":"KALITLAGA","postal_code":"53455"},{"id":"3304140010","district_id":"3304140","name":"PLUMBUNGAN","postal_code":"52181"},{"id":"3304140011","district_id":"3304140","name":"KAREKAN","postal_code":"53455"},{"id":"3304140012","district_id":"3304140","name":"KASMARAN","postal_code":"30752"},{"id":"3304140013","district_id":"3304140","name":"PAGENTAN","postal_code":"65153"},{"id":"3304140014","district_id":"3304140","name":"MAJASARI","postal_code":"41285"},{"id":"3304140015","district_id":"3304140","name":"BABADAN","postal_code":"66253"},{"id":"3304140016","district_id":"3304140","name":"TEGALJERUK","postal_code":"53455"}]