[{"id":"3304150001","district_id":"3304150","name":"KALILUNJAR","postal_code":"53452"},{"id":"3304150002","district_id":"3304150","name":"BITING","postal_code":"57695"},{"id":"3304150003","district_id":"3304150","name":"TLAHAB","postal_code":"51356"},{"id":"3304150004","district_id":"3304150","name":"DERMAYASA","postal_code":"62371"},{"id":"3304150005","district_id":"3304150","name":"PEJAWARAN","postal_code":"53454"},{"id":"3304150006","district_id":"3304150","name":"PEGUNDUNGAN","postal_code":"53454"},{"id":"3304150007","district_id":"3304150","name":"BEJI","postal_code":"57671"},{"id":"3304150008","district_id":"3304150","name":"SEMANGKUNG","postal_code":"53454"},{"id":"3304150009","district_id":"3304150","name":"CONDONGCAMPUR","postal_code":"54362"},{"id":"3304150010","district_id":"3304150","name":"GEMBOL","postal_code":"63257"},{"id":"3304150011","district_id":"3304150","name":"SIDENGOK","postal_code":"53454"},{"id":"3304150012","district_id":"3304150","name":"RATAMBA","postal_code":"53454"},{"id":"3304150013","district_id":"3304150","name":"PENUSUPAN","postal_code":"52471"},{"id":"3304150014","district_id":"3304150","name":"GIRITIRTA","postal_code":"53454"},{"id":"3304150015","district_id":"3304150","name":"KARANGSARI","postal_code":"56373"},{"id":"3304150016","district_id":"3304150","name":"SARWODADI","postal_code":"52352"},{"id":"3304150017","district_id":"3304150","name":"GROGOL","postal_code":"52192"}]