[{"id":"3305130001","district_id":"3305130","name":"LOGEDE","postal_code":"59253"},{"id":"3305130002","district_id":"3305130","name":"KUWAYUHAN","postal_code":"54361"},{"id":"3305130003","district_id":"3305130","name":"KEDAWUNG","postal_code":"56281"},{"id":"3305130004","district_id":"3305130","name":"PEJAGOAN","postal_code":"54361"},{"id":"3305130005","district_id":"3305130","name":"KEBULUSAN","postal_code":"54361"},{"id":"3305130006","district_id":"3305130","name":"ADITIRTO","postal_code":"54361"},{"id":"3305130007","district_id":"3305130","name":"KARANGPOH","postal_code":"54361"},{"id":"3305130009","district_id":"3305130","name":"PRIGI","postal_code":"66382"},{"id":"3305130010","district_id":"3305130","name":"KEBAGORAN","postal_code":"54361"},{"id":"3305130011","district_id":"3305130","name":"PENGARINGAN","postal_code":"32156"},{"id":"3305130012","district_id":"3305130","name":"PENIRON","postal_code":"54361"},{"id":"3305130013","district_id":"3305130","name":"WATULAWANG","postal_code":"54361"}]