[{"id":"3305180001","district_id":"3305180","name":"SIDOHARUM","postal_code":"54421"},{"id":"3305180002","district_id":"3305180","name":"SELOKERTO","postal_code":"54421"},{"id":"3305180003","district_id":"3305180","name":"KALIBEJI","postal_code":"50773"},{"id":"3305180004","district_id":"3305180","name":"JATINEGORO","postal_code":"54421"},{"id":"3305180005","district_id":"3305180","name":"BEJIRUYUNG","postal_code":"54421"},{"id":"3305180007","district_id":"3305180","name":"KEDUNGJATI","postal_code":"52183"},{"id":"3305180008","district_id":"3305180","name":"SEMALI","postal_code":"54421"},{"id":"3305180009","district_id":"3305180","name":"BONOSARI","postal_code":"54421"},{"id":"3305180010","district_id":"3305180","name":"SEMPOR","postal_code":"54421"},{"id":"3305180011","district_id":"3305180","name":"TUNJUNGSETO","postal_code":"54421"},{"id":"3305180012","district_id":"3305180","name":"SAMPANG","postal_code":"54421"},{"id":"3305180013","district_id":"3305180","name":"DONOROJO","postal_code":"56259"},{"id":"3305180014","district_id":"3305180","name":"KEDUNGWRINGIN","postal_code":"54421"},{"id":"3305180016","district_id":"3305180","name":"SOMAGEDE","postal_code":"54421"}]