[{"id":"3305100002","district_id":"3305100","name":"TANJUNGMERU","postal_code":"54393"},{"id":"3305100003","district_id":"3305100","name":"KUWARISAN","postal_code":"54393"},{"id":"3305100004","district_id":"3305100","name":"KUTOWINANGUN","postal_code":"50742"},{"id":"3305100005","district_id":"3305100","name":"LUNDONG","postal_code":"54393"},{"id":"3305100006","district_id":"3305100","name":"MEKARSARI","postal_code":"46156"},{"id":"3305100007","district_id":"3305100","name":"BABADSARI","postal_code":"42263"},{"id":"3305100008","district_id":"3305100","name":"UNGARAN","postal_code":"50511"},{"id":"3305100009","district_id":"3305100","name":"MRINEN","postal_code":"54393"},{"id":"3305100010","district_id":"3305100","name":"PEJAGATAN","postal_code":"54393"},{"id":"3305100011","district_id":"3305100","name":"TRIWARNO","postal_code":"54171"},{"id":"3305100012","district_id":"3305100","name":"KOROWELANG","postal_code":"59254"},{"id":"3305100013","district_id":"3305100","name":"JLEGIWINANGUN","postal_code":"54393"},{"id":"3305100015","district_id":"3305100","name":"TANJUNGSARI","postal_code":"57672"},{"id":"3305100016","district_id":"3305100","name":"KALIPUTIH","postal_code":"56361"},{"id":"3305100017","district_id":"3305100","name":"TUNJUNGSETO","postal_code":"54421"},{"id":"3305100018","district_id":"3305100","name":"PESALAKAN","postal_code":"54393"},{"id":"3305100019","district_id":"3305100","name":"KARANGSARI","postal_code":"56373"}]