[{"id":"3305040001","district_id":"3305040","name":"KARANGREJO","postal_code":"56361"},{"id":"3305040002","district_id":"3305040","name":"KARANGGADUNG","postal_code":"54382"},{"id":"3305040003","district_id":"3305040","name":"TEGALRETNO","postal_code":"54382"},{"id":"3305040004","district_id":"3305040","name":"AMPELSARI","postal_code":"67175"},{"id":"3305040006","district_id":"3305040","name":"KEWANGUNAN","postal_code":"99665"},{"id":"3305040007","district_id":"3305040","name":"KARANGDUWUR","postal_code":"56372"},{"id":"3305040008","district_id":"3305040","name":"PETANAHAN","postal_code":"54382"},{"id":"3305040009","district_id":"3305040","name":"KEBONSARI","postal_code":"62317"},{"id":"3305040010","district_id":"3305040","name":"GROGOLPENATUS","postal_code":"54382"},{"id":"3305040011","district_id":"3305040","name":"GROGOLBENINGSARI","postal_code":"54382"},{"id":"3305040012","district_id":"3305040","name":"JOGOMERTAN","postal_code":"61483"},{"id":"3305040013","district_id":"3305040","name":"TANJUNGSARI","postal_code":"57672"},{"id":"3305040014","district_id":"3305040","name":"SIDOMULYO","postal_code":"66262"},{"id":"3305040015","district_id":"3305040","name":"GRUJUGAN","postal_code":"69472"},{"id":"3305040016","district_id":"3305040","name":"KRITIG","postal_code":"54382"},{"id":"3305040017","district_id":"3305040","name":"NAMPUDADI","postal_code":"54382"},{"id":"3305040018","district_id":"3305040","name":"TRESNOREJO","postal_code":"54382"},{"id":"3305040019","district_id":"3305040","name":"PODOURIP","postal_code":"54382"},{"id":"3305040020","district_id":"3305040","name":"JATIMULYO","postal_code":"66261"},{"id":"3305040021","district_id":"3305040","name":"BANJARWINANGUN","postal_code":"54382"}]