[{"id":"3307051001","district_id":"3307051","name":"SEMPOL","postal_code":"56362"},{"id":"3307051002","district_id":"3307051","name":"KARANGANYAR","postal_code":"56362"},{"id":"3307051003","district_id":"3307051","name":"ROGOJATI","postal_code":"56362"},{"id":"3307051004","district_id":"3307051","name":"SUKOHARJO","postal_code":"56362"},{"id":"3307051005","district_id":"3307051","name":"MERGOSARI","postal_code":"56362"},{"id":"3307051006","district_id":"3307051","name":"KUPANGAN","postal_code":"56362"},{"id":"3307051007","district_id":"3307051","name":"KAJEKSAN","postal_code":"56362"},{"id":"3307051009","district_id":"3307051","name":"GUMIWANG","postal_code":"56362"},{"id":"3307051010","district_id":"3307051","name":"PLODONGAN","postal_code":"56362"},{"id":"3307051011","district_id":"3307051","name":"SUROYUDAN","postal_code":"56362"},{"id":"3307051013","district_id":"3307051","name":"PUCUNGWETAN","postal_code":"56196"},{"id":"3307051014","district_id":"3307051","name":"TLOGO","postal_code":"56353"},{"id":"3307051015","district_id":"3307051","name":"KALIBENING","postal_code":"56362"},{"id":"3307051016","district_id":"3307051","name":"GARUNGLOR","postal_code":"56362"},{"id":"3307051017","district_id":"3307051","name":"JEBENGPLAMPITAN","postal_code":"56362"}]