[{"id":"3308050001","district_id":"3308050","name":"SUDIMORO","postal_code":"35386"},{"id":"3308050003","district_id":"3308050","name":"KALIURANG","postal_code":"56483"},{"id":"3308050004","district_id":"3308050","name":"KEMIREN","postal_code":"56483"},{"id":"3308050005","district_id":"3308050","name":"KAMONGAN","postal_code":"56483"},{"id":"3308050006","district_id":"3308050","name":"JERUKAGUNG","postal_code":"56483"},{"id":"3308050007","district_id":"3308050","name":"KRADENAN","postal_code":"62391"},{"id":"3308050008","district_id":"3308050","name":"BANYUADEM","postal_code":"56483"},{"id":"3308050009","district_id":"3308050","name":"NGABLAK","postal_code":"59157"},{"id":"3308050011","district_id":"3308050","name":"BRINGIN","postal_code":"62357"},{"id":"3308050012","district_id":"3308050","name":"MRANGGEN","postal_code":"57513"},{"id":"3308050013","district_id":"3308050","name":"NGARGOSOKO","postal_code":"56153"},{"id":"3308050014","district_id":"3308050","name":"POLENGAN","postal_code":"56483"},{"id":"3308050015","district_id":"3308050","name":"PUCANGANOM","postal_code":"57678"},{"id":"3308050016","district_id":"3308050","name":"PANDANRETNO","postal_code":"56163"},{"id":"3308050017","district_id":"3308050","name":"TEGALRANDU","postal_code":"56483"}]