[{"id":"3309070001","district_id":"3309070","name":"KOPEN","postal_code":"57693"},{"id":"3309070002","district_id":"3309070","name":"DOPLANG","postal_code":"50661"},{"id":"3309070003","district_id":"3309070","name":"KADIRESO","postal_code":"57372"},{"id":"3309070005","district_id":"3309070","name":"SUDIMORO","postal_code":"35386"},{"id":"3309070006","district_id":"3309070","name":"BANGSALAN","postal_code":"63474"},{"id":"3309070007","district_id":"3309070","name":"SALAKAN","postal_code":"57372"},{"id":"3309070008","district_id":"3309070","name":"TERAS","postal_code":"42195"},{"id":"3309070009","district_id":"3309070","name":"RANDUSARI","postal_code":"57694"},{"id":"3309070010","district_id":"3309070","name":"MOJOLEGI","postal_code":"67292"},{"id":"3309070011","district_id":"3309070","name":"GUMUKREJO","postal_code":"57372"},{"id":"3309070012","district_id":"3309070","name":"TAWANGSARI","postal_code":"56313"},{"id":"3309070013","district_id":"3309070","name":"KRASAK","postal_code":"56351"}]