[{"id":"3309040001","district_id":"3309040","name":"LAMPAR","postal_code":"57331"},{"id":"3309040002","district_id":"3309040","name":"DRAGAN","postal_code":"57331"},{"id":"3309040003","district_id":"3309040","name":"KARANGANYAR","postal_code":"56362"},{"id":"3309040004","district_id":"3309040","name":"JEMOWO","postal_code":"57331"},{"id":"3309040006","district_id":"3309040","name":"SANGUP","postal_code":"57331"},{"id":"3309040007","district_id":"3309040","name":"MRIYAN","postal_code":"57331"},{"id":"3309040008","district_id":"3309040","name":"LANJARAN","postal_code":"57331"},{"id":"3309040009","district_id":"3309040","name":"KARANGKENDAL","postal_code":"45152"},{"id":"3309040010","district_id":"3309040","name":"KEPOSONG","postal_code":"57331"},{"id":"3309040011","district_id":"3309040","name":"PAGERJURANG","postal_code":"57331"},{"id":"3309040012","district_id":"3309040","name":"SUKOREJO","postal_code":"56351"},{"id":"3309040013","district_id":"3309040","name":"SRUNI","postal_code":"61254"},{"id":"3309040014","district_id":"3309040","name":"CLUNTANG","postal_code":"57331"},{"id":"3309040015","district_id":"3309040","name":"KEMBANGSARI","postal_code":"56281"},{"id":"3309040016","district_id":"3309040","name":"RINGINLARIK","postal_code":"58164"},{"id":"3309040017","district_id":"3309040","name":"KEBONGULO","postal_code":"57331"},{"id":"3309040019","district_id":"3309040","name":"SUKORAME","postal_code":"66372"},{"id":"3309040020","district_id":"3309040","name":"PUSPORENGGO","postal_code":"57331"}]