[{"id":"3310210002","district_id":"3310210","name":"SEDAYU","postal_code":"56373"},{"id":"3310210003","district_id":"3310210","name":"POMAH","postal_code":"57482"},{"id":"3310210004","district_id":"3310210","name":"BONO","postal_code":"66235"},{"id":"3310210005","district_id":"3310210","name":"KIRINGAN","postal_code":"63383"},{"id":"3310210006","district_id":"3310210","name":"MAJEGAN","postal_code":"57482"},{"id":"3310210007","district_id":"3310210","name":"DALANGAN","postal_code":"57561"},{"id":"3310210008","district_id":"3310210","name":"GEDONGJETIS","postal_code":"57482"},{"id":"3310210009","district_id":"3310210","name":"SOROGATEN","postal_code":"57482"},{"id":"3310210010","district_id":"3310210","name":"BEJI","postal_code":"57671"},{"id":"3310210011","district_id":"3310210","name":"KEMIRI","postal_code":"56282"},{"id":"3310210012","district_id":"3310210","name":"SUDIMORO","postal_code":"35386"},{"id":"3310210014","district_id":"3310210","name":"MALANGAN","postal_code":"57563"},{"id":"3310210015","district_id":"3310210","name":"PUCANG MILIRAN","postal_code":"57482"},{"id":"3310210016","district_id":"3310210","name":"COKRO","postal_code":"56196"},{"id":"3310210017","district_id":"3310210","name":"DALEMAN","postal_code":"57571"}]