[{"id":"3310060001","district_id":"3310060","name":"KARANGPAKEL","postal_code":"57467"},{"id":"3310060002","district_id":"3310060","name":"WANGLU","postal_code":"57467"},{"id":"3310060004","district_id":"3310060","name":"KALIKEBO","postal_code":"57467"},{"id":"3310060005","district_id":"3310060","name":"GADEN","postal_code":"57467"},{"id":"3310060006","district_id":"3310060","name":"PLANGGU","postal_code":"57467"},{"id":"3310060007","district_id":"3310060","name":"PUNDUNGSARI","postal_code":"67375"},{"id":"3310060008","district_id":"3310060","name":"SAJEN","postal_code":"61374"},{"id":"3310060009","district_id":"3310060","name":"PULUHAN","postal_code":"57467"},{"id":"3310060010","district_id":"3310060","name":"KRADENAN","postal_code":"62391"},{"id":"3310060011","district_id":"3310060","name":"SABRANG LOR","postal_code":"57467"},{"id":"3310060012","district_id":"3310060","name":"JATIPURO","postal_code":"63284"},{"id":"3310060013","district_id":"3310060","name":"WONOSARI","postal_code":"56318"},{"id":"3310060014","district_id":"3310060","name":"MIRENG","postal_code":"57467"},{"id":"3310060015","district_id":"3310060","name":"BERO","postal_code":"57662"},{"id":"3310060016","district_id":"3310060","name":"MANDONG","postal_code":"78562"},{"id":"3310060018","district_id":"3310060","name":"PALAR","postal_code":"57467"}]