[{"id":"3310150001","district_id":"3310150","name":"TULAS","postal_code":"57464"},{"id":"3310150002","district_id":"3310150","name":"BULUSAN","postal_code":"50277"},{"id":"3310150003","district_id":"3310150","name":"TUMPUKAN","postal_code":"57464"},{"id":"3310150004","district_id":"3310150","name":"SOKA","postal_code":"57464"},{"id":"3310150005","district_id":"3310150","name":"KARANGJOHO","postal_code":"53393"},{"id":"3310150006","district_id":"3310150","name":"RINGINPUTIH","postal_code":"63454"},{"id":"3310150007","district_id":"3310150","name":"TAMBAK","postal_code":"42185"},{"id":"3310150008","district_id":"3310150","name":"KARANGDOWO","postal_code":"51173"},{"id":"3310150010","district_id":"3310150","name":"SENTONO","postal_code":"57464"},{"id":"3310150011","district_id":"3310150","name":"NGOLODONO","postal_code":"57464"},{"id":"3310150012","district_id":"3310150","name":"PUGERAN","postal_code":"61372"},{"id":"3310150013","district_id":"3310150","name":"DEMANGAN","postal_code":"55221"},{"id":"3310150014","district_id":"3310150","name":"BABADAN","postal_code":"66253"},{"id":"3310150015","district_id":"3310150","name":"TEGALAMPEL","postal_code":"57464"},{"id":"3310150016","district_id":"3310150","name":"KARANGTALUN","postal_code":"66281"},{"id":"3310150017","district_id":"3310150","name":"KARANGWUNGU","postal_code":"62254"},{"id":"3310150018","district_id":"3310150","name":"KUPANG","postal_code":"71113"},{"id":"3310150019","district_id":"3310150","name":"BAKUNGAN","postal_code":"75391"}]