[{"id":"3310020001","district_id":"3310020","name":"KATEKAN","postal_code":"56255"},{"id":"3310020003","district_id":"3310020","name":"NGANDONG","postal_code":"57663"},{"id":"3310020004","district_id":"3310020","name":"KRAGILAN","postal_code":"57554"},{"id":"3310020005","district_id":"3310020","name":"JOGOPRAYAN","postal_code":"57455"},{"id":"3310020006","district_id":"3310020","name":"KARANGTURI","postal_code":"66365"},{"id":"3310020007","district_id":"3310020","name":"GENTAN","postal_code":"56271"},{"id":"3310020008","district_id":"3310020","name":"GESIKAN","postal_code":"66273"},{"id":"3310020010","district_id":"3310020","name":"SAWIT","postal_code":"54171"},{"id":"3310020011","district_id":"3310020","name":"MUTIHAN","postal_code":"57455"},{"id":"3310020013","district_id":"3310020","name":"BATURAN","postal_code":"57455"},{"id":"3310020014","district_id":"3310020","name":"CEPORAN","postal_code":"57455"},{"id":"3310020015","district_id":"3310020","name":"JABUNG","postal_code":"57283"},{"id":"3310020016","district_id":"3310020","name":"TOWANGSAN","postal_code":"57455"}]