[{"id":"3310030003","district_id":"3310030","name":"TANJUNGAN","postal_code":"35382"},{"id":"3310030004","district_id":"3310030","name":"PASUNG","postal_code":"57461"},{"id":"3310030005","district_id":"3310030","name":"BRANGKAL","postal_code":"62366"},{"id":"3310030006","district_id":"3310030","name":"PACING","postal_code":"62366"},{"id":"3310030007","district_id":"3310030","name":"KADILANGGON","postal_code":"57461"},{"id":"3310030008","district_id":"3310030","name":"KALIGAYAM","postal_code":"52193"},{"id":"3310030009","district_id":"3310030","name":"MELIKAN","postal_code":"57461"},{"id":"3310030010","district_id":"3310030","name":"JIWO WETAN","postal_code":"57461"},{"id":"3310030011","district_id":"3310030","name":"KADIBOLO","postal_code":"57461"},{"id":"3310030012","district_id":"3310030","name":"TROTOK","postal_code":"57461"},{"id":"3310030014","district_id":"3310030","name":"SUKOREJO","postal_code":"56351"},{"id":"3310030015","district_id":"3310030","name":"BIRIT","postal_code":"57461"},{"id":"3310030016","district_id":"3310030","name":"PANDES","postal_code":"57461"},{"id":"3310030017","district_id":"3310030","name":"GADUNGAN","postal_code":"82162"},{"id":"3310030018","district_id":"3310030","name":"CANAN","postal_code":"57461"},{"id":"3310030019","district_id":"3310030","name":"KALITENGAH","postal_code":"61272"}]