[{"id":"3310010001","district_id":"3310010","name":"KEBON DALEM KIDUL","postal_code":"57454"},{"id":"3310010003","district_id":"3310010","name":"KOTESAN","postal_code":"57454"},{"id":"3310010004","district_id":"3310010","name":"SENGON","postal_code":"66351"},{"id":"3310010005","district_id":"3310010","name":"CUCUKAN","postal_code":"57454"},{"id":"3310010006","district_id":"3310010","name":"SANGGRAHAN","postal_code":"66235"},{"id":"3310010008","district_id":"3310010","name":"KEMUDO","postal_code":"57454"},{"id":"3310010009","district_id":"3310010","name":"TAJI","postal_code":"65155"},{"id":"3310010010","district_id":"3310010","name":"TLOGO","postal_code":"56353"},{"id":"3310010011","district_id":"3310010","name":"BUGISAN","postal_code":"57454"},{"id":"3310010012","district_id":"3310010","name":"KOKOSAN","postal_code":"57454"},{"id":"3310010013","district_id":"3310010","name":"KEBON DALEM LOR","postal_code":"57454"},{"id":"3310010014","district_id":"3310010","name":"BRAJAN","postal_code":"57454"},{"id":"3310010015","district_id":"3310010","name":"RANDUSARI","postal_code":"57694"},{"id":"3310010016","district_id":"3310010","name":"JOHO","postal_code":"57664"}]