[{"id":"3310220002","district_id":"3310220","name":"RANDULANANG","postal_code":"57481"},{"id":"3310220003","district_id":"3310220","name":"MRANGGEN","postal_code":"57513"},{"id":"3310220004","district_id":"3310220","name":"JEMAWAN","postal_code":"57481"},{"id":"3310220005","district_id":"3310220","name":"GEDAREN","postal_code":"57481"},{"id":"3310220006","district_id":"3310220","name":"CAWAN","postal_code":"57481"},{"id":"3310220007","district_id":"3310220","name":"TIBAYAN","postal_code":"57481"},{"id":"3310220008","district_id":"3310220","name":"BENGKING","postal_code":"57481"},{"id":"3310220009","district_id":"3310220","name":"TEMUIRENG","postal_code":"52362"},{"id":"3310220010","district_id":"3310220","name":"BANDUNGAN","postal_code":"50614"},{"id":"3310220011","district_id":"3310220","name":"KAYUMAS","postal_code":"57481"},{"id":"3310220012","district_id":"3310220","name":"SOCOKANGSI","postal_code":"57481"},{"id":"3310220013","district_id":"3310220","name":"GLAGAH","postal_code":"56373"},{"id":"3310220014","district_id":"3310220","name":"KRAJAN","postal_code":"56261"},{"id":"3310220015","district_id":"3310220","name":"JATINOM","postal_code":"57682"},{"id":"3310220016","district_id":"3310220","name":"BONYOKAN","postal_code":"57481"},{"id":"3310220017","district_id":"3310220","name":"PANDEYAN","postal_code":"55161"},{"id":"3310220018","district_id":"3310220","name":"PULUHAN","postal_code":"57467"}]