[{"id":"3310100001","district_id":"3310100","name":"TASKOMBANG","postal_code":"57485"},{"id":"3310100002","district_id":"3310100","name":"SOLODIRAN","postal_code":"57485"},{"id":"3310100003","district_id":"3310100","name":"NANGSRI","postal_code":"57485"},{"id":"3310100004","district_id":"3310100","name":"BORANGAN","postal_code":"57485"},{"id":"3310100005","district_id":"3310100","name":"BARUKAN","postal_code":"50775"},{"id":"3310100006","district_id":"3310100","name":"TANJUNGSARI","postal_code":"57672"},{"id":"3310100007","district_id":"3310100","name":"KRANGGAN","postal_code":"56271"},{"id":"3310100009","district_id":"3310100","name":"KEBONALAS","postal_code":"57485"},{"id":"3310100010","district_id":"3310100","name":"BENDAN","postal_code":"51119"},{"id":"3310100011","district_id":"3310100","name":"TIJAYAN","postal_code":"57485"},{"id":"3310100012","district_id":"3310100","name":"SUKORINI","postal_code":"57485"},{"id":"3310100014","district_id":"3310100","name":"NGEMPLAK SENENG","postal_code":"57485"},{"id":"3310100015","district_id":"3310100","name":"SAPEN","postal_code":"57554"}]