[{"id":"3311030001","district_id":"3311030","name":"WATUBONANG","postal_code":"57561"},{"id":"3311030002","district_id":"3311030","name":"PUNDUNGREJO","postal_code":"57561"},{"id":"3311030003","district_id":"3311030","name":"LOROG","postal_code":"57561"},{"id":"3311030004","district_id":"3311030","name":"GRAJEGAN","postal_code":"57561"},{"id":"3311030005","district_id":"3311030","name":"KEDUNGJAMBAL","postal_code":"57561"},{"id":"3311030006","district_id":"3311030","name":"PONOWAREN","postal_code":"57561"},{"id":"3311030007","district_id":"3311030","name":"KATEGUHAN","postal_code":"57374"},{"id":"3311030008","district_id":"3311030","name":"DALANGAN","postal_code":"57561"},{"id":"3311030009","district_id":"3311030","name":"POJOK","postal_code":"66252"},{"id":"3311030010","district_id":"3311030","name":"TANGKISAN","postal_code":"57561"},{"id":"3311030011","district_id":"3311030","name":"MAJASTO","postal_code":"57561"},{"id":"3311030012","district_id":"3311030","name":"TAMBAKBOYO","postal_code":"62353"}]