[{"id":"3311060001","district_id":"3311060","name":"JAGAN","postal_code":"57528"},{"id":"3311060002","district_id":"3311060","name":"MANISHARJO","postal_code":"57528"},{"id":"3311060003","district_id":"3311060","name":"CABEYAN","postal_code":"57528"},{"id":"3311060004","district_id":"3311060","name":"PUHGOGOR","postal_code":"57528"},{"id":"3311060005","district_id":"3311060","name":"PALUHOMBO","postal_code":"57528"},{"id":"3311060006","district_id":"3311060","name":"BENDOSARI","postal_code":"66252"},{"id":"3311060007","district_id":"3311060","name":"MOJOREJO","postal_code":"57528"},{"id":"3311060008","district_id":"3311060","name":"MERTAN","postal_code":"57528"},{"id":"3311060010","district_id":"3311060","name":"TORIYO","postal_code":"57528"},{"id":"3311060011","district_id":"3311060","name":"JOMBOR","postal_code":"56256"},{"id":"3311060012","district_id":"3311060","name":"SIDOREJO","postal_code":"56361"},{"id":"3311060013","district_id":"3311060","name":"SUGIHAN","postal_code":"57692"},{"id":"3311060014","district_id":"3311060","name":"GENTAN","postal_code":"56271"}]