[{"id":"3312210001","district_id":"3312210","name":"PADARANGIN","postal_code":"57694"},{"id":"3312210002","district_id":"3312210","name":"WATUSOMO","postal_code":"57694"},{"id":"3312210003","district_id":"3312210","name":"PANDAN","postal_code":"57694"},{"id":"3312210004","district_id":"3312210","name":"SAMBIREJO","postal_code":"57691"},{"id":"3312210005","district_id":"3312210","name":"MADE","postal_code":"57694"},{"id":"3312210007","district_id":"3312210","name":"WARU","postal_code":"57694"},{"id":"3312210008","district_id":"3312210","name":"BULUSARI","postal_code":"57694"},{"id":"3312210009","district_id":"3312210","name":"SLOGOHIMO","postal_code":"57694"},{"id":"3312210010","district_id":"3312210","name":"GUNAN","postal_code":"57694"},{"id":"3312210011","district_id":"3312210","name":"SEDAYU","postal_code":"56373"},{"id":"3312210012","district_id":"3312210","name":"SOCO","postal_code":"57694"},{"id":"3312210014","district_id":"3312210","name":"RANDUSARI","postal_code":"57694"},{"id":"3312210015","district_id":"3312210","name":"KARANG","postal_code":"57694"},{"id":"3312210016","district_id":"3312210","name":"SOKOBOYO","postal_code":"57694"}]