[{"id":"3312040001","district_id":"3312040","name":"TIRTOSUWORO","postal_code":"57675"},{"id":"3312040002","district_id":"3312040","name":"GIRIKIKIS","postal_code":"57675"},{"id":"3312040003","district_id":"3312040","name":"GUWOTIRTO","postal_code":"57675"},{"id":"3312040004","district_id":"3312040","name":"NGANCAR","postal_code":"57675"},{"id":"3312040005","district_id":"3312040","name":"BULUREJO","postal_code":"57671"},{"id":"3312040006","district_id":"3312040","name":"GEDONGREJO","postal_code":"57675"},{"id":"3312040007","district_id":"3312040","name":"PIDEKSA","postal_code":"57675"},{"id":"3312040008","district_id":"3312040","name":"TUKULREJO","postal_code":"57675"},{"id":"3312040009","district_id":"3312040","name":"BUMIHARJO","postal_code":"57671"},{"id":"3312040010","district_id":"3312040","name":"SELOMARTO","postal_code":"57675"},{"id":"3312040011","district_id":"3312040","name":"GIRIWOYO","postal_code":"57675"},{"id":"3312040012","district_id":"3312040","name":"SEJATI","postal_code":"57675"},{"id":"3312040013","district_id":"3312040","name":"SENDANGAGUNG","postal_code":"57675"},{"id":"3312040014","district_id":"3312040","name":"PLATAREJO","postal_code":"57675"},{"id":"3312040015","district_id":"3312040","name":"SIRNOBOYO","postal_code":"57675"},{"id":"3312040016","district_id":"3312040","name":"TAWANGHARJO","postal_code":"57675"}]