[{"id":"3312220001","district_id":"3312220","name":"TASIKHARGO","postal_code":"57691"},{"id":"3312220002","district_id":"3312220","name":"SUMBEREJO","postal_code":"56365"},{"id":"3312220003","district_id":"3312220","name":"REJOSARI","postal_code":"56372"},{"id":"3312220004","district_id":"3312220","name":"GONDANGSARI","postal_code":"57691"},{"id":"3312220005","district_id":"3312220","name":"SIDOREJO","postal_code":"56361"},{"id":"3312220006","district_id":"3312220","name":"NGROMPAK","postal_code":"57691"},{"id":"3312220010","district_id":"3312220","name":"SAMBIREJO","postal_code":"57691"},{"id":"3312220011","district_id":"3312220","name":"GUNUNGSARI","postal_code":"57691"},{"id":"3312220012","district_id":"3312220","name":"JATISARI","postal_code":"57691"},{"id":"3312220013","district_id":"3312220","name":"PANDEYAN","postal_code":"55161"},{"id":"3312220014","district_id":"3312220","name":"WATANGSONO","postal_code":"57691"},{"id":"3312220015","district_id":"3312220","name":"JATISRONO","postal_code":"57691"},{"id":"3312220016","district_id":"3312220","name":"TANJUNGSARI","postal_code":"57672"},{"id":"3312220017","district_id":"3312220","name":"TANGGULANGIN","postal_code":"57691"}]