[{"id":"3313030001","district_id":"3313030","name":"PASEBAN","postal_code":"37259"},{"id":"3313030002","district_id":"3313030","name":"LEMAHBANG","postal_code":"57696"},{"id":"3313030003","district_id":"3313030","name":"KARANGBANGUN","postal_code":"57781"},{"id":"3313030004","district_id":"3313030","name":"PLOSO","postal_code":"57695"},{"id":"3313030005","district_id":"3313030","name":"GIRIWONDO","postal_code":"57783"},{"id":"3313030006","district_id":"3313030","name":"KADIPIRO","postal_code":"57136"},{"id":"3313030007","district_id":"3313030","name":"JUMANTORO","postal_code":"57783"},{"id":"3313030008","district_id":"3313030","name":"KEDAWUNG","postal_code":"56281"},{"id":"3313030009","district_id":"3313030","name":"BAKALAN","postal_code":"57695"},{"id":"3313030010","district_id":"3313030","name":"JUMAPOLO","postal_code":"57783"},{"id":"3313030011","district_id":"3313030","name":"KWANGSAN","postal_code":"61253"},{"id":"3313030012","district_id":"3313030","name":"JATIREJO","postal_code":"57678"}]