[{"id":"3315030001","district_id":"3315030","name":"LAJER","postal_code":"54392"},{"id":"3315030002","district_id":"3315030","name":"SEDADI","postal_code":"58161"},{"id":"3315030003","district_id":"3315030","name":"BOLOGARANG","postal_code":"58161"},{"id":"3315030004","district_id":"3315030","name":"KARANGWADER","postal_code":"57252"},{"id":"3315030005","district_id":"3315030","name":"TOKO","postal_code":"98711"},{"id":"3315030006","district_id":"3315030","name":"PENGKOL","postal_code":"57692"},{"id":"3315030007","district_id":"3315030","name":"LEYANGAN","postal_code":"50519"},{"id":"3315030008","district_id":"3315030","name":"WATU PAWON","postal_code":"58161"},{"id":"3315030010","district_id":"3315030","name":"JIPANG","postal_code":"58161"},{"id":"3315030011","district_id":"3315030","name":"KRAMAT","postal_code":"56271"},{"id":"3315030013","district_id":"3315030","name":"WEDORO","postal_code":"61256"},{"id":"3315030014","district_id":"3315030","name":"KLUWAN","postal_code":"58161"},{"id":"3315030015","district_id":"3315030","name":"KARANGPAING","postal_code":"58161"},{"id":"3315030016","district_id":"3315030","name":"PULUTAN","postal_code":"50716"},{"id":"3315030017","district_id":"3315030","name":"WINONG","postal_code":"66229"},{"id":"3315030018","district_id":"3315030","name":"WOLO","postal_code":"93552"},{"id":"3315030020","district_id":"3315030","name":"PENAWANGAN","postal_code":"50513"}]