[{"id":"3315040001","district_id":"3315040","name":"DIMORO","postal_code":"58171"},{"id":"3315040002","district_id":"3315040","name":"GENENGADAL","postal_code":"58171"},{"id":"3315040003","district_id":"3315040","name":"SINDUREJO","postal_code":"65178"},{"id":"3315040004","district_id":"3315040","name":"BANDUNGHARJO","postal_code":"59454"},{"id":"3315040005","district_id":"3315040","name":"GENENGSARI","postal_code":"57555"},{"id":"3315040007","district_id":"3315040","name":"NGRANDAH","postal_code":"58171"},{"id":"3315040008","district_id":"3315040","name":"TUNGGAK","postal_code":"58171"},{"id":"3315040009","district_id":"3315040","name":"BOLOH","postal_code":"58171"},{"id":"3315040010","district_id":"3315040","name":"PLOSOHARJO","postal_code":"64472"},{"id":"3315040011","district_id":"3315040","name":"TAMBIREJO","postal_code":"58171"},{"id":"3315040012","district_id":"3315040","name":"DEPOK","postal_code":"56373"},{"id":"3315040013","district_id":"3315040","name":"KRANGGANHARJO","postal_code":"58171"},{"id":"3315040014","district_id":"3315040","name":"SUGIHAN","postal_code":"57692"},{"id":"3315040015","district_id":"3315040","name":"PILANGPAYUNG","postal_code":"58171"},{"id":"3315040016","district_id":"3315040","name":"KATONG","postal_code":"58171"}]