[{"id":"3315130001","district_id":"3315130","name":"CANDISARI","postal_code":"56263"},{"id":"3315130002","district_id":"3315130","name":"GENUKSURAN","postal_code":"58114"},{"id":"3315130003","district_id":"3315130","name":"DANYANG","postal_code":"58113"},{"id":"3315130004","district_id":"3315130","name":"KALONGAN","postal_code":"50519"},{"id":"3315130005","district_id":"3315130","name":"NGRAJI","postal_code":"58114"},{"id":"3315130006","district_id":"3315130","name":"KANDANGAN","postal_code":"56281"},{"id":"3315130007","district_id":"3315130","name":"NAMBUHAN","postal_code":"58114"},{"id":"3315130008","district_id":"3315130","name":"WARUKARANGANYAR","postal_code":"58114"},{"id":"3315130009","district_id":"3315130","name":"NGLOBAR","postal_code":"58114"},{"id":"3315130010","district_id":"3315130","name":"KEDUNGREJO","postal_code":"57671"},{"id":"3315130011","district_id":"3315130","name":"KARANGANYAR","postal_code":"56362"},{"id":"3315130012","district_id":"3315130","name":"PURWODADI","postal_code":"56261"},{"id":"3315130013","district_id":"3315130","name":"KURIPAN","postal_code":"56352"},{"id":"3315130014","district_id":"3315130","name":"NGEMBAK","postal_code":"58114"},{"id":"3315130015","district_id":"3315130","name":"CINGKRONG","postal_code":"58114"},{"id":"3315130016","district_id":"3315130","name":"PULOREJO","postal_code":"59181"},{"id":"3315130017","district_id":"3315130","name":"PUTAT","postal_code":"56253"}]