[{"id":"3315080001","district_id":"3315080","name":"KEYONGAN","postal_code":"62271"},{"id":"3315080002","district_id":"3315080","name":"SUWATU","postal_code":"57277"},{"id":"3315080003","district_id":"3315080","name":"NGLINDUK","postal_code":"58183"},{"id":"3315080005","district_id":"3315080","name":"SULURSARI","postal_code":"58183"},{"id":"3315080006","district_id":"3315080","name":"TLOGOTIRTO","postal_code":"58183"},{"id":"3315080007","district_id":"3315080","name":"GABUS","postal_code":"57252"},{"id":"3315080008","district_id":"3315080","name":"PANDANHARUM","postal_code":"58183"},{"id":"3315080009","district_id":"3315080","name":"TUNGGULREJO","postal_code":"62361"},{"id":"3315080010","district_id":"3315080","name":"TAHUNAN","postal_code":"55167"},{"id":"3315080011","district_id":"3315080","name":"BENDOHARJO","postal_code":"58183"},{"id":"3315080012","district_id":"3315080","name":"KALIPANG","postal_code":"59274"},{"id":"3315080013","district_id":"3315080","name":"KARANGREJO","postal_code":"56361"},{"id":"3315080014","district_id":"3315080","name":"BANJAREJO","postal_code":"66293"}]