[{"id":"3315020002","district_id":"3315020","name":"KETRO","postal_code":"57277"},{"id":"3315020003","district_id":"3315020","name":"SENDANGHARJO","postal_code":"62319"},{"id":"3315020004","district_id":"3315020","name":"KARANGANYAR","postal_code":"56362"},{"id":"3315020005","district_id":"3315020","name":"PARAKAN","postal_code":"66317"},{"id":"3315020006","district_id":"3315020","name":"NAMPU","postal_code":"54173"},{"id":"3315020007","district_id":"3315020","name":"KARANGSONO","postal_code":"66292"},{"id":"3315020008","district_id":"3315020","name":"JETIS","postal_code":"56262"},{"id":"3315020009","district_id":"3315020","name":"TELAWAH","postal_code":"58163"},{"id":"3315020011","district_id":"3315020","name":"MANGIN","postal_code":"58163"},{"id":"3315020012","district_id":"3315020","name":"SUMBERJOSARI","postal_code":"59219"},{"id":"3315020013","district_id":"3315020","name":"MOJOAGUNG","postal_code":"66252"},{"id":"3315020014","district_id":"3315020","name":"PANGKALAN","postal_code":"15510"},{"id":"3315020015","district_id":"3315020","name":"RAWOH","postal_code":"58163"},{"id":"3315020017","district_id":"3315020","name":"TERMAS","postal_code":"58163"},{"id":"3315020018","district_id":"3315020","name":"PUTATNGANTEN","postal_code":"58163"},{"id":"3315020019","district_id":"3315020","name":"TEMUREJO","postal_code":"58163"}]