[{"id":"3315160002","district_id":"3315160","name":"PAHESAN","postal_code":"58162"},{"id":"3315160003","district_id":"3315160","name":"LATAK","postal_code":"58162"},{"id":"3315160005","district_id":"3315160","name":"SAMBUNG","postal_code":"75778"},{"id":"3315160006","district_id":"3315160","name":"KETANGIREJO","postal_code":"58162"},{"id":"3315160007","district_id":"3315160","name":"ANGGASWANGI","postal_code":"61258"},{"id":"3315160008","district_id":"3315160","name":"GUCI","postal_code":"52466"},{"id":"3315160009","district_id":"3315160","name":"WERDOYO","postal_code":"58162"},{"id":"3315160010","district_id":"3315160","name":"GUYANGAN","postal_code":"54173"},{"id":"3315160011","district_id":"3315160","name":"GUNDI","postal_code":"58162"},{"id":"3315160012","district_id":"3315160","name":"JATILOR","postal_code":"58162"},{"id":"3315160013","district_id":"3315160","name":"SUMBERAGUNG","postal_code":"57664"},{"id":"3315160014","district_id":"3315160","name":"BRINGIN","postal_code":"62357"},{"id":"3315160015","district_id":"3315160","name":"KLAMPOK","postal_code":"67252"},{"id":"3315160016","district_id":"3315160","name":"KEMLOKO","postal_code":"56261"},{"id":"3315160017","district_id":"3315160","name":"GODONG","postal_code":"61463"},{"id":"3315160019","district_id":"3315160","name":"KETITANG","postal_code":"56256"},{"id":"3315160020","district_id":"3315160","name":"KOPEK","postal_code":"58162"},{"id":"3315160021","district_id":"3315160","name":"DOROLEGI","postal_code":"58162"},{"id":"3315160022","district_id":"3315160","name":"RAJEK","postal_code":"58162"},{"id":"3315160023","district_id":"3315160","name":"HARJOWINANGUN","postal_code":"52464"},{"id":"3315160024","district_id":"3315160","name":"KARANGGENENG","postal_code":"63252"},{"id":"3315160025","district_id":"3315160","name":"WANUTUNGGAL","postal_code":"58162"},{"id":"3315160026","district_id":"3315160","name":"MANGGARWETAN","postal_code":"58162"},{"id":"3315160027","district_id":"3315160","name":"MANGGARMAS","postal_code":"58162"},{"id":"3315160028","district_id":"3315160","name":"TINANDING","postal_code":"58162"}]