[{"id":"3316120001","district_id":"3316120","name":"TAWANGREJO","postal_code":"57693"},{"id":"3316120002","district_id":"3316120","name":"KEDUNGRINGIN","postal_code":"50776"},{"id":"3316120003","district_id":"3316120","name":"ADIREJO","postal_code":"39125"},{"id":"3316120004","district_id":"3316120","name":"TAMANREJO","postal_code":"51383"},{"id":"3316120006","district_id":"3316120","name":"SUKOREJO","postal_code":"56351"},{"id":"3316120007","district_id":"3316120","name":"TAMBAHREJO","postal_code":"67373"},{"id":"3316120008","district_id":"3316120","name":"KALANGAN","postal_code":"66292"},{"id":"3316120009","district_id":"3316120","name":"SAMBONGREJO","postal_code":"62381"},{"id":"3316120010","district_id":"3316120","name":"TUNJUNGAN","postal_code":"54172"},{"id":"3316120011","district_id":"3316120","name":"KEDUNGREJO","postal_code":"57671"},{"id":"3316120012","district_id":"3316120","name":"GEMPOLREJO","postal_code":"58252"},{"id":"3316120013","district_id":"3316120","name":"NGLANGITAN","postal_code":"58252"},{"id":"3316120015","district_id":"3316120","name":"SITIREJO","postal_code":"59174"}]