[{"id":"3316160001","district_id":"3316160","name":"PELEMSENGIR","postal_code":"58256"},{"id":"3316160002","district_id":"3316160","name":"PRIGI","postal_code":"66382"},{"id":"3316160003","district_id":"3316160","name":"SAMBENG","postal_code":"54224"},{"id":"3316160004","district_id":"3316160","name":"TINAPAN","postal_code":"58256"},{"id":"3316160006","district_id":"3316160","name":"SONOKULON","postal_code":"58256"},{"id":"3316160008","district_id":"3316160","name":"KACANGAN","postal_code":"66292"},{"id":"3316160009","district_id":"3316160","name":"BICAK","postal_code":"61362"},{"id":"3316160010","district_id":"3316160","name":"SENDANG","postal_code":"57615"},{"id":"3316160011","district_id":"3316160","name":"WUKIRSARI","postal_code":"59174"},{"id":"3316160012","district_id":"3316160","name":"KARANGANYAR","postal_code":"56362"},{"id":"3316160013","district_id":"3316160","name":"TODANAN","postal_code":"58256"},{"id":"3316160014","district_id":"3316160","name":"KETILENG","postal_code":"52181"},{"id":"3316160015","district_id":"3316160","name":"COKROWATI","postal_code":"62353"},{"id":"3316160016","district_id":"3316160","name":"KAJENGAN","postal_code":"58256"},{"id":"3316160017","district_id":"3316160","name":"GUNUNGAN","postal_code":"57662"},{"id":"3316160018","district_id":"3316160","name":"DRINGO","postal_code":"58256"},{"id":"3316160019","district_id":"3316160","name":"DALANGAN","postal_code":"57561"},{"id":"3316160020","district_id":"3316160","name":"CANDI","postal_code":"56361"},{"id":"3316160021","district_id":"3316160","name":"GONDORIYO","postal_code":"50187"},{"id":"3316160022","district_id":"3316160","name":"KEMBANG","postal_code":"57693"},{"id":"3316160023","district_id":"3316160","name":"BEDINGIN","postal_code":"63474"},{"id":"3316160024","district_id":"3316160","name":"LEDOK","postal_code":"50732"},{"id":"3316160025","district_id":"3316160","name":"KEDUNGBACIN","postal_code":"58256"}]