[{"id":"3316020001","district_id":"3316020","name":"TLOGOTUWUNG","postal_code":"58382"},{"id":"3316020002","district_id":"3316020","name":"BODEH","postal_code":"52365"},{"id":"3316020003","district_id":"3316020","name":"GEMBYUNGAN","postal_code":"58382"},{"id":"3316020004","district_id":"3316020","name":"SAMBONGWANGAN","postal_code":"58382"},{"id":"3316020005","district_id":"3316020","name":"RANDUBLATUNG","postal_code":"58382"},{"id":"3316020006","district_id":"3316020","name":"PILANG","postal_code":"57282"},{"id":"3316020008","district_id":"3316020","name":"SUMBERJO","postal_code":"59219"},{"id":"3316020009","district_id":"3316020","name":"KUTUKAN","postal_code":"58382"},{"id":"3316020010","district_id":"3316020","name":"KALISARI","postal_code":"35686"},{"id":"3316020011","district_id":"3316020","name":"KEDIREN","postal_code":"63372"},{"id":"3316020013","district_id":"3316020","name":"KADENGAN","postal_code":"58382"},{"id":"3316020015","district_id":"3316020","name":"PLOSOREJO","postal_code":"57696"},{"id":"3316020017","district_id":"3316020","name":"TANGGEL","postal_code":"59181"},{"id":"3316020018","district_id":"3316020","name":"NGLIRON","postal_code":"58382"}]