[{"id":"3317010001","district_id":"3317010","name":"RONGGOMULYO","postal_code":"62313"},{"id":"3317010002","district_id":"3317010","name":"LOGEDE","postal_code":"59253"},{"id":"3317010003","district_id":"3317010","name":"PELEMSARI","postal_code":"59253"},{"id":"3317010004","district_id":"3317010","name":"LOGUNG","postal_code":"59253"},{"id":"3317010005","district_id":"3317010","name":"KRIKILAN","postal_code":"57275"},{"id":"3317010007","district_id":"3317010","name":"JATIHADI","postal_code":"59253"},{"id":"3317010008","district_id":"3317010","name":"POLBAYEM","postal_code":"59253"},{"id":"3317010010","district_id":"3317010","name":"JADI","postal_code":"62381"},{"id":"3317010011","district_id":"3317010","name":"GRAWAN","postal_code":"59253"},{"id":"3317010012","district_id":"3317010","name":"RANDUAGUNG","postal_code":"59253"},{"id":"3317010013","district_id":"3317010","name":"SUKOREJO","postal_code":"56351"},{"id":"3317010014","district_id":"3317010","name":"TLOGOTUNGGAL","postal_code":"59253"},{"id":"3317010015","district_id":"3317010","name":"BOGOREJO","postal_code":"62354"},{"id":"3317010017","district_id":"3317010","name":"KEDUNGASEM","postal_code":"59253"},{"id":"3317010018","district_id":"3317010","name":"SEKARSARI","postal_code":"43185"}]