[{"id":"3317030001","district_id":"3317030","name":"KAJAR","postal_code":"59263"},{"id":"3317030002","district_id":"3317030","name":"TIMBRANGAN","postal_code":"59263"},{"id":"3317030003","district_id":"3317030","name":"TEGALDOWO","postal_code":"57274"},{"id":"3317030004","district_id":"3317030","name":"PASUCEN","postal_code":"59263"},{"id":"3317030005","district_id":"3317030","name":"SUNTRI","postal_code":"24478"},{"id":"3317030006","district_id":"3317030","name":"DOWAN","postal_code":"59263"},{"id":"3317030009","district_id":"3317030","name":"KULUTAN","postal_code":"59263"},{"id":"3317030010","district_id":"3317030","name":"SIDOMULYO","postal_code":"66262"},{"id":"3317030011","district_id":"3317030","name":"TELGAWAH","postal_code":"59263"},{"id":"3317030012","district_id":"3317030","name":"SENDANGMULYO","postal_code":"57672"},{"id":"3317030013","district_id":"3317030","name":"PANOHAN","postal_code":"59263"},{"id":"3317030014","district_id":"3317030","name":"DEMAAN","postal_code":"59263"},{"id":"3317030015","district_id":"3317030","name":"BANYUURIP","postal_code":"66281"},{"id":"3317030016","district_id":"3317030","name":"SAMBONGPAYAK","postal_code":"59263"}]