[{"id":"3318050001","district_id":"3318050","name":"WATESHAJI","postal_code":"59183"},{"id":"3318050002","district_id":"3318050","name":"LUMBUNGMAS","postal_code":"59183"},{"id":"3318050003","district_id":"3318050","name":"MOJOAGUNG","postal_code":"66252"},{"id":"3318050004","district_id":"3318050","name":"SITIMULYO","postal_code":"59183"},{"id":"3318050007","district_id":"3318050","name":"MENCON","postal_code":"59183"},{"id":"3318050008","district_id":"3318050","name":"PUCAKWANGI","postal_code":"59183"},{"id":"3318050009","district_id":"3318050","name":"KEPOHKENCONO","postal_code":"59183"},{"id":"3318050010","district_id":"3318050","name":"KARANGWOTAN","postal_code":"59183"},{"id":"3318050011","district_id":"3318050","name":"BODEH","postal_code":"52365"},{"id":"3318050012","district_id":"3318050","name":"TRIGUNO","postal_code":"59183"},{"id":"3318050013","district_id":"3318050","name":"TANJUNGSEKAR","postal_code":"59183"},{"id":"3318050015","district_id":"3318050","name":"SOKOPULUHAN","postal_code":"59183"},{"id":"3318050016","district_id":"3318050","name":"TEGALWERO","postal_code":"59183"},{"id":"3318050017","district_id":"3318050","name":"PLOSOREJO","postal_code":"57696"},{"id":"3318050018","district_id":"3318050","name":"KARANGREJO","postal_code":"56361"},{"id":"3318050019","district_id":"3318050","name":"JETAK","postal_code":"62357"},{"id":"3318050020","district_id":"3318050","name":"GROGOLSARI","postal_code":"59183"}]