[{"id":"3318090001","district_id":"3318090","name":"KEDUNGMULYO","postal_code":"62364"},{"id":"3318090002","district_id":"3318090","name":"SENDANGSOKO","postal_code":"59182"},{"id":"3318090003","district_id":"3318090","name":"TAMBAHMULYO","postal_code":"59173"},{"id":"3318090004","district_id":"3318090","name":"TONDOKERTO","postal_code":"59182"},{"id":"3318090005","district_id":"3318090","name":"MANTINGAN TENGAH","postal_code":"59182"},{"id":"3318090006","district_id":"3318090","name":"JATISARI","postal_code":"57691"},{"id":"3318090007","district_id":"3318090","name":"KARANGREJO LOR","postal_code":"59182"},{"id":"3318090008","district_id":"3318090","name":"SIDOMULYO","postal_code":"66262"},{"id":"3318090009","district_id":"3318090","name":"PLOSOJENAR","postal_code":"63451"},{"id":"3318090010","district_id":"3318090","name":"JAKENAN","postal_code":"59182"},{"id":"3318090011","district_id":"3318090","name":"DUKUHMULYO","postal_code":"59182"},{"id":"3318090012","district_id":"3318090","name":"TANJUNGSARI","postal_code":"57672"},{"id":"3318090013","district_id":"3318090","name":"PULUHAN TENGAH","postal_code":"59182"},{"id":"3318090014","district_id":"3318090","name":"SEMBATURAGUNG","postal_code":"59182"},{"id":"3318090015","district_id":"3318090","name":"GLONGGONG","postal_code":"57254"},{"id":"3318090016","district_id":"3318090","name":"KALIMULYO","postal_code":"59182"},{"id":"3318090017","district_id":"3318090","name":"TLOGOREJO","postal_code":"56229"},{"id":"3318090018","district_id":"3318090","name":"SONOREJO","postal_code":"57551"},{"id":"3318090019","district_id":"3318090","name":"NGASTOREJO","postal_code":"59182"},{"id":"3318090020","district_id":"3318090","name":"SIDOARUM","postal_code":"55264"},{"id":"3318090021","district_id":"3318090","name":"KARANGROWO","postal_code":"59182"},{"id":"3318090022","district_id":"3318090","name":"TONDOMULYO","postal_code":"59182"},{"id":"3318090023","district_id":"3318090","name":"BUNGASREJO","postal_code":"59182"}]