[{"id":"3318020001","district_id":"3318020","name":"JIMBARAN","postal_code":"50661"},{"id":"3318020002","district_id":"3318020","name":"DURENSAWIT","postal_code":"56362"},{"id":"3318020005","district_id":"3318020","name":"PURWOKERTO","postal_code":"59155"},{"id":"3318020006","district_id":"3318020","name":"SUMBERSARI","postal_code":"56365"},{"id":"3318020007","district_id":"3318020","name":"BRATI","postal_code":"59171"},{"id":"3318020008","district_id":"3318020","name":"JATIROTO","postal_code":"57692"},{"id":"3318020009","district_id":"3318020","name":"KAYEN","postal_code":"62354"},{"id":"3318020010","district_id":"3318020","name":"TRIMULYO","postal_code":"56365"},{"id":"3318020011","district_id":"3318020","name":"SRIKATON","postal_code":"66252"},{"id":"3318020012","district_id":"3318020","name":"PASURUHAN","postal_code":"56352"},{"id":"3318020013","district_id":"3318020","name":"PESAGI","postal_code":"82152"},{"id":"3318020014","district_id":"3318020","name":"ROGOMULYO","postal_code":"50229"},{"id":"3318020015","district_id":"3318020","name":"TALUN","postal_code":"62357"},{"id":"3318020016","district_id":"3318020","name":"BOLOAGUNG","postal_code":"59171"},{"id":"3318020017","district_id":"3318020","name":"SUNDOLUHUR","postal_code":"59171"}]