[{"id":"3318030001","district_id":"3318030","name":"PAKIS","postal_code":"62371"},{"id":"3318030002","district_id":"3318030","name":"MAITAN","postal_code":"59174"},{"id":"3318030003","district_id":"3318030","name":"WUKIRSARI","postal_code":"59174"},{"id":"3318030004","district_id":"3318030","name":"SINOMWIDODO","postal_code":"59174"},{"id":"3318030006","district_id":"3318030","name":"LARANGAN","postal_code":"61271"},{"id":"3318030007","district_id":"3318030","name":"TAMBAKROMO","postal_code":"59174"},{"id":"3318030008","district_id":"3318030","name":"MOJOMULYO","postal_code":"59174"},{"id":"3318030009","district_id":"3318030","name":"KARANGAWEN","postal_code":"59174"},{"id":"3318030010","district_id":"3318030","name":"MANGUNREKSO","postal_code":"59174"},{"id":"3318030011","district_id":"3318030","name":"TAMBAHARJO","postal_code":"59119"},{"id":"3318030012","district_id":"3318030","name":"TAMBAHAGUNG","postal_code":"59174"},{"id":"3318030013","district_id":"3318030","name":"SITIREJO","postal_code":"59174"},{"id":"3318030014","district_id":"3318030","name":"KEDALINGAN","postal_code":"59174"},{"id":"3318030015","district_id":"3318030","name":"KARANGMULYO","postal_code":"52465"},{"id":"3318030016","district_id":"3318030","name":"KARANGWONO","postal_code":"59174"},{"id":"3318030017","district_id":"3318030","name":"ANGKATAN LOR","postal_code":"59174"},{"id":"3318030018","district_id":"3318030","name":"ANGKATAN KIDUL","postal_code":"59174"}]