[{"id":"3319040001","district_id":"3319040","name":"WONOSOCO","postal_code":"59372"},{"id":"3319040002","district_id":"3319040","name":"LAMBANGAN","postal_code":"61261"},{"id":"3319040003","district_id":"3319040","name":"KALIREJO","postal_code":"56264"},{"id":"3319040004","district_id":"3319040","name":"MEDINI","postal_code":"59372"},{"id":"3319040005","district_id":"3319040","name":"SAMBUNG","postal_code":"75778"},{"id":"3319040006","district_id":"3319040","name":"GLAGAH WARU","postal_code":"57474"},{"id":"3319040008","district_id":"3319040","name":"UNDAAN KIDUL","postal_code":"59372"},{"id":"3319040009","district_id":"3319040","name":"UNDAAN TENGAH","postal_code":"59372"},{"id":"3319040010","district_id":"3319040","name":"KARANG ROWO","postal_code":"30752"},{"id":"3319040011","district_id":"3319040","name":"LARIKREJO","postal_code":"59372"},{"id":"3319040012","district_id":"3319040","name":"UNDAAN LOR","postal_code":"59372"},{"id":"3319040013","district_id":"3319040","name":"WATES","postal_code":"66272"},{"id":"3319040014","district_id":"3319040","name":"NGEMPLAK","postal_code":"56281"},{"id":"3319040015","district_id":"3319040","name":"TERANG MAS","postal_code":"24562"},{"id":"3319040016","district_id":"3319040","name":"BERUGENJANG","postal_code":"59372"}]