[{"id":"3320080001","district_id":"3320080","name":"KARANGKEBAGUSAN","postal_code":"59411"},{"id":"3320080002","district_id":"3320080","name":"DEMAAN","postal_code":"59263"},{"id":"3320080004","district_id":"3320080","name":"KAUMAN","postal_code":"56364"},{"id":"3320080005","district_id":"3320080","name":"PANGGANG","postal_code":"62292"},{"id":"3320080006","district_id":"3320080","name":"POTROYUDAN","postal_code":"59412"},{"id":"3320080007","district_id":"3320080","name":"BAPANGAN","postal_code":"59413"},{"id":"3320080008","district_id":"3320080","name":"SARIPAN","postal_code":"59414"},{"id":"3320080009","district_id":"3320080","name":"JOBOKUTO","postal_code":"59416"},{"id":"3320080010","district_id":"3320080","name":"UJUNGBATU","postal_code":"59416"},{"id":"3320080011","district_id":"3320080","name":"PENGKOL","postal_code":"57692"},{"id":"3320080012","district_id":"3320080","name":"MULYOHARJO","postal_code":"52462"},{"id":"3320080013","district_id":"3320080","name":"KUWASEN","postal_code":"59431"},{"id":"3320080014","district_id":"3320080","name":"BANDENGAN","postal_code":"51143"},{"id":"3320080015","district_id":"3320080","name":"WONOREJO","postal_code":"56361"},{"id":"3320080016","district_id":"3320080","name":"KEDUNGCINO","postal_code":"59432"}]