[{"id":"3320030001","district_id":"3320030","name":"UJUNGPANDAN","postal_code":"59464"},{"id":"3320030002","district_id":"3320030","name":"KARANGANYAR","postal_code":"56362"},{"id":"3320030003","district_id":"3320030","name":"GUWOSOBOKERTO","postal_code":"59464"},{"id":"3320030004","district_id":"3320030","name":"KEDUNGSARIMULYO","postal_code":"59464"},{"id":"3320030005","district_id":"3320030","name":"BUGO","postal_code":"59464"},{"id":"3320030006","district_id":"3320030","name":"WELAHAN","postal_code":"59464"},{"id":"3320030007","district_id":"3320030","name":"GEDANGAN","postal_code":"66253"},{"id":"3320030008","district_id":"3320030","name":"KETILENGSINGOLELO","postal_code":"59464"},{"id":"3320030009","district_id":"3320030","name":"KALIPUCANG WETAN","postal_code":"59464"},{"id":"3320030010","district_id":"3320030","name":"KALIPUCANG KULON","postal_code":"59464"},{"id":"3320030011","district_id":"3320030","name":"GIDANGELO","postal_code":"59464"},{"id":"3320030012","district_id":"3320030","name":"KENDENGSIDIALIT","postal_code":"59464"},{"id":"3320030013","district_id":"3320030","name":"SIDIGEDE","postal_code":"59464"},{"id":"3320030014","district_id":"3320030","name":"TELUKWETAN","postal_code":"59464"},{"id":"3320030015","district_id":"3320030","name":"BRANTAKSEKARJATI","postal_code":"59464"}]