[{"id":"3321110001","district_id":"3321110","name":"JATIREJO","postal_code":"57678"},{"id":"3321110002","district_id":"3321110","name":"NGALURAN","postal_code":"59582"},{"id":"3321110003","district_id":"3321110","name":"WONOKETINGAL","postal_code":"59582"},{"id":"3321110004","district_id":"3321110","name":"CANGKRING REMBANG","postal_code":"59582"},{"id":"3321110005","district_id":"3321110","name":"CANGKRING","postal_code":"57692"},{"id":"3321110006","district_id":"3321110","name":"TUWANG","postal_code":"59582"},{"id":"3321110007","district_id":"3321110","name":"UNDAAN KIDUL","postal_code":"59372"},{"id":"3321110008","district_id":"3321110","name":"UNDAAN LOR","postal_code":"59372"},{"id":"3321110009","district_id":"3321110","name":"KETANJUNG","postal_code":"59582"},{"id":"3321110010","district_id":"3321110","name":"NGEMPLIK WETAN","postal_code":"59582"},{"id":"3321110011","district_id":"3321110","name":"WONOREJO","postal_code":"56361"},{"id":"3321110012","district_id":"3321110","name":"KARANGANYAR","postal_code":"56362"},{"id":"3321110013","district_id":"3321110","name":"KEDUNGWARU KIDUL","postal_code":"59582"},{"id":"3321110014","district_id":"3321110","name":"KEDUNGWARU LOR","postal_code":"59582"},{"id":"3321110015","district_id":"3321110","name":"BANDUNGREJO","postal_code":"62382"},{"id":"3321110016","district_id":"3321110","name":"TUGU LOR","postal_code":"59582"},{"id":"3321110017","district_id":"3321110","name":"KOTAKAN","postal_code":"68313"}]