[{"id":"3321130002","district_id":"3321130","name":"NGAWEN","postal_code":"59157"},{"id":"3321130003","district_id":"3321130","name":"RUWIT","postal_code":"59554"},{"id":"3321130005","district_id":"3321130","name":"BUKO","postal_code":"59554"},{"id":"3321130006","district_id":"3321130","name":"MANDUNG","postal_code":"59554"},{"id":"3321130007","district_id":"3321130","name":"BERAHAN KULON","postal_code":"59554"},{"id":"3321130008","district_id":"3321130","name":"BERAHAN WETAN","postal_code":"59554"},{"id":"3321130009","district_id":"3321130","name":"BUNGO","postal_code":"24162"},{"id":"3321130011","district_id":"3321130","name":"JETAK","postal_code":"62357"},{"id":"3321130012","district_id":"3321130","name":"JUNGSEMI","postal_code":"51353"},{"id":"3321130013","district_id":"3321130","name":"JUNGPASIR","postal_code":"59554"},{"id":"3321130014","district_id":"3321130","name":"MUTIH WETAN","postal_code":"59554"},{"id":"3321130015","district_id":"3321130","name":"MUTIH KULON","postal_code":"59554"},{"id":"3321130016","district_id":"3321130","name":"TEDUNAN","postal_code":"38875"},{"id":"3321130017","district_id":"3321130","name":"KENDALASEM","postal_code":"59554"},{"id":"3321130018","district_id":"3321130","name":"KEDUNGKARANG","postal_code":"59554"},{"id":"3321130019","district_id":"3321130","name":"KEDUNGMUTIH","postal_code":"59554"},{"id":"3321130020","district_id":"3321130","name":"BABALAN","postal_code":"69451"}]