[{"id":"3321050001","district_id":"3321050","name":"SAMPANG","postal_code":"54421"},{"id":"3321050002","district_id":"3321050","name":"KLITIH","postal_code":"61456"},{"id":"3321050003","district_id":"3321050","name":"PIDODO","postal_code":"59561"},{"id":"3321050004","district_id":"3321050","name":"DONOREJO","postal_code":"54175"},{"id":"3321050005","district_id":"3321050","name":"GROGOL","postal_code":"52192"},{"id":"3321050006","district_id":"3321050","name":"PLOSO","postal_code":"57695"},{"id":"3321050007","district_id":"3321050","name":"PULOSARI","postal_code":"66292"},{"id":"3321050008","district_id":"3321050","name":"KARANGSARI","postal_code":"56373"},{"id":"3321050009","district_id":"3321050","name":"KARANGTOWO","postal_code":"59561"},{"id":"3321050012","district_id":"3321050","name":"BATU","postal_code":"90992"},{"id":"3321050013","district_id":"3321050","name":"WONOKERTO","postal_code":"56362"},{"id":"3321050014","district_id":"3321050","name":"WONOWOSO","postal_code":"59561"},{"id":"3321050015","district_id":"3321050","name":"REJOSARI","postal_code":"56372"},{"id":"3321050016","district_id":"3321050","name":"WONOAGUNG","postal_code":"74873"},{"id":"3321050017","district_id":"3321050","name":"TAMBAKBULUSAN","postal_code":"59561"}]