[{"id":"3321060001","district_id":"3321060","name":"MORODEMAK","postal_code":"59552"},{"id":"3321060002","district_id":"3321060","name":"MARGOLINDUK","postal_code":"59552"},{"id":"3321060003","district_id":"3321060","name":"GEBANG","postal_code":"57671"},{"id":"3321060004","district_id":"3321060","name":"GEBANGARUM","postal_code":"59552"},{"id":"3321060005","district_id":"3321060","name":"KARANGREJO","postal_code":"56361"},{"id":"3321060006","district_id":"3321060","name":"TLOGOBOYO","postal_code":"59552"},{"id":"3321060007","district_id":"3321060","name":"KRAJANBOGO","postal_code":"59552"},{"id":"3321060008","district_id":"3321060","name":"KEMBANGAN","postal_code":"66362"},{"id":"3321060009","district_id":"3321060","name":"SUMBEREJO","postal_code":"56365"},{"id":"3321060010","district_id":"3321060","name":"SUKODONO","postal_code":"66253"},{"id":"3321060011","district_id":"3321060","name":"JATIMULYO","postal_code":"66261"},{"id":"3321060012","district_id":"3321060","name":"BONANGREJO","postal_code":"59552"},{"id":"3321060013","district_id":"3321060","name":"JATIROGO","postal_code":"59552"},{"id":"3321060014","district_id":"3321060","name":"TRIDONOREJO","postal_code":"59552"},{"id":"3321060015","district_id":"3321060","name":"PURWOREJO","postal_code":"57615"},{"id":"3321060016","district_id":"3321060","name":"BETAHWALANG","postal_code":"59552"},{"id":"3321060017","district_id":"3321060","name":"SERANGAN","postal_code":"63453"},{"id":"3321060018","district_id":"3321060","name":"PONCOHARJO","postal_code":"59552"},{"id":"3321060019","district_id":"3321060","name":"WONOSARI","postal_code":"56318"},{"id":"3321060020","district_id":"3321060","name":"JALI","postal_code":"59552"},{"id":"3321060021","district_id":"3321060","name":"WEDING","postal_code":"59552"}]