[{"id":"3322140001","district_id":"3322140","name":"MUNDING","postal_code":"50552"},{"id":"3322140002","district_id":"3322140","name":"PAGERSARI","postal_code":"66281"},{"id":"3322140003","district_id":"3322140","name":"GEBUGAN","postal_code":"50552"},{"id":"3322140004","district_id":"3322140","name":"WUJIL","postal_code":"50552"},{"id":"3322140005","district_id":"3322140","name":"BERGAS LOR","postal_code":"50552"},{"id":"3322140006","district_id":"3322140","name":"BERGAS KIDUL","postal_code":"50552"},{"id":"3322140007","district_id":"3322140","name":"RANDUGUNTING","postal_code":"52131"},{"id":"3322140008","district_id":"3322140","name":"JATIJAJAR","postal_code":"50552"},{"id":"3322140009","district_id":"3322140","name":"DIWAK","postal_code":"50552"},{"id":"3322140010","district_id":"3322140","name":"NGEMPON","postal_code":"50552"},{"id":"3322140011","district_id":"3322140","name":"KARANGJATI","postal_code":"52184"},{"id":"3322140012","district_id":"3322140","name":"WRINGIN PUTIH","postal_code":"50552"},{"id":"3322140013","district_id":"3322140","name":"GONDORIYO","postal_code":"50187"}]