[{"id":"3322040001","district_id":"3322040","name":"KEBOWAN","postal_code":"50776"},{"id":"3322040002","district_id":"3322040","name":"BEJI LOR","postal_code":"50776"},{"id":"3322040003","district_id":"3322040","name":"JATIREJO","postal_code":"57678"},{"id":"3322040004","district_id":"3322040","name":"DERSANSARI","postal_code":"50776"},{"id":"3322040005","district_id":"3322040","name":"PURWOREJO","postal_code":"57615"},{"id":"3322040006","district_id":"3322040","name":"KETANGGI","postal_code":"50776"},{"id":"3322040007","district_id":"3322040","name":"MEDAYU","postal_code":"50776"},{"id":"3322040008","district_id":"3322040","name":"BONOMERTO","postal_code":"50776"},{"id":"3322040009","district_id":"3322040","name":"SUKOREJO","postal_code":"56351"},{"id":"3322040010","district_id":"3322040","name":"KEDUNGRINGIN","postal_code":"50776"},{"id":"3322040012","district_id":"3322040","name":"REKSOSARI","postal_code":"50776"},{"id":"3322040014","district_id":"3322040","name":"PLUMBON","postal_code":"56262"},{"id":"3322040015","district_id":"3322040","name":"KRANDON LOR","postal_code":"50776"},{"id":"3322040016","district_id":"3322040","name":"CUKILAN","postal_code":"50776"},{"id":"3322040017","district_id":"3322040","name":"DADAPAYAM","postal_code":"50776"}]