[{"id":"3323030005","district_id":"3323030","name":"PURWOREJO","postal_code":"57615"},{"id":"3323030006","district_id":"3323030","name":"MUDAL","postal_code":"56351"},{"id":"3323030007","district_id":"3323030","name":"NAMPIREJO","postal_code":"56229"},{"id":"3323030009","district_id":"3323030","name":"MADURESO","postal_code":"56229"},{"id":"3323030011","district_id":"3323030","name":"KOWANGAN","postal_code":"56218"},{"id":"3323030012","district_id":"3323030","name":"JAMPIREJO","postal_code":"56215"},{"id":"3323030014","district_id":"3323030","name":"GIYANTI","postal_code":"56226"},{"id":"3323030020","district_id":"3323030","name":"GILINGSARI","postal_code":"56229"},{"id":"3323030021","district_id":"3323030","name":"KEBONSARI","postal_code":"62317"},{"id":"3323030022","district_id":"3323030","name":"MANDING","postal_code":"66284"},{"id":"3323030023","district_id":"3323030","name":"TEMANGGUNG II","postal_code":"56213"},{"id":"3323030024","district_id":"3323030","name":"TEMANGGUNG I","postal_code":"56212"},{"id":"3323030025","district_id":"3323030","name":"JAMPIROSO","postal_code":"56216"},{"id":"3323030026","district_id":"3323030","name":"KERTOSARI","postal_code":"56217"},{"id":"3323030027","district_id":"3323030","name":"BANYUURIP","postal_code":"66281"},{"id":"3323030029","district_id":"3323030","name":"SIDOREJO","postal_code":"56361"},{"id":"3323030030","district_id":"3323030","name":"JURANG","postal_code":"56222"},{"id":"3323030031","district_id":"3323030","name":"TLOGOREJO","postal_code":"56229"},{"id":"3323030032","district_id":"3323030","name":"JOHO","postal_code":"57664"},{"id":"3323030033","district_id":"3323030","name":"WALITELON SELATAN","postal_code":"56229"},{"id":"3323030034","district_id":"3323030","name":"WALITELON UTARA","postal_code":"56229"}]