[{"id":"3323041001","district_id":"3323041","name":"TANGGULANOM","postal_code":"56262"},{"id":"3323041002","district_id":"3323041","name":"JETIS","postal_code":"56262"},{"id":"3323041003","district_id":"3323041","name":"NGADITIRTO","postal_code":"56262"},{"id":"3323041004","district_id":"3323041","name":"BULAN","postal_code":"56262"},{"id":"3323041005","district_id":"3323041","name":"SALAMREJO","postal_code":"66361"},{"id":"3323041006","district_id":"3323041","name":"SELOPAMPANG","postal_code":"56262"},{"id":"3323041007","district_id":"3323041","name":"KACEPIT","postal_code":"97854"},{"id":"3323041008","district_id":"3323041","name":"GAMBASAN","postal_code":"56262"},{"id":"3323041009","district_id":"3323041","name":"KEBONAGUNG","postal_code":"57682"},{"id":"3323041010","district_id":"3323041","name":"BAGUSAN","postal_code":"56254"},{"id":"3323041011","district_id":"3323041","name":"PLUMBON","postal_code":"56262"},{"id":"3323041012","district_id":"3323041","name":"BUMIAYU","postal_code":"56262"}]