[{"id":"3323100001","district_id":"3323100","name":"KATEKAN","postal_code":"56255"},{"id":"3323100002","district_id":"3323100","name":"BANJARSARI","postal_code":"66252"},{"id":"3323100003","district_id":"3323100","name":"MEDARI","postal_code":"56255"},{"id":"3323100006","district_id":"3323100","name":"KARANGGEDONG","postal_code":"56255"},{"id":"3323100007","district_id":"3323100","name":"PETIREJO","postal_code":"56255"},{"id":"3323100008","district_id":"3323100","name":"MUNGGANGSARI","postal_code":"56255"},{"id":"3323100009","district_id":"3323100","name":"KATAAN","postal_code":"56255"},{"id":"3323100010","district_id":"3323100","name":"PRINGAPUS","postal_code":"66363"},{"id":"3323100011","district_id":"3323100","name":"GIRIPURNO","postal_code":"56255"},{"id":"3323100012","district_id":"3323100","name":"GEJAGAN","postal_code":"56255"},{"id":"3323100013","district_id":"3323100","name":"MANGGONG","postal_code":"56255"},{"id":"3323100014","district_id":"3323100","name":"GANDU WETAN","postal_code":"56255"},{"id":"3323100015","district_id":"3323100","name":"NGAREN","postal_code":"56255"},{"id":"3323100016","district_id":"3323100","name":"NGADIREJO","postal_code":"57663"},{"id":"3323100017","district_id":"3323100","name":"GONDANGWINANGUN","postal_code":"56255"},{"id":"3323100018","district_id":"3323100","name":"DLIMOYO","postal_code":"56255"},{"id":"3323100019","district_id":"3323100","name":"PURBOSARI","postal_code":"56255"},{"id":"3323100020","district_id":"3323100","name":"TEGALREJO","postal_code":"55244"},{"id":"3323100021","district_id":"3323100","name":"CAMPURSARI","postal_code":"56314"},{"id":"3323100022","district_id":"3323100","name":"MANGUNSARI","postal_code":"66228"}]