[{"id":"3323070001","district_id":"3323070","name":"GANDULAN","postal_code":"56282"},{"id":"3323070002","district_id":"3323070","name":"TEGOWANUH","postal_code":"56282"},{"id":"3323070003","district_id":"3323070","name":"KEBLUKAN","postal_code":"56282"},{"id":"3323070005","district_id":"3323070","name":"GEBLOG","postal_code":"56282"},{"id":"3323070006","district_id":"3323070","name":"GANDON","postal_code":"56282"},{"id":"3323070008","district_id":"3323070","name":"KWARAKAN","postal_code":"56282"},{"id":"3323070009","district_id":"3323070","name":"GETAS","postal_code":"56282"},{"id":"3323070010","district_id":"3323070","name":"KALIMANGGIS","postal_code":"56282"},{"id":"3323070011","district_id":"3323070","name":"TLOGOWUNGU","postal_code":"56282"},{"id":"3323070012","district_id":"3323070","name":"KALORAN","postal_code":"56282"},{"id":"3323070013","district_id":"3323070","name":"KEMIRI","postal_code":"56282"},{"id":"3323070014","district_id":"3323070","name":"TEMPURAN","postal_code":"56282"}]