[{"id":"3323080002","district_id":"3323080","name":"WADAS","postal_code":"56281"},{"id":"3323080003","district_id":"3323080","name":"CARUBAN","postal_code":"56281"},{"id":"3323080004","district_id":"3323080","name":"BALEDU","postal_code":"56281"},{"id":"3323080005","district_id":"3323080","name":"ROWO","postal_code":"56281"},{"id":"3323080006","district_id":"3323080","name":"MALEBO","postal_code":"56281"},{"id":"3323080007","district_id":"3323080","name":"GESING","postal_code":"57696"},{"id":"3323080008","district_id":"3323080","name":"KANDANGAN","postal_code":"56281"},{"id":"3323080009","district_id":"3323080","name":"KEMBANGSARI","postal_code":"56281"},{"id":"3323080010","district_id":"3323080","name":"SAMIRANAN","postal_code":"56281"},{"id":"3323080011","district_id":"3323080","name":"NGEMPLAK","postal_code":"56281"},{"id":"3323080012","district_id":"3323080","name":"TLOGOPUCANG","postal_code":"56281"},{"id":"3323080013","district_id":"3323080","name":"KEDAWUNG","postal_code":"56281"},{"id":"3323080014","district_id":"3323080","name":"MARGOLELO","postal_code":"56281"},{"id":"3323080015","district_id":"3323080","name":"BLIMBING","postal_code":"66293"},{"id":"3323080016","district_id":"3323080","name":"BANJARSARI","postal_code":"66252"}]