[{"id":"3325100005","district_id":"3325100","name":"TULIS","postal_code":"51261"},{"id":"3325100006","district_id":"3325100","name":"WRINGINGINTUNG","postal_code":"51261"},{"id":"3325100007","district_id":"3325100","name":"POSONG","postal_code":"51261"},{"id":"3325100008","district_id":"3325100","name":"SEMBOJO","postal_code":"51261"},{"id":"3325100009","district_id":"3325100","name":"BEJI","postal_code":"57671"},{"id":"3325100010","district_id":"3325100","name":"KALIBOYO","postal_code":"51261"},{"id":"3325100011","district_id":"3325100","name":"SIMBANGDESA","postal_code":"51261"},{"id":"3325100012","district_id":"3325100","name":"SIMBANGJATI","postal_code":"51261"},{"id":"3325100021","district_id":"3325100","name":"PONOWARENG","postal_code":"51261"},{"id":"3325100022","district_id":"3325100","name":"KENCONOREJO","postal_code":"51261"},{"id":"3325100023","district_id":"3325100","name":"KEDUNGSEGOG","postal_code":"51261"},{"id":"3325100024","district_id":"3325100","name":"MANGGIS","postal_code":"56362"},{"id":"3325100025","district_id":"3325100","name":"JOLOSEKTI","postal_code":"51262"},{"id":"3325100026","district_id":"3325100","name":"SIBERUK","postal_code":"51262"},{"id":"3325100029","district_id":"3325100","name":"JRAKAHPAYUNG","postal_code":"51262"}]