[{"id":"3325120001","district_id":"3325120","name":"PANDANSARI","postal_code":"66292"},{"id":"3325120002","district_id":"3325120","name":"KALIWARENG","postal_code":"51252"},{"id":"3325120003","district_id":"3325120","name":"PEJAMBON","postal_code":"35353"},{"id":"3325120004","district_id":"3325120","name":"SARIGLAGAH","postal_code":"51252"},{"id":"3325120005","district_id":"3325120","name":"PESAREN","postal_code":"51363"},{"id":"3325120006","district_id":"3325120","name":"SIDOREJO","postal_code":"56361"},{"id":"3325120007","district_id":"3325120","name":"CEPAGAN","postal_code":"51252"},{"id":"3325120008","district_id":"3325120","name":"MASIN","postal_code":"99871"},{"id":"3325120009","district_id":"3325120","name":"BANJIRAN","postal_code":"51252"},{"id":"3325120010","district_id":"3325120","name":"WARUNGASEM","postal_code":"51252"},{"id":"3325120011","district_id":"3325120","name":"GAPURO","postal_code":"51252"},{"id":"3325120012","district_id":"3325120","name":"KALIBELUK","postal_code":"51252"},{"id":"3325120013","district_id":"3325120","name":"SAWAHJOHO","postal_code":"51252"},{"id":"3325120014","district_id":"3325120","name":"CANDIARENG","postal_code":"51252"},{"id":"3325120015","district_id":"3325120","name":"LEBO","postal_code":"61223"},{"id":"3325120017","district_id":"3325120","name":"TERBAN","postal_code":"55223"},{"id":"3325120018","district_id":"3325120","name":"SIJONO","postal_code":"51252"}]