[{"id":"3326160001","district_id":"3326160","name":"KADIPATEN","postal_code":"55132"},{"id":"3326160002","district_id":"3326160","name":"DELEGTUKANG","postal_code":"51152"},{"id":"3326160003","district_id":"3326160","name":"KARANGJATI","postal_code":"52184"},{"id":"3326160004","district_id":"3326160","name":"PETUKANGAN","postal_code":"51152"},{"id":"3326160005","district_id":"3326160","name":"WIRADESA","postal_code":"51152"},{"id":"3326160006","district_id":"3326160","name":"WARUKIDUL","postal_code":"51152"},{"id":"3326160007","district_id":"3326160","name":"BONDANSARI","postal_code":"51152"},{"id":"3326160008","district_id":"3326160","name":"WARULOR","postal_code":"51152"},{"id":"3326160009","district_id":"3326160","name":"KAMPIL","postal_code":"51152"},{"id":"3326160010","district_id":"3326160","name":"GUMAWANG","postal_code":"51152"},{"id":"3326160011","district_id":"3326160","name":"KEPATIHAN","postal_code":"57652"},{"id":"3326160012","district_id":"3326160","name":"MAYANGAN","postal_code":"41254"},{"id":"3326160018","district_id":"3326160","name":"KEMPLONG","postal_code":"51152"},{"id":"3326160019","district_id":"3326160","name":"KAUMAN","postal_code":"56364"}]