[{"id":"3326110002","district_id":"3326110","name":"KALIPANCUR","postal_code":"50183"},{"id":"3326110003","district_id":"3326110","name":"SUMUR JOMBLANGBOGO","postal_code":"51156"},{"id":"3326110004","district_id":"3326110","name":"PANTIANOM","postal_code":"51156"},{"id":"3326110005","district_id":"3326110","name":"RANDU MUKTIWAREN","postal_code":"51156"},{"id":"3326110006","district_id":"3326110","name":"LEGOK CLILE","postal_code":"51156"},{"id":"3326110007","district_id":"3326110","name":"BOJONG WETAN","postal_code":"51156"},{"id":"3326110008","district_id":"3326110","name":"WANGANDOWO","postal_code":"51156"},{"id":"3326110010","district_id":"3326110","name":"KETITANG KIDUL","postal_code":"51156"},{"id":"3326110011","district_id":"3326110","name":"MENJANGAN","postal_code":"51156"},{"id":"3326110012","district_id":"3326110","name":"KETITANGLOR","postal_code":"51156"},{"id":"3326110013","district_id":"3326110","name":"REJOSARI","postal_code":"56372"},{"id":"3326110014","district_id":"3326110","name":"BOJONGLOR","postal_code":"51156"},{"id":"3326110015","district_id":"3326110","name":"BOJONG MINGGIR","postal_code":"51156"},{"id":"3326110016","district_id":"3326110","name":"WIRODITAN","postal_code":"51156"},{"id":"3326110017","district_id":"3326110","name":"KEMASAN","postal_code":"57555"},{"id":"3326110018","district_id":"3326110","name":"JAJAR WAYANG","postal_code":"51156"},{"id":"3326110019","district_id":"3326110","name":"BABALANLOR","postal_code":"51156"},{"id":"3326110020","district_id":"3326110","name":"BABALAN KIDUL","postal_code":"51156"},{"id":"3326110021","district_id":"3326110","name":"KARANGSARI","postal_code":"56373"},{"id":"3326110022","district_id":"3326110","name":"SEMBUNG JAMBU","postal_code":"51156"}]