[{"id":"3327100001","district_id":"3327100","name":"KENDALSARI","postal_code":"52362"},{"id":"3327100002","district_id":"3327100","name":"WIDODAREN","postal_code":"52362"},{"id":"3327100003","district_id":"3327100","name":"KARANGASEM","postal_code":"62352"},{"id":"3327100004","district_id":"3327100","name":"PETANJUNGAN","postal_code":"52362"},{"id":"3327100005","district_id":"3327100","name":"SIRANGKANG","postal_code":"52362"},{"id":"3327100006","district_id":"3327100","name":"ISER","postal_code":"52362"},{"id":"3327100007","district_id":"3327100","name":"SERANG","postal_code":"56354"},{"id":"3327100008","district_id":"3327100","name":"PETARUKAN","postal_code":"52362"},{"id":"3327100009","district_id":"3327100","name":"KALIRANDU","postal_code":"52362"},{"id":"3327100011","district_id":"3327100","name":"PANJUNAN","postal_code":"61216"},{"id":"3327100012","district_id":"3327100","name":"TEMUIRENG","postal_code":"52362"},{"id":"3327100013","district_id":"3327100","name":"PEGUNDAN","postal_code":"52362"},{"id":"3327100015","district_id":"3327100","name":"TEGALMLATI","postal_code":"52362"},{"id":"3327100016","district_id":"3327100","name":"LONING","postal_code":"54262"},{"id":"3327100017","district_id":"3327100","name":"NYAMPLUNG SARI","postal_code":"52362"},{"id":"3327100018","district_id":"3327100","name":"KLAREYAN","postal_code":"52362"},{"id":"3327100019","district_id":"3327100","name":"KENDALDOYONG","postal_code":"52362"},{"id":"3327100020","district_id":"3327100","name":"KENDALREJO","postal_code":"62372"}]