[{"id":"3328180001","district_id":"3328180","name":"KEDUNGJATI","postal_code":"52183"},{"id":"3328180002","district_id":"3328180","name":"SIDOMULYO","postal_code":"66262"},{"id":"3328180003","district_id":"3328180","name":"SIGENTONG","postal_code":"52183"},{"id":"3328180004","district_id":"3328180","name":"KREMAN","postal_code":"52183"},{"id":"3328180005","district_id":"3328180","name":"KENDAYAKAN","postal_code":"52183"},{"id":"3328180006","district_id":"3328180","name":"SUKAREJA","postal_code":"52183"},{"id":"3328180007","district_id":"3328180","name":"WARUREJA","postal_code":"52183"},{"id":"3328180008","district_id":"3328180","name":"RANGIMULYA","postal_code":"52183"},{"id":"3328180009","district_id":"3328180","name":"BANJARTURI","postal_code":"52183"},{"id":"3328180010","district_id":"3328180","name":"BANJAR AGUNG","postal_code":"34761"},{"id":"3328180011","district_id":"3328180","name":"KEDUNGKELOR","postal_code":"52183"},{"id":"3328180012","district_id":"3328180","name":"DEMANGHARJO","postal_code":"52183"}]