[{"id":"3328070002","district_id":"3328070","name":"MOKAHA","postal_code":"52473"},{"id":"3328070003","district_id":"3328070","name":"PENYALAHAN","postal_code":"52473"},{"id":"3328070004","district_id":"3328070","name":"SITAIL","postal_code":"22755"},{"id":"3328070005","district_id":"3328070","name":"SUMBARANG","postal_code":"52473"},{"id":"3328070006","district_id":"3328070","name":"CERIH","postal_code":"52473"},{"id":"3328070007","district_id":"3328070","name":"GANTUNGAN","postal_code":"52473"},{"id":"3328070008","district_id":"3328070","name":"ARGATAWANG","postal_code":"52473"},{"id":"3328070009","district_id":"3328070","name":"PADASARI","postal_code":"52473"},{"id":"3328070010","district_id":"3328070","name":"CAPAR","postal_code":"52473"},{"id":"3328070011","district_id":"3328070","name":"LEBAKWANGI","postal_code":"52473"},{"id":"3328070012","district_id":"3328070","name":"DUKUHBANGSA","postal_code":"52473"},{"id":"3328070013","district_id":"3328070","name":"JATINEGARA","postal_code":"52473"},{"id":"3328070014","district_id":"3328070","name":"LUWIJAWA","postal_code":"52473"},{"id":"3328070015","district_id":"3328070","name":"LEMBASARI","postal_code":"94351"},{"id":"3328070016","district_id":"3328070","name":"TAMANSARI","postal_code":"52473"},{"id":"3328070017","district_id":"3328070","name":"WOTGALIH","postal_code":"52473"}]