[{"id":"3328060001","district_id":"3328060","name":"TIMBANGREJA","postal_code":"52461"},{"id":"3328060002","district_id":"3328060","name":"YAMANSARI","postal_code":"52461"},{"id":"3328060003","district_id":"3328060","name":"LEBAKSIU KIDUL","postal_code":"52461"},{"id":"3328060004","district_id":"3328060","name":"LEBAKSIU LOR","postal_code":"52461"},{"id":"3328060005","district_id":"3328060","name":"KAJEN","postal_code":"52193"},{"id":"3328060006","district_id":"3328060","name":"DUKUHLO","postal_code":"52461"},{"id":"3328060007","district_id":"3328060","name":"PENDAWA","postal_code":"52461"},{"id":"3328060008","district_id":"3328060","name":"JATIMULYO","postal_code":"66261"},{"id":"3328060009","district_id":"3328060","name":"LEBAK GOAH","postal_code":"52461"},{"id":"3328060011","district_id":"3328060","name":"BALARADIN","postal_code":"52461"},{"id":"3328060012","district_id":"3328060","name":"KAMBANGAN","postal_code":"52461"},{"id":"3328060013","district_id":"3328060","name":"TEGALANDONG","postal_code":"52461"},{"id":"3328060014","district_id":"3328060","name":"DUKUHDAMU","postal_code":"52461"},{"id":"3328060015","district_id":"3328060","name":"SLARANG KIDUL","postal_code":"52461"}]