[{"id":"3328050002","district_id":"3328050","name":"RAJEGWESI","postal_code":"52462"},{"id":"3328050003","district_id":"3328050","name":"SIDO MULYO","postal_code":"52462"},{"id":"3328050004","district_id":"3328050","name":"MULYOHARJO","postal_code":"52462"},{"id":"3328050005","district_id":"3328050","name":"SEMBOJA","postal_code":"52462"},{"id":"3328050006","district_id":"3328050","name":"RANDUSARI","postal_code":"57694"},{"id":"3328050007","district_id":"3328050","name":"JATIWANGI","postal_code":"52462"},{"id":"3328050008","district_id":"3328050","name":"PAGERBARANG","postal_code":"52462"},{"id":"3328050009","district_id":"3328050","name":"KARANGANYAR","postal_code":"56362"},{"id":"3328050010","district_id":"3328050","name":"KERTAHARJA","postal_code":"52181"},{"id":"3328050011","district_id":"3328050","name":"KEDUNGSUGIH","postal_code":"52462"},{"id":"3328050012","district_id":"3328050","name":"SUROKIDUL","postal_code":"52462"},{"id":"3328050013","district_id":"3328050","name":"PESAREAN","postal_code":"52194"}]