[{"id":"3329010001","district_id":"3329010","name":"GUNUNG JAYA","postal_code":"93573"},{"id":"3329010002","district_id":"3329010","name":"INDRAJAYA","postal_code":"46415"},{"id":"3329010003","district_id":"3329010","name":"BANJARAN","postal_code":"53362"},{"id":"3329010004","district_id":"3329010","name":"SALEM","postal_code":"41115"},{"id":"3329010005","district_id":"3329010","name":"GUNUNG LARANG","postal_code":"52275"},{"id":"3329010006","district_id":"3329010","name":"GUNUNG SUGIH","postal_code":"35368"},{"id":"3329010007","district_id":"3329010","name":"GANGGAWANG","postal_code":"52275"},{"id":"3329010008","district_id":"3329010","name":"CITIMBANG","postal_code":"52275"},{"id":"3329010009","district_id":"3329010","name":"KADUMANIS","postal_code":"52275"},{"id":"3329010010","district_id":"3329010","name":"GANDOANG","postal_code":"52275"},{"id":"3329010011","district_id":"3329010","name":"CIPUTIH","postal_code":"52275"},{"id":"3329010012","district_id":"3329010","name":"BENTARSARI","postal_code":"52275"},{"id":"3329010013","district_id":"3329010","name":"BENTAR","postal_code":"52275"},{"id":"3329010014","district_id":"3329010","name":"PABUARAN","postal_code":"15114"},{"id":"3329010015","district_id":"3329010","name":"TEMBONGRAJA","postal_code":"52275"},{"id":"3329010016","district_id":"3329010","name":"GUNUNG TAJEM","postal_code":"52275"},{"id":"3329010017","district_id":"3329010","name":"WINDUSAKTI","postal_code":"52275"},{"id":"3329010018","district_id":"3329010","name":"WINDUASRI","postal_code":"52275"},{"id":"3329010019","district_id":"3329010","name":"CAPAR","postal_code":"52473"},{"id":"3329010020","district_id":"3329010","name":"WANOJA","postal_code":"52275"},{"id":"3329010021","district_id":"3329010","name":"PASIR PANJANG","postal_code":"78915"}]