[{"id":"3329030001","district_id":"3329030","name":"PRUWATAN","postal_code":"52273"},{"id":"3329030002","district_id":"3329030","name":"LAREN","postal_code":"62262"},{"id":"3329030003","district_id":"3329030","name":"JATISAWIT","postal_code":"45453"},{"id":"3329030004","district_id":"3329030","name":"NEGARADAHA","postal_code":"52273"},{"id":"3329030005","district_id":"3329030","name":"KALIERANG","postal_code":"56361"},{"id":"3329030006","district_id":"3329030","name":"LANGKAP","postal_code":"68356"},{"id":"3329030007","district_id":"3329030","name":"ADISANA","postal_code":"52273"},{"id":"3329030008","district_id":"3329030","name":"PENGGARUTAN","postal_code":"50113"},{"id":"3329030009","district_id":"3329030","name":"DUKUHTURI","postal_code":"52192"},{"id":"3329030010","district_id":"3329030","name":"BUMIAYU","postal_code":"56262"},{"id":"3329030011","district_id":"3329030","name":"KALIWADAS","postal_code":"52194"},{"id":"3329030012","district_id":"3329030","name":"PAMIJEN","postal_code":"52273"},{"id":"3329030013","district_id":"3329030","name":"KALISUMUR","postal_code":"52273"},{"id":"3329030014","district_id":"3329030","name":"KALILANGKAP","postal_code":"52273"},{"id":"3329030015","district_id":"3329030","name":"KALINUSU","postal_code":"52273"}]