[{"id":"3329100001","district_id":"3329100","name":"RANDEGAN","postal_code":"61272"},{"id":"3329100002","district_id":"3329100","name":"JATI SAWIT","postal_code":"52255"},{"id":"3329100003","district_id":"3329100","name":"KARANGSAMBUNG","postal_code":"56373"},{"id":"3329100004","district_id":"3329100","name":"NEGLA","postal_code":"52255"},{"id":"3329100005","district_id":"3329100","name":"BOJONGSARI","postal_code":"46188"},{"id":"3329100006","district_id":"3329100","name":"KARANGJUNTI","postal_code":"52255"},{"id":"3329100007","district_id":"3329100","name":"RUNGKANG","postal_code":"53254"},{"id":"3329100008","district_id":"3329100","name":"DUKUHSALAM","postal_code":"52255"},{"id":"3329100009","district_id":"3329100","name":"BABAKAN","postal_code":"52181"},{"id":"3329100010","district_id":"3329100","name":"KALIBUNTU","postal_code":"67282"},{"id":"3329100012","district_id":"3329100","name":"RANDUSARI","postal_code":"57694"},{"id":"3329100014","district_id":"3329100","name":"PEKAUMAN","postal_code":"52125"},{"id":"3329100015","district_id":"3329100","name":"LOSARI KIDUL","postal_code":"45192"},{"id":"3329100016","district_id":"3329100","name":"LOSARI LOR","postal_code":"45192"},{"id":"3329100017","district_id":"3329100","name":"KECIPIR","postal_code":"52255"},{"id":"3329100018","district_id":"3329100","name":"PENGABEAN","postal_code":"52192"},{"id":"3329100019","district_id":"3329100","name":"LIMBANGAN","postal_code":"56352"},{"id":"3329100020","district_id":"3329100","name":"PRAPAG KIDUL","postal_code":"54263"},{"id":"3329100021","district_id":"3329100","name":"KARANGDEMPEL","postal_code":"52255"},{"id":"3329100022","district_id":"3329100","name":"PRAPAG LOR","postal_code":"54263"}]