[{"id":"3372050001","district_id":"3372050","name":"MANGKUBUMEN","postal_code":"57139"},{"id":"3372050002","district_id":"3372050","name":"TIMURAN","postal_code":"57131"},{"id":"3372050003","district_id":"3372050","name":"KEPRABON","postal_code":"57131"},{"id":"3372050004","district_id":"3372050","name":"KETELAN","postal_code":"57132"},{"id":"3372050005","district_id":"3372050","name":"PUNGGAWAN","postal_code":"57132"},{"id":"3372050006","district_id":"3372050","name":"KESTALAN","postal_code":"57133"},{"id":"3372050007","district_id":"3372050","name":"SETABELAN","postal_code":"57139"},{"id":"3372050008","district_id":"3372050","name":"GILINGAN","postal_code":"57134"},{"id":"3372050009","district_id":"3372050","name":"MANAHAN","postal_code":"57139"},{"id":"3372050011","district_id":"3372050","name":"NUSUKAN","postal_code":"57135"},{"id":"3372050012","district_id":"3372050","name":"KADIPIRO","postal_code":"57136"},{"id":"3372050013","district_id":"3372050","name":"BANYUANYAR","postal_code":"57137"}]