[{"id":"3374010001","district_id":"3374010","name":"CANGKIRAN","postal_code":"50216"},{"id":"3374010002","district_id":"3374010","name":"BUBAKAN","postal_code":"57683"},{"id":"3374010003","district_id":"3374010","name":"KARANGMALANG","postal_code":"52472"},{"id":"3374010004","district_id":"3374010","name":"POLAMAN","postal_code":"50217"},{"id":"3374010005","district_id":"3374010","name":"PURWOSARI","postal_code":"56364"},{"id":"3374010006","district_id":"3374010","name":"TAMBANGAN","postal_code":"20631"},{"id":"3374010007","district_id":"3374010","name":"JATISARI","postal_code":"57691"},{"id":"3374010008","district_id":"3374010","name":"MIJEN","postal_code":"50519"},{"id":"3374010009","district_id":"3374010","name":"JATIBARANG","postal_code":"50219"},{"id":"3374010010","district_id":"3374010","name":"KEDUNGPANI","postal_code":"50211"},{"id":"3374010011","district_id":"3374010","name":"PESANTREN","postal_code":"56266"},{"id":"3374010012","district_id":"3374010","name":"NGADIRGO","postal_code":"50213"},{"id":"3374010013","district_id":"3374010","name":"WONOLOPO","postal_code":"50215"},{"id":"3374010014","district_id":"3374010","name":"WONOPLUMBON","postal_code":"50214"}]