[{"id":"3374140001","district_id":"3374140","name":"KEMBANGARUM","postal_code":"50183"},{"id":"3374140002","district_id":"3374140","name":"MANYARAN","postal_code":"50147"},{"id":"3374140003","district_id":"3374140","name":"NGEMPLAKSIMONGAN","postal_code":"59261"},{"id":"3374140004","district_id":"3374140","name":"BONGSARI","postal_code":"50148"},{"id":"3374140005","district_id":"3374140","name":"BOJONGSALAMAN","postal_code":"50141"},{"id":"3374140006","district_id":"3374140","name":"CABEAN","postal_code":"50141"},{"id":"3374140007","district_id":"3374140","name":"SALAMANMLOYO","postal_code":"50149"},{"id":"3374140008","district_id":"3374140","name":"GISIKDRONO","postal_code":"50149"},{"id":"3374140009","district_id":"3374140","name":"KALIBANTENG KIDUL","postal_code":"50149"},{"id":"3374140010","district_id":"3374140","name":"KALIBANTENG KULON","postal_code":"50145"},{"id":"3374140011","district_id":"3374140","name":"KRAPYAK","postal_code":"50146"},{"id":"3374140012","district_id":"3374140","name":"TAMBAK HARJO","postal_code":"50149"},{"id":"3374140013","district_id":"3374140","name":"TAWANGSARI","postal_code":"56313"},{"id":"3374140014","district_id":"3374140","name":"KARANG AYU","postal_code":"50149"},{"id":"3374140015","district_id":"3374140","name":"KROBOKAN","postal_code":"50141"},{"id":"3374140016","district_id":"3374140","name":"TAWANGMAS","postal_code":"50144"}]