[{"id":"3502030002","district_id":"3502030","name":"KORIPAN","postal_code":"50777"},{"id":"3502030003","district_id":"3502030","name":"BEKARE","postal_code":"63462"},{"id":"3502030004","district_id":"3502030","name":"NAMBAK","postal_code":"63462"},{"id":"3502030005","district_id":"3502030","name":"KALISAT","postal_code":"63462"},{"id":"3502030007","district_id":"3502030","name":"PAGER","postal_code":"50229"},{"id":"3502030008","district_id":"3502030","name":"BELANG","postal_code":"95997"},{"id":"3502030009","district_id":"3502030","name":"BUNGKAL","postal_code":"63462"},{"id":"3502030010","district_id":"3502030","name":"KETONGGO","postal_code":"63462"},{"id":"3502030011","district_id":"3502030","name":"KUNTI","postal_code":"63454"},{"id":"3502030012","district_id":"3502030","name":"BANCAR","postal_code":"62354"},{"id":"3502030013","district_id":"3502030","name":"PADAS","postal_code":"57277"},{"id":"3502030016","district_id":"3502030","name":"SAMBILAWANG","postal_code":"42453"},{"id":"3502030017","district_id":"3502030","name":"KWAJON","postal_code":"63462"},{"id":"3502030018","district_id":"3502030","name":"BEDIWETAN","postal_code":"63474"},{"id":"3502030019","district_id":"3502030","name":"BEDIKULON","postal_code":"63462"}]