[{"id":"3502120001","district_id":"3502120","name":"TEGALOMBO","postal_code":"56372"},{"id":"3502120002","district_id":"3502120","name":"NONGKODONO","postal_code":"63451"},{"id":"3502120003","district_id":"3502120","name":"SUKOSARI","postal_code":"34761"},{"id":"3502120004","district_id":"3502120","name":"NGRANDU","postal_code":"66362"},{"id":"3502120005","district_id":"3502120","name":"NGLARANGAN","postal_code":"56259"},{"id":"3502120006","district_id":"3502120","name":"BRINGIN","postal_code":"62357"},{"id":"3502120007","district_id":"3502120","name":"PENGKOL","postal_code":"57692"},{"id":"3502120008","district_id":"3502120","name":"GABEL","postal_code":"63451"},{"id":"3502120009","district_id":"3502120","name":"CILUK","postal_code":"63451"},{"id":"3502120010","district_id":"3502120","name":"SEMANDING","postal_code":"62381"},{"id":"3502120011","district_id":"3502120","name":"TOSANAN","postal_code":"63451"},{"id":"3502120012","district_id":"3502120","name":"MARON","postal_code":"56353"},{"id":"3502120013","district_id":"3502120","name":"SOMOROTO","postal_code":"63451"},{"id":"3502120014","district_id":"3502120","name":"PLOSOJENAR","postal_code":"63451"},{"id":"3502120015","district_id":"3502120","name":"CARAT","postal_code":"63451"},{"id":"3502120016","district_id":"3502120","name":"KAUMAN","postal_code":"56364"}]