[{"id":"3502090001","district_id":"3502090","name":"DEMANGAN","postal_code":"55221"},{"id":"3502090002","district_id":"3502090","name":"NGABAR","postal_code":"63471"},{"id":"3502090003","district_id":"3502090","name":"MADUSARI","postal_code":"63471"},{"id":"3502090004","district_id":"3502090","name":"BETON","postal_code":"63471"},{"id":"3502090005","district_id":"3502090","name":"SEKARAN","postal_code":"62362"},{"id":"3502090006","district_id":"3502090","name":"BRAHU","postal_code":"63471"},{"id":"3502090008","district_id":"3502090","name":"SAWUH","postal_code":"63471"},{"id":"3502090009","district_id":"3502090","name":"JARAK","postal_code":"63471"},{"id":"3502090010","district_id":"3502090","name":"TRANJANG","postal_code":"63471"},{"id":"3502090011","district_id":"3502090","name":"PIJERAN","postal_code":"63471"},{"id":"3502090012","district_id":"3502090","name":"MANUK","postal_code":"63471"},{"id":"3502090013","district_id":"3502090","name":"SIMAN","postal_code":"63471"},{"id":"3502090014","district_id":"3502090","name":"PATIHAN KIDUL","postal_code":"63471"},{"id":"3502090015","district_id":"3502090","name":"RONOSENTANAN","postal_code":"63471"},{"id":"3502090016","district_id":"3502090","name":"TAJUG","postal_code":"53355"},{"id":"3502090017","district_id":"3502090","name":"RONOWIJAYAN","postal_code":"63471"},{"id":"3502090018","district_id":"3502090","name":"MANGUNSUMAN","postal_code":"56482"}]