[{"id":"3504160001","district_id":"3504160","name":"PUCANGAN","postal_code":"66261"},{"id":"3504160002","district_id":"3504160","name":"BOLOREJO","postal_code":"66261"},{"id":"3504160003","district_id":"3504160","name":"KAUMAN","postal_code":"56364"},{"id":"3504160004","district_id":"3504160","name":"BALEREJO","postal_code":"66261"},{"id":"3504160005","district_id":"3504160","name":"BATANGSAREN","postal_code":"66261"},{"id":"3504160006","district_id":"3504160","name":"PANGGUNGREJO","postal_code":"66214"},{"id":"3504160007","district_id":"3504160","name":"SIDOREJO","postal_code":"56361"},{"id":"3504160008","district_id":"3504160","name":"KALANGBRET","postal_code":"66261"},{"id":"3504160009","district_id":"3504160","name":"MOJOSARI","postal_code":"56351"},{"id":"3504160010","district_id":"3504160","name":"KARANGANOM","postal_code":"66261"},{"id":"3504160011","district_id":"3504160","name":"KATES","postal_code":"66261"},{"id":"3504160012","district_id":"3504160","name":"BANARAN","postal_code":"57664"},{"id":"3504160013","district_id":"3504160","name":"JATIMULYO","postal_code":"66261"}]