[{"id":"3505070001","district_id":"3505070","name":"PANGGUNGDUWET","postal_code":"66161"},{"id":"3505070002","district_id":"3505070","name":"PAKISAJI","postal_code":"66281"},{"id":"3505070003","district_id":"3505070","name":"MARON","postal_code":"56353"},{"id":"3505070004","district_id":"3505070","name":"KEBONSARI","postal_code":"62317"},{"id":"3505070005","district_id":"3505070","name":"BENDOSARI","postal_code":"66252"},{"id":"3505070006","district_id":"3505070","name":"SURUHWADANG","postal_code":"66161"},{"id":"3505070007","district_id":"3505070","name":"SUMBERJO","postal_code":"59219"},{"id":"3505070008","district_id":"3505070","name":"DAWUHAN","postal_code":"66318"},{"id":"3505070009","district_id":"3505070","name":"SUMBERJATI","postal_code":"61364"},{"id":"3505070010","district_id":"3505070","name":"PLUMPUNGREJO","postal_code":"63157"},{"id":"3505070011","district_id":"3505070","name":"JIMBE","postal_code":"63492"},{"id":"3505070012","district_id":"3505070","name":"KADEMANGAN","postal_code":"15313"},{"id":"3505070013","district_id":"3505070","name":"REJOWINANGUN","postal_code":"55171"},{"id":"3505070014","district_id":"3505070","name":"PLOSOREJO","postal_code":"57696"},{"id":"3505070015","district_id":"3505070","name":"DARUNGAN","postal_code":"67382"}]