[{"id":"3505090001","district_id":"3505090","name":"TUMPANG","postal_code":"65156"},{"id":"3505090002","district_id":"3505090","name":"JABUNG","postal_code":"57283"},{"id":"3505090003","district_id":"3505090","name":"JEBLOG","postal_code":"57475"},{"id":"3505090004","district_id":"3505090","name":"BENDOSEWU","postal_code":"66183"},{"id":"3505090006","district_id":"3505090","name":"SRAGI","postal_code":"63453"},{"id":"3505090007","district_id":"3505090","name":"WONOREJO","postal_code":"56361"},{"id":"3505090008","district_id":"3505090","name":"PASIRHARJO","postal_code":"66183"},{"id":"3505090009","district_id":"3505090","name":"KENDALREJO","postal_code":"62372"},{"id":"3505090010","district_id":"3505090","name":"KAMULAN","postal_code":"66381"},{"id":"3505090011","district_id":"3505090","name":"TALUN","postal_code":"62357"},{"id":"3505090012","district_id":"3505090","name":"BAJANG","postal_code":"63461"},{"id":"3505090013","district_id":"3505090","name":"KAWERON","postal_code":"66183"},{"id":"3505090014","district_id":"3505090","name":"JAJAR","postal_code":"66372"}]