[{"id":"3506070002","district_id":"3506070","name":"TAWANG","postal_code":"46194"},{"id":"3506070003","district_id":"3506070","name":"SEGARAN","postal_code":"67287"},{"id":"3506070004","district_id":"3506070","name":"GADUNGAN","postal_code":"82162"},{"id":"3506070005","district_id":"3506070","name":"POJOK","postal_code":"66252"},{"id":"3506070006","district_id":"3506070","name":"WONOREJO","postal_code":"56361"},{"id":"3506070007","district_id":"3506070","name":"WATES","postal_code":"66272"},{"id":"3506070008","district_id":"3506070","name":"JAJAR","postal_code":"66372"},{"id":"3506070010","district_id":"3506070","name":"TEMPUREJO","postal_code":"56373"},{"id":"3506070011","district_id":"3506070","name":"PLAOSAN","postal_code":"61261"},{"id":"3506070012","district_id":"3506070","name":"KARANGANYAR","postal_code":"56362"},{"id":"3506070013","district_id":"3506070","name":"SUMBERAGUNG","postal_code":"57664"},{"id":"3506070014","district_id":"3506070","name":"PAGU","postal_code":"64174"},{"id":"3506070015","district_id":"3506070","name":"JOHO","postal_code":"57664"},{"id":"3506070016","district_id":"3506070","name":"SILIR","postal_code":"64174"},{"id":"3506070017","district_id":"3506070","name":"JANTI","postal_code":"61256"},{"id":"3506070018","district_id":"3506070","name":"SIDOMULYO","postal_code":"66262"}]