[{"id":"3506170001","district_id":"3506170","name":"MRANGGEN","postal_code":"57513"},{"id":"3506170002","district_id":"3506170","name":"PESING","postal_code":"64154"},{"id":"3506170003","district_id":"3506170","name":"JANTOK","postal_code":"64154"},{"id":"3506170004","district_id":"3506170","name":"KETAWANG","postal_code":"64451"},{"id":"3506170005","district_id":"3506170","name":"WONOTENGAH","postal_code":"64154"},{"id":"3506170006","district_id":"3506170","name":"PURWOASRI","postal_code":"63561"},{"id":"3506170007","district_id":"3506170","name":"PANDANSARI","postal_code":"66292"},{"id":"3506170008","district_id":"3506170","name":"BLAWE","postal_code":"64154"},{"id":"3506170009","district_id":"3506170","name":"BELOR","postal_code":"64154"},{"id":"3506170012","district_id":"3506170","name":"PURWODADI","postal_code":"56261"},{"id":"3506170014","district_id":"3506170","name":"KLAMPITAN","postal_code":"64154"},{"id":"3506170015","district_id":"3506170","name":"SIDOMULYO","postal_code":"66262"},{"id":"3506170016","district_id":"3506170","name":"SUMBERJO","postal_code":"59219"},{"id":"3506170018","district_id":"3506170","name":"WOROMARTO","postal_code":"64154"},{"id":"3506170019","district_id":"3506170","name":"MERJOYO","postal_code":"64154"},{"id":"3506170020","district_id":"3506170","name":"MEKIKIS","postal_code":"64154"},{"id":"3506170021","district_id":"3506170","name":"KARANGPAKIS","postal_code":"64154"},{"id":"3506170022","district_id":"3506170","name":"DAYU","postal_code":"64154"},{"id":"3506170023","district_id":"3506170","name":"DAWUHAN","postal_code":"66318"}]