[{"id":"3506100001","district_id":"3506100","name":"NGLUMBANG","postal_code":"64181"},{"id":"3506100002","district_id":"3506100","name":"BLIMBING","postal_code":"66293"},{"id":"3506100003","district_id":"3506100","name":"NGASEM","postal_code":"64392"},{"id":"3506100004","district_id":"3506100","name":"BANGKOK","postal_code":"62292"},{"id":"3506100006","district_id":"3506100","name":"BOGEM","postal_code":"63382"},{"id":"3506100008","district_id":"3506100","name":"BANYUANYAR","postal_code":"57137"},{"id":"3506100009","district_id":"3506100","name":"GABRU","postal_code":"64181"},{"id":"3506100010","district_id":"3506100","name":"WONOJOYO","postal_code":"64181"},{"id":"3506100011","district_id":"3506100","name":"KRANGGAN","postal_code":"56271"},{"id":"3506100012","district_id":"3506100","name":"GURAH","postal_code":"64181"},{"id":"3506100013","district_id":"3506100","name":"SUMBERCANGKRING","postal_code":"64181"},{"id":"3506100014","district_id":"3506100","name":"TIRU KIDUL","postal_code":"64181"},{"id":"3506100015","district_id":"3506100","name":"TIRU LOR","postal_code":"64181"},{"id":"3506100016","district_id":"3506100","name":"TAMBAKREJO","postal_code":"66291"},{"id":"3506100017","district_id":"3506100","name":"GEMPOLAN","postal_code":"66273"},{"id":"3506100019","district_id":"3506100","name":"SUKOREJO","postal_code":"56351"},{"id":"3506100020","district_id":"3506100","name":"GAYAM","postal_code":"66364"},{"id":"3506100021","district_id":"3506100","name":"ADAN-ADAN","postal_code":"64181"}]