[{"id":"3507140001","district_id":"3507140","name":"SUKOREJO","postal_code":"56351"},{"id":"3507140002","district_id":"3507140","name":"BULUPITU","postal_code":"65174"},{"id":"3507140003","district_id":"3507140","name":"SUKOSARI","postal_code":"34761"},{"id":"3507140004","district_id":"3507140","name":"PANGGUNGREJO","postal_code":"66214"},{"id":"3507140005","district_id":"3507140","name":"GONDANGLEGI KULON","postal_code":"65174"},{"id":"3507140006","district_id":"3507140","name":"GONDANGLEGI WETAN","postal_code":"65174"},{"id":"3507140007","district_id":"3507140","name":"SEPANJANG","postal_code":"69493"},{"id":"3507140008","district_id":"3507140","name":"PUTAT KIDUL","postal_code":"65174"},{"id":"3507140009","district_id":"3507140","name":"PUTAT LOR","postal_code":"65174"},{"id":"3507140011","district_id":"3507140","name":"KETAWANG","postal_code":"64451"},{"id":"3507140012","district_id":"3507140","name":"GANJARAN","postal_code":"35376"},{"id":"3507140013","district_id":"3507140","name":"PUTUKREJO","postal_code":"64471"},{"id":"3507140014","district_id":"3507140","name":"SUMBERJAYA","postal_code":"43186"}]