[{"id":"3507270001","district_id":"3507270","name":"SIDOLUHUR","postal_code":"55264"},{"id":"3507270002","district_id":"3507270","name":"SRIGADING","postal_code":"61385"},{"id":"3507270003","district_id":"3507270","name":"SIDODADI","postal_code":"34595"},{"id":"3507270004","district_id":"3507270","name":"BEDALI","postal_code":"65215"},{"id":"3507270005","district_id":"3507270","name":"KALIREJO","postal_code":"56264"},{"id":"3507270006","district_id":"3507270","name":"MULYOARJO","postal_code":"65216"},{"id":"3507270007","district_id":"3507270","name":"SUMBER NGEPOH","postal_code":"65216"},{"id":"3507270008","district_id":"3507270","name":"SUMBER PORONG","postal_code":"65216"},{"id":"3507270009","district_id":"3507270","name":"TURIREJO","postal_code":"65213"},{"id":"3507270010","district_id":"3507270","name":"LAWANG","postal_code":"65211"},{"id":"3507270011","district_id":"3507270","name":"KETINDAN","postal_code":"65214"},{"id":"3507270012","district_id":"3507270","name":"WONOREJO","postal_code":"56361"}]