[{"id":"3507080001","district_id":"3507080","name":"PURWODADI","postal_code":"56261"},{"id":"3507080002","district_id":"3507080","name":"PUJIHARJO","postal_code":"65182"},{"id":"3507080003","district_id":"3507080","name":"SUMBERTANGKIL","postal_code":"65182"},{"id":"3507080004","district_id":"3507080","name":"KEPATIHAN","postal_code":"57652"},{"id":"3507080005","district_id":"3507080","name":"JOGOMULYAN","postal_code":"65182"},{"id":"3507080006","district_id":"3507080","name":"TIRTOYUDO","postal_code":"65182"},{"id":"3507080007","district_id":"3507080","name":"GADUNGSARI","postal_code":"65182"},{"id":"3507080008","district_id":"3507080","name":"TLOGOSARI","postal_code":"57678"},{"id":"3507080009","district_id":"3507080","name":"SUKOREJO","postal_code":"56351"},{"id":"3507080010","district_id":"3507080","name":"AMPELGADING","postal_code":"52364"},{"id":"3507080011","district_id":"3507080","name":"TAMANKUNCARAN","postal_code":"65182"},{"id":"3507080012","district_id":"3507080","name":"WONOAGUNG","postal_code":"74873"},{"id":"3507080013","district_id":"3507080","name":"TAMANSATRIYAN","postal_code":"65182"}]