[{"id":"3508060008","district_id":"3508060","name":"BANJARWARU","postal_code":"67316"},{"id":"3508060009","district_id":"3508060","name":"LABRUK LOR","postal_code":"67316"},{"id":"3508060010","district_id":"3508060","name":"CITRODIWANGSAN","postal_code":"67312"},{"id":"3508060011","district_id":"3508060","name":"DITOTRUNAN","postal_code":"67313"},{"id":"3508060012","district_id":"3508060","name":"JOGOTRUNAN","postal_code":"67314"},{"id":"3508060013","district_id":"3508060","name":"DENOK","postal_code":"67316"},{"id":"3508060014","district_id":"3508060","name":"BLUKON","postal_code":"67316"},{"id":"3508060015","district_id":"3508060","name":"BORENG","postal_code":"67316"},{"id":"3508060016","district_id":"3508060","name":"JOGOYUDAN","postal_code":"67315"},{"id":"3508060017","district_id":"3508060","name":"ROGOTRUNAN","postal_code":"67316"},{"id":"3508060018","district_id":"3508060","name":"TOMPOKERSAN","postal_code":"67311"},{"id":"3508060019","district_id":"3508060","name":"KEPUHARJO","postal_code":"65152"}]