[{"id":"3509270001","district_id":"3509270","name":"SUMBERWARU","postal_code":"68374"},{"id":"3509270002","district_id":"3509270","name":"SUKOREJO","postal_code":"56351"},{"id":"3509270003","district_id":"3509270","name":"SUKOSARI","postal_code":"34761"},{"id":"3509270004","district_id":"3509270","name":"BALET BARU","postal_code":"68194"},{"id":"3509270005","district_id":"3509270","name":"SUMBER WRINGIN","postal_code":"68194"},{"id":"3509270006","district_id":"3509270","name":"MOJOGEMI","postal_code":"61173"},{"id":"3509270007","district_id":"3509270","name":"SUKOKERTO","postal_code":"67281"},{"id":"3509270008","district_id":"3509270","name":"SUKOWONO","postal_code":"31665"},{"id":"3509270009","district_id":"3509270","name":"DAWUHAN MANGLI","postal_code":"68194"},{"id":"3509270010","district_id":"3509270","name":"ARJASA","postal_code":"69491"},{"id":"3509270011","district_id":"3509270","name":"SUMBERDANTI","postal_code":"68194"},{"id":"3509270012","district_id":"3509270","name":"POCANGAN","postal_code":"68194"}]