[{"id":"3510180001","district_id":"3510180","name":"PAKIS","postal_code":"62371"},{"id":"3510180002","district_id":"3510180","name":"SOBO","postal_code":"66365"},{"id":"3510180003","district_id":"3510180","name":"KEBALENAN","postal_code":"68417"},{"id":"3510180004","district_id":"3510180","name":"PENGANJURAN","postal_code":"68416"},{"id":"3510180005","district_id":"3510180","name":"TUKANGKAYU","postal_code":"68416"},{"id":"3510180006","district_id":"3510180","name":"KERTOSARI","postal_code":"56217"},{"id":"3510180007","district_id":"3510180","name":"KARANGREJO","postal_code":"56361"},{"id":"3510180008","district_id":"3510180","name":"KEPATIHAN","postal_code":"57652"},{"id":"3510180009","district_id":"3510180","name":"PANDEREJO","postal_code":"68415"},{"id":"3510180010","district_id":"3510180","name":"SINGONEGARAN","postal_code":"64132"},{"id":"3510180011","district_id":"3510180","name":"TEMENGGUNGAN","postal_code":"67284"},{"id":"3510180012","district_id":"3510180","name":"KAMPUNG MELAYU","postal_code":"39152"},{"id":"3510180013","district_id":"3510180","name":"KAMPUNGMANDAR","postal_code":"66212"},{"id":"3510180014","district_id":"3510180","name":"LATENG","postal_code":"68413"},{"id":"3510180015","district_id":"3510180","name":"SINGOTRUNAN","postal_code":"68414"},{"id":"3510180016","district_id":"3510180","name":"PENGANTIGAN","postal_code":"68414"},{"id":"3510180017","district_id":"3510180","name":"SUMBERREJO","postal_code":"59184"},{"id":"3510180018","district_id":"3510180","name":"TAMAN BARU","postal_code":"35592"}]