[{"id":"3510210001","district_id":"3510210","name":"BANGSRING","postal_code":"68453"},{"id":"3510210002","district_id":"3510210","name":"BENGKAK","postal_code":"68453"},{"id":"3510210003","district_id":"3510210","name":"ALASBULU","postal_code":"68453"},{"id":"3510210004","district_id":"3510210","name":"WONGSOREJO","postal_code":"68453"},{"id":"3510210005","district_id":"3510210","name":"ALASREJO","postal_code":"68453"},{"id":"3510210006","district_id":"3510210","name":"SUMBERKENCONO","postal_code":"68263"},{"id":"3510210007","district_id":"3510210","name":"SIDOWANGI","postal_code":"56163"},{"id":"3510210008","district_id":"3510210","name":"SIDODADI","postal_code":"34595"},{"id":"3510210009","district_id":"3510210","name":"BAJULMATI","postal_code":"68453"},{"id":"3510210010","district_id":"3510210","name":"WATUKEBO","postal_code":"68453"},{"id":"3510210011","district_id":"3510210","name":"SUMBERANYAR","postal_code":"68357"},{"id":"3510210012","district_id":"3510210","name":"BIMOREJO","postal_code":"68453"}]