[{"id":"3511010001","district_id":"3511010","name":"SUCOLOR","postal_code":"68262"},{"id":"3511010002","district_id":"3511010","name":"PUJERBARU","postal_code":"68262"},{"id":"3511010003","district_id":"3511010","name":"TANAHWULAN","postal_code":"68262"},{"id":"3511010004","district_id":"3511010","name":"MAESAN","postal_code":"64162"},{"id":"3511010005","district_id":"3511010","name":"GAMBANGAN","postal_code":"68262"},{"id":"3511010006","district_id":"3511010","name":"SUGER LOR","postal_code":"68262"},{"id":"3511010007","district_id":"3511010","name":"SUMBERPAKEM","postal_code":"68262"},{"id":"3511010008","district_id":"3511010","name":"SUMBERSARI","postal_code":"56365"},{"id":"3511010009","district_id":"3511010","name":"SUMBERANYAR","postal_code":"68357"},{"id":"3511010010","district_id":"3511010","name":"PENANGGUNGAN","postal_code":"35379"},{"id":"3511010011","district_id":"3511010","name":"PAKUNIRAN","postal_code":"67292"},{"id":"3511010012","district_id":"3511010","name":"GUNUNGSARI","postal_code":"57691"}]