[{"id":"3511170001","district_id":"3511170","name":"SULING KULON","postal_code":"68286"},{"id":"3511170002","district_id":"3511170","name":"SOLOR","postal_code":"85229"},{"id":"3511170003","district_id":"3511170","name":"KLADI","postal_code":"68286"},{"id":"3511170004","district_id":"3511170","name":"BERCAK","postal_code":"57382"},{"id":"3511170006","district_id":"3511170","name":"SULING WETAN","postal_code":"68286"},{"id":"3511170007","district_id":"3511170","name":"RAMBAN WETAN","postal_code":"68286"},{"id":"3511170008","district_id":"3511170","name":"RAMBAN KULON","postal_code":"68286"},{"id":"3511170009","district_id":"3511170","name":"GRUJUGAN","postal_code":"69472"},{"id":"3511170010","district_id":"3511170","name":"BAJURAN","postal_code":"68286"},{"id":"3511170011","district_id":"3511170","name":"JIREK MAS","postal_code":"68286"},{"id":"3511170012","district_id":"3511170","name":"BATUSALANG","postal_code":"45453"},{"id":"3511170013","district_id":"3511170","name":"PELALANGAN","postal_code":"68282"},{"id":"3511170014","district_id":"3511170","name":"BATU AMPAR","postal_code":"34595"},{"id":"3511170015","district_id":"3511170","name":"BERCAK ASRI","postal_code":"68286"}]