[{"id":"3512120001","district_id":"3512120","name":"SLIWUNG","postal_code":"68323"},{"id":"3512120002","district_id":"3512120","name":"ARDIREJO","postal_code":"68321"},{"id":"3512120003","district_id":"3512120","name":"BATTAL","postal_code":"68323"},{"id":"3512120004","district_id":"3512120","name":"KLAMPOKAN","postal_code":"68323"},{"id":"3512120005","district_id":"3512120","name":"JUGLANGAN","postal_code":"68323"},{"id":"3512120006","district_id":"3512120","name":"PANJI KIDUL","postal_code":"68323"},{"id":"3512120007","district_id":"3512120","name":"PANJI LOR","postal_code":"68323"},{"id":"3512120008","district_id":"3512120","name":"MIMBAAN","postal_code":"68322"},{"id":"3512120009","district_id":"3512120","name":"CURAH JERU","postal_code":"68323"},{"id":"3512120010","district_id":"3512120","name":"TOKELAN","postal_code":"68323"},{"id":"3512120011","district_id":"3512120","name":"TENGGIR","postal_code":"68323"},{"id":"3512120012","district_id":"3512120","name":"KAYU PUTIH","postal_code":"68323"}]