[{"id":"3513070001","district_id":"3513070","name":"GUNUNGGENI","postal_code":"46182"},{"id":"3513070002","district_id":"3513070","name":"LIPRAK KIDUL","postal_code":"67275"},{"id":"3513070003","district_id":"3513070","name":"SENTULAN","postal_code":"67275"},{"id":"3513070004","district_id":"3513070","name":"GADING KULON","postal_code":"67275"},{"id":"3513070005","district_id":"3513070","name":"KLENANG KIDUL","postal_code":"67275"},{"id":"3513070006","district_id":"3513070","name":"KLENANG LOR","postal_code":"67275"},{"id":"3513070007","district_id":"3513070","name":"TAROKAN","postal_code":"67275"},{"id":"3513070008","district_id":"3513070","name":"LIPRAK WETAN","postal_code":"67275"},{"id":"3513070009","district_id":"3513070","name":"LIPRAK KULON","postal_code":"67275"},{"id":"3513070010","district_id":"3513070","name":"BANYUANYAR KIDUL","postal_code":"67275"},{"id":"3513070011","district_id":"3513070","name":"BLADO WETAN","postal_code":"67275"},{"id":"3513070012","district_id":"3513070","name":"BANYUANYAR TENGAH","postal_code":"67275"},{"id":"3513070013","district_id":"3513070","name":"PENDIL","postal_code":"67275"},{"id":"3513070014","district_id":"3513070","name":"ALASSAPI","postal_code":"67275"}]