[{"id":"3513200001","district_id":"3513200","name":"NGEPOH","postal_code":"66283"},{"id":"3513200002","district_id":"3513200","name":"SUMBERAGUNG","postal_code":"57664"},{"id":"3513200003","district_id":"3513200","name":"SUMBERSUKO","postal_code":"65158"},{"id":"3513200004","district_id":"3513200","name":"WATUWUNGKUK","postal_code":"67271"},{"id":"3513200005","district_id":"3513200","name":"SEKARKARE","postal_code":"67271"},{"id":"3513200006","district_id":"3513200","name":"MRANGGON LAWANG","postal_code":"67271"},{"id":"3513200007","district_id":"3513200","name":"TEGALREJO","postal_code":"55244"},{"id":"3513200008","district_id":"3513200","name":"KALIREJO","postal_code":"56264"},{"id":"3513200009","district_id":"3513200","name":"KEDUNGDALEM","postal_code":"67271"},{"id":"3513200010","district_id":"3513200","name":"TAMANSARI","postal_code":"52473"},{"id":"3513200011","district_id":"3513200","name":"RANDUPUTIH","postal_code":"67271"},{"id":"3513200012","district_id":"3513200","name":"KALISALAM","postal_code":"67271"},{"id":"3513200013","district_id":"3513200","name":"DRINGU","postal_code":"67271"},{"id":"3513200014","district_id":"3513200","name":"PABEAN","postal_code":"61253"}]