[{"id":"3513120002","district_id":"3513120","name":"SAMBIRAMPAK KIDUL","postal_code":"67293"},{"id":"3513120003","district_id":"3513120","name":"SIDOMULYO","postal_code":"66262"},{"id":"3513120004","district_id":"3513120","name":"TAMBAKUKIR","postal_code":"67293"},{"id":"3513120005","district_id":"3513120","name":"CURAH TEMU","postal_code":"68371"},{"id":"3513120006","district_id":"3513120","name":"PASEMBON","postal_code":"67293"},{"id":"3513120007","district_id":"3513120","name":"SIDOREJO","postal_code":"56361"},{"id":"3513120008","district_id":"3513120","name":"SAMBIRAMPAK LOR","postal_code":"67293"},{"id":"3513120009","district_id":"3513120","name":"SUKOREJO","postal_code":"56351"},{"id":"3513120010","district_id":"3513120","name":"TALKANDANG","postal_code":"68315"},{"id":"3513120011","district_id":"3513120","name":"KEDUNG REJOSO","postal_code":"67261"},{"id":"3513120012","district_id":"3513120","name":"TRIWUNGAN","postal_code":"67293"},{"id":"3513120013","district_id":"3513120","name":"KOTAANYAR","postal_code":"28554"}]