[{"id":"3513240001","district_id":"3513240","name":"MUNENG KIDUL","postal_code":"67251"},{"id":"3513240002","district_id":"3513240","name":"POHSANGIT LERES","postal_code":"67251"},{"id":"3513240003","district_id":"3513240","name":"LAWEYAN","postal_code":"57148"},{"id":"3513240005","district_id":"3513240","name":"JANGUR","postal_code":"67251"},{"id":"3513240006","district_id":"3513240","name":"SUMBERBENDO","postal_code":"66284"},{"id":"3513240007","district_id":"3513240","name":"MENTOR","postal_code":"67251"},{"id":"3513240008","district_id":"3513240","name":"SUMURMATI","postal_code":"67251"},{"id":"3513240009","district_id":"3513240","name":"PESISIR","postal_code":"68356"},{"id":"3513240010","district_id":"3513240","name":"LEMAHKEMBAR","postal_code":"67251"},{"id":"3513240011","district_id":"3513240","name":"AMBULU","postal_code":"67251"},{"id":"3513240012","district_id":"3513240","name":"BANJARSARI","postal_code":"66252"},{"id":"3513240013","district_id":"3513240","name":"GILI KETAPANG","postal_code":"67251"}]