[{"id":"3513230001","district_id":"3513230","name":"PAMATAN","postal_code":"67252"},{"id":"3513230002","district_id":"3513230","name":"SUMBERKRAMAT","postal_code":"67252"},{"id":"3513230003","district_id":"3513230","name":"SUMBEREJO","postal_code":"56365"},{"id":"3513230004","district_id":"3513230","name":"SUMENDI","postal_code":"67252"},{"id":"3513230005","district_id":"3513230","name":"BAYEMAN","postal_code":"68371"},{"id":"3513230007","district_id":"3513230","name":"CURAHDRINGU","postal_code":"68251"},{"id":"3513230008","district_id":"3513230","name":"WRINGINANOM","postal_code":"56371"},{"id":"3513230009","district_id":"3513230","name":"TONGASWETAN","postal_code":"67252"},{"id":"3513230010","district_id":"3513230","name":"TONGASKULON","postal_code":"67252"},{"id":"3513230011","district_id":"3513230","name":"CURAHTULIS","postal_code":"67293"},{"id":"3513230012","district_id":"3513230","name":"KLAMPOK","postal_code":"67252"},{"id":"3513230013","district_id":"3513230","name":"TANJUNGREJO","postal_code":"62361"},{"id":"3513230014","district_id":"3513230","name":"TAMBAKREJO","postal_code":"66291"}]