[{"id":"3513100001","district_id":"3513100","name":"CONDONG","postal_code":"46175"},{"id":"3513100002","district_id":"3513100","name":"JURANGJERO","postal_code":"57222"},{"id":"3513100003","district_id":"3513100","name":"RANUWURUNG","postal_code":"67292"},{"id":"3513100004","district_id":"3513100","name":"GADINGWETAN","postal_code":"61174"},{"id":"3513100005","district_id":"3513100","name":"BULUPANDAK","postal_code":"67292"},{"id":"3513100009","district_id":"3513100","name":"BETEKTAMAN","postal_code":"67288"},{"id":"3513100010","district_id":"3513100","name":"BATUR","postal_code":"50774"},{"id":"3513100012","district_id":"3513100","name":"DANDANG","postal_code":"74871"},{"id":"3513100013","district_id":"3513100","name":"KERTOSONO","postal_code":"66364"},{"id":"3513100014","district_id":"3513100","name":"PRASI","postal_code":"67292"},{"id":"3513100015","district_id":"3513100","name":"NOGOSAREN","postal_code":"50774"},{"id":"3513100016","district_id":"3513100","name":"WANGKAL","postal_code":"61275"},{"id":"3513100017","district_id":"3513100","name":"MOJOLEGI","postal_code":"67292"},{"id":"3513100018","district_id":"3513100","name":"KALIACAR","postal_code":"67292"},{"id":"3513100019","district_id":"3513100","name":"SUMBERSECANG","postal_code":"67292"}]