[{"id":"3513130001","district_id":"3513130","name":"JABUNG WETAN","postal_code":"67291"},{"id":"3513130002","district_id":"3513130","name":"KALIKAJAR KULON","postal_code":"67291"},{"id":"3513130003","district_id":"3513130","name":"KALIKAJAR WETAN","postal_code":"67291"},{"id":"3513130004","district_id":"3513130","name":"ALASTENGAH","postal_code":"67282"},{"id":"3513130005","district_id":"3513130","name":"PANDEAN","postal_code":"66363"},{"id":"3513130006","district_id":"3513130","name":"PETUNJUNGAN","postal_code":"52253"},{"id":"3513130007","district_id":"3513130","name":"TAMAN","postal_code":"68355"},{"id":"3513130008","district_id":"3513130","name":"PLAMPANG","postal_code":"84383"},{"id":"3513130009","district_id":"3513130","name":"SIDODADI","postal_code":"34595"},{"id":"3513130010","district_id":"3513130","name":"JABUNG CANDI","postal_code":"67291"},{"id":"3513130011","district_id":"3513130","name":"JABUNGSISIR","postal_code":"50266"},{"id":"3513130012","district_id":"3513130","name":"RANDUMERAK","postal_code":"58384"},{"id":"3513130013","district_id":"3513130","name":"RANDUTATAH","postal_code":"63271"},{"id":"3513130014","district_id":"3513130","name":"KARANGANYAR","postal_code":"56362"},{"id":"3513130015","district_id":"3513130","name":"PONDOK KELOR","postal_code":"15520"},{"id":"3513130016","district_id":"3513130","name":"SUKODADI","postal_code":"67291"},{"id":"3513130017","district_id":"3513130","name":"PAITON","postal_code":"67291"},{"id":"3513130018","district_id":"3513130","name":"SUMBERANYAR","postal_code":"68357"},{"id":"3513130019","district_id":"3513130","name":"SUMBEREJO","postal_code":"56365"},{"id":"3513130020","district_id":"3513130","name":"BHINAR","postal_code":"67291"}]