[{"id":"3514100001","district_id":"3514100","name":"JATIARJO","postal_code":"67157"},{"id":"3514100002","district_id":"3514100","name":"WATUAGUNG","postal_code":"57673"},{"id":"3514100003","district_id":"3514100","name":"DAYUREJO","postal_code":"67157"},{"id":"3514100004","district_id":"3514100","name":"BULUKANDANG","postal_code":"67157"},{"id":"3514100005","district_id":"3514100","name":"KETANIRENG","postal_code":"67157"},{"id":"3514100006","district_id":"3514100","name":"SUKOLELO","postal_code":"67157"},{"id":"3514100008","district_id":"3514100","name":"PECALUKAN","postal_code":"67157"},{"id":"3514100009","district_id":"3514100","name":"PRIGEN","postal_code":"67157"},{"id":"3514100010","district_id":"3514100","name":"LUMBANG REJO","postal_code":"67157"},{"id":"3514100011","district_id":"3514100","name":"SUKORENO","postal_code":"56364"},{"id":"3514100012","district_id":"3514100","name":"SEKARJOHO","postal_code":"67157"},{"id":"3514100013","district_id":"3514100","name":"GAMBIRAN","postal_code":"66262"},{"id":"3514100014","district_id":"3514100","name":"CANDI WATES","postal_code":"67157"}]