[{"id":"3515060001","district_id":"3515060","name":"RANDEGAN","postal_code":"61272"},{"id":"3515060002","district_id":"3515060","name":"KEDENSARI","postal_code":"61272"},{"id":"3515060003","district_id":"3515060","name":"KALISAMPURNO","postal_code":"61272"},{"id":"3515060004","district_id":"3515060","name":"KETAPANG","postal_code":"71152"},{"id":"3515060005","district_id":"3515060","name":"KEDUNGBENDO","postal_code":"63581"},{"id":"3515060006","district_id":"3515060","name":"GEMPOLSARI","postal_code":"41263"},{"id":"3515060008","district_id":"3515060","name":"PENATARSEWU","postal_code":"61272"},{"id":"3515060009","district_id":"3515060","name":"BANJARASRI","postal_code":"55672"},{"id":"3515060010","district_id":"3515060","name":"BANJARPANJI","postal_code":"63351"},{"id":"3515060011","district_id":"3515060","name":"KEDUNGBANTENG","postal_code":"65176"},{"id":"3515060012","district_id":"3515060","name":"KALIDAWIR","postal_code":"66281"},{"id":"3515060013","district_id":"3515060","name":"PUTAT","postal_code":"56253"},{"id":"3515060014","district_id":"3515060","name":"NGABAN","postal_code":"61272"},{"id":"3515060015","district_id":"3515060","name":"KALITENGAH","postal_code":"61272"},{"id":"3515060016","district_id":"3515060","name":"KLUDAN","postal_code":"61272"},{"id":"3515060017","district_id":"3515060","name":"BORO","postal_code":"66229"},{"id":"3515060018","district_id":"3515060","name":"KETEGAN","postal_code":"61257"},{"id":"3515060019","district_id":"3515060","name":"GANGGANG PANJANG","postal_code":"61272"}]