[{"id":"3515040001","district_id":"3515040","name":"KEBONAGUNG","postal_code":"57682"},{"id":"3515040002","district_id":"3515040","name":"PORONG","postal_code":"61274"},{"id":"3515040003","district_id":"3515040","name":"MINDI","postal_code":"61274"},{"id":"3515040004","district_id":"3515040","name":"JATIREJO","postal_code":"57678"},{"id":"3515040005","district_id":"3515040","name":"RENOKENONGO","postal_code":"61274"},{"id":"3515040006","district_id":"3515040","name":"GLAGAH ARUM","postal_code":"61274"},{"id":"3515040007","district_id":"3515040","name":"PLUMBON","postal_code":"56262"},{"id":"3515040008","district_id":"3515040","name":"SIRING","postal_code":"61274"},{"id":"3515040009","district_id":"3515040","name":"GEDANG","postal_code":"37111"},{"id":"3515040010","district_id":"3515040","name":"JUWET KENONGO","postal_code":"61274"},{"id":"3515040011","district_id":"3515040","name":"KEDUNGSOLO","postal_code":"61274"},{"id":"3515040012","district_id":"3515040","name":"KEBAKALAN","postal_code":"61274"},{"id":"3515040013","district_id":"3515040","name":"KESAMBI","postal_code":"66274"},{"id":"3515040014","district_id":"3515040","name":"PAMOTAN","postal_code":"61274"},{"id":"3515040016","district_id":"3515040","name":"CANDIPARI","postal_code":"61274"},{"id":"3515040017","district_id":"3515040","name":"LAJUK","postal_code":"61274"},{"id":"3515040018","district_id":"3515040","name":"KEDUNGBOTO","postal_code":"61274"},{"id":"3515040019","district_id":"3515040","name":"PESAWAHAN","postal_code":"61274"}]