[{"id":"3516080001","district_id":"3516080","name":"SUMBERTANGGUL","postal_code":"61382"},{"id":"3516080002","district_id":"3516080","name":"BELAHANTENGAH","postal_code":"61382"},{"id":"3516080003","district_id":"3516080","name":"AWANG AWANG","postal_code":"61382"},{"id":"3516080004","district_id":"3516080","name":"KAUMAN","postal_code":"56364"},{"id":"3516080005","district_id":"3516080","name":"SARIREJO","postal_code":"50124"},{"id":"3516080006","district_id":"3516080","name":"SAWAHAN","postal_code":"62371"},{"id":"3516080007","district_id":"3516080","name":"MOJOSARI","postal_code":"56351"},{"id":"3516080008","district_id":"3516080","name":"WONOKUSUMO","postal_code":"60154"},{"id":"3516080009","district_id":"3516080","name":"SEDURI","postal_code":"61263"},{"id":"3516080010","district_id":"3516080","name":"MOJOSULUR","postal_code":"61382"},{"id":"3516080011","district_id":"3516080","name":"RANDUBANGO","postal_code":"61382"},{"id":"3516080012","district_id":"3516080","name":"JOTANGAN","postal_code":"61382"},{"id":"3516080013","district_id":"3516080","name":"MENANGGAL","postal_code":"60234"},{"id":"3516080014","district_id":"3516080","name":"PEKUKUHAN","postal_code":"61382"},{"id":"3516080015","district_id":"3516080","name":"MODOPURO","postal_code":"61382"},{"id":"3516080016","district_id":"3516080","name":"KEBONDALEM","postal_code":"56258"},{"id":"3516080017","district_id":"3516080","name":"KEDUNGGEMPOL","postal_code":"61382"},{"id":"3516080018","district_id":"3516080","name":"NGIMBANGAN","postal_code":"61382"},{"id":"3516080019","district_id":"3516080","name":"LEMINGGIR","postal_code":"61382"}]