[{"id":"3516100002","district_id":"3516100","name":"KALEN","postal_code":"61371"},{"id":"3516100004","district_id":"3516100","name":"MOJOKARANG","postal_code":"61371"},{"id":"3516100006","district_id":"3516100","name":"TALOK","postal_code":"52471"},{"id":"3516100007","district_id":"3516100","name":"SUMBERSONO","postal_code":"64393"},{"id":"3516100008","district_id":"3516100","name":"SAMBILAWANG","postal_code":"42453"},{"id":"3516100009","district_id":"3516100","name":"JRAMBE","postal_code":"61371"},{"id":"3516100010","district_id":"3516100","name":"RANDUGENENGAN","postal_code":"61371"},{"id":"3516100011","district_id":"3516100","name":"POHKECIK","postal_code":"61371"},{"id":"3516100012","district_id":"3516100","name":"DLANGGU","postal_code":"61371"},{"id":"3516100014","district_id":"3516100","name":"SUMBERKARANG","postal_code":"61371"},{"id":"3516100015","district_id":"3516100","name":"KEDUNGLENGKONG","postal_code":"61371"},{"id":"3516100016","district_id":"3516100","name":"TUMAPEL","postal_code":"61371"}]