[{"id":"3517020001","district_id":"3517020","name":"JANTIGANGGONG","postal_code":"61461"},{"id":"3517020002","district_id":"3517020","name":"KEPUHKAJANG","postal_code":"61461"},{"id":"3517020003","district_id":"3517020","name":"SUMBERAGUNG","postal_code":"57664"},{"id":"3517020004","district_id":"3517020","name":"PAGERWOJO","postal_code":"66262"},{"id":"3517020005","district_id":"3517020","name":"PERAK","postal_code":"86591"},{"id":"3517020007","district_id":"3517020","name":"GLAGAHAN","postal_code":"62183"},{"id":"3517020008","district_id":"3517020","name":"KALANG SEMANDING","postal_code":"61461"},{"id":"3517020009","district_id":"3517020","name":"GADINGMANGU","postal_code":"61461"},{"id":"3517020010","district_id":"3517020","name":"PLOSOGENUK","postal_code":"61461"},{"id":"3517020011","district_id":"3517020","name":"SUKOREJO","postal_code":"56351"},{"id":"3517020012","district_id":"3517020","name":"TEMUWULAN","postal_code":"61461"},{"id":"3517020013","district_id":"3517020","name":"CANGKRINGRANDU","postal_code":"61461"}]