[{"id":"3518150001","district_id":"3518150","name":"BALONGREJO","postal_code":"64461"},{"id":"3518150002","district_id":"3518150","name":"GIRIREJO","postal_code":"57672"},{"id":"3518150004","district_id":"3518150","name":"SEKAR PUTIH","postal_code":"67174"},{"id":"3518150005","district_id":"3518150","name":"BUDURAN","postal_code":"61252"},{"id":"3518150007","district_id":"3518150","name":"BAGOR KULON","postal_code":"64461"},{"id":"3518150008","district_id":"3518150","name":"PETAK","postal_code":"64461"},{"id":"3518150009","district_id":"3518150","name":"PARON","postal_code":"63253"},{"id":"3518150010","district_id":"3518150","name":"KARANG TENGAH","postal_code":"15157"},{"id":"3518150011","district_id":"3518150","name":"SELOREJO","postal_code":"57683"},{"id":"3518150012","district_id":"3518150","name":"GANDU","postal_code":"56261"},{"id":"3518150013","district_id":"3518150","name":"GUYANGAN","postal_code":"54173"},{"id":"3518150014","district_id":"3518150","name":"KEDONDONG","postal_code":"61273"},{"id":"3518150015","district_id":"3518150","name":"SUGIH WARAS","postal_code":"61271"},{"id":"3518150016","district_id":"3518150","name":"KUTOREJO","postal_code":"62311"},{"id":"3518150017","district_id":"3518150","name":"KEREP KIDUL","postal_code":"64461"},{"id":"3518150019","district_id":"3518150","name":"KENDAL REJO","postal_code":"64461"},{"id":"3518150020","district_id":"3518150","name":"BANARAN KULON","postal_code":"64461"},{"id":"3518150021","district_id":"3518150","name":"BANARAN WETAN","postal_code":"64461"}]