[{"id":"3518060001","district_id":"3518060","name":"KEDUNG OMBO","postal_code":"64482"},{"id":"3518060004","district_id":"3518060","name":"KAMPUNGBARU","postal_code":"64482"},{"id":"3518060005","district_id":"3518060","name":"WATES","postal_code":"66272"},{"id":"3518060006","district_id":"3518060","name":"MALANGSARI","postal_code":"56253"},{"id":"3518060007","district_id":"3518060","name":"GETAS","postal_code":"56282"},{"id":"3518060008","district_id":"3518060","name":"SONOBEKEL","postal_code":"64482"},{"id":"3518060009","district_id":"3518060","name":"NGADIREJO","postal_code":"57663"},{"id":"3518060010","district_id":"3518060","name":"BANJAR ANYAR","postal_code":"52464"},{"id":"3518060012","district_id":"3518060","name":"SIDOHARJO","postal_code":"57682"},{"id":"3518060013","district_id":"3518060","name":"TANJUNG ANOM","postal_code":"35384"},{"id":"3518060014","district_id":"3518060","name":"JOGOMERTO","postal_code":"64482"},{"id":"3518060015","district_id":"3518060","name":"WARUJAYENG","postal_code":"64482"},{"id":"3518060016","district_id":"3518060","name":"KEDUNGREJO","postal_code":"57671"},{"id":"3518060018","district_id":"3518060","name":"SAMBIREJO","postal_code":"57691"},{"id":"3518060019","district_id":"3518060","name":"DEMANGAN","postal_code":"55221"}]