[{"id":"3518170001","district_id":"3518170","name":"SIDOKARE","postal_code":"61214"},{"id":"3518170002","district_id":"3518170","name":"SUKOREJO","postal_code":"56351"},{"id":"3518170004","district_id":"3518170","name":"GEMPOL","postal_code":"41255"},{"id":"3518170006","district_id":"3518170","name":"MLORAH","postal_code":"64453"},{"id":"3518170007","district_id":"3518170","name":"JATIREJO","postal_code":"57678"},{"id":"3518170008","district_id":"3518170","name":"KLAGEN","postal_code":"64453"},{"id":"3518170010","district_id":"3518170","name":"MOJOREMBUN","postal_code":"59252"},{"id":"3518170011","district_id":"3518170","name":"NGADIBOYO","postal_code":"64453"},{"id":"3518170012","district_id":"3518170","name":"REJOSO","postal_code":"64453"},{"id":"3518170013","district_id":"3518170","name":"TALANG","postal_code":"66254"},{"id":"3518170014","district_id":"3518170","name":"NGANGKATAN","postal_code":"64453"},{"id":"3518170015","district_id":"3518170","name":"TALUN","postal_code":"62357"},{"id":"3518170016","district_id":"3518170","name":"JINTEL","postal_code":"64453"},{"id":"3518170017","district_id":"3518170","name":"MUSIR KIDUL","postal_code":"64453"},{"id":"3518170018","district_id":"3518170","name":"BANJAREJO","postal_code":"66293"},{"id":"3518170019","district_id":"3518170","name":"SAMBI KEREP","postal_code":"64453"},{"id":"3518170020","district_id":"3518170","name":"MUSIR LOR","postal_code":"64453"},{"id":"3518170021","district_id":"3518170","name":"WENGKAL","postal_code":"64453"},{"id":"3518170022","district_id":"3518170","name":"KEDUNG PADANG","postal_code":"64453"},{"id":"3518170023","district_id":"3518170","name":"TRITIK","postal_code":"64453"},{"id":"3518170024","district_id":"3518170","name":"BENDA ASRI","postal_code":"64453"}]