[{"id":"3519090001","district_id":"3519090","name":"PURWOREJO","postal_code":"57615"},{"id":"3519090002","district_id":"3519090","name":"WONOAYU","postal_code":"61261"},{"id":"3519090003","district_id":"3519090","name":"KEDUNGREJO","postal_code":"57671"},{"id":"3519090004","district_id":"3519090","name":"KEDUNGMARON","postal_code":"63154"},{"id":"3519090006","district_id":"3519090","name":"SUMBERGANDU","postal_code":"63154"},{"id":"3519090007","district_id":"3519090","name":"PILANGKENCENG","postal_code":"63154"},{"id":"3519090009","district_id":"3519090","name":"PULEREJO","postal_code":"66252"},{"id":"3519090010","district_id":"3519090","name":"NGALE","postal_code":"63253"},{"id":"3519090012","district_id":"3519090","name":"KEDUNG BANTENG","postal_code":"52472"},{"id":"3519090013","district_id":"3519090","name":"LUWORO","postal_code":"63154"},{"id":"3519090014","district_id":"3519090","name":"GANDUL","postal_code":"63154"},{"id":"3519090015","district_id":"3519090","name":"NGENGOR","postal_code":"63154"},{"id":"3519090016","district_id":"3519090","name":"KENONGOREJO","postal_code":"63285"},{"id":"3519090018","district_id":"3519090","name":"DAWUHAN","postal_code":"66318"}]