[{"id":"3520090001","district_id":"3520090","name":"KALANGKETI","postal_code":"63391"},{"id":"3520090002","district_id":"3520090","name":"TAMANAN","postal_code":"66217"},{"id":"3520090003","district_id":"3520090","name":"TAMBAKMAS","postal_code":"63391"},{"id":"3520090004","district_id":"3520090","name":"BANDAR","postal_code":"63583"},{"id":"3520090005","district_id":"3520090","name":"BIBIS","postal_code":"63391"},{"id":"3520090006","district_id":"3520090","name":"SUKOMORO","postal_code":"64481"},{"id":"3520090008","district_id":"3520090","name":"POJOKSARI","postal_code":"50614"},{"id":"3520090009","district_id":"3520090","name":"TINAP","postal_code":"63391"},{"id":"3520090010","district_id":"3520090","name":"KEMBANGAN","postal_code":"66362"},{"id":"3520090011","district_id":"3520090","name":"KEDUNGGUWO","postal_code":"63391"},{"id":"3520090012","district_id":"3520090","name":"KENTANGAN","postal_code":"63391"},{"id":"3520090013","district_id":"3520090","name":"BOGEM","postal_code":"63382"}]