[{"id":"3522100001","district_id":"3522100","name":"BANJARANYAR","postal_code":"52353"},{"id":"3522100002","district_id":"3522100","name":"NGEMPLAK","postal_code":"56281"},{"id":"3522100003","district_id":"3522100","name":"SRATUREJO","postal_code":"62192"},{"id":"3522100004","district_id":"3522100","name":"BLONGSONG","postal_code":"62192"},{"id":"3522100005","district_id":"3522100","name":"BAURENO","postal_code":"61373"},{"id":"3522100006","district_id":"3522100","name":"TROJALU","postal_code":"62192"},{"id":"3522100007","district_id":"3522100","name":"TULUNGAGUNG","postal_code":"45274"},{"id":"3522100008","district_id":"3522100","name":"SELOREJO","postal_code":"57683"},{"id":"3522100009","district_id":"3522100","name":"TLOGOAGUNG","postal_code":"62354"},{"id":"3522100010","district_id":"3522100","name":"SUMURAGUNG","postal_code":"62191"},{"id":"3522100011","district_id":"3522100","name":"GAJAH","postal_code":"63474"},{"id":"3522100012","district_id":"3522100","name":"GUNUNGSARI","postal_code":"57691"},{"id":"3522100013","district_id":"3522100","name":"KALISARI","postal_code":"35686"},{"id":"3522100014","district_id":"3522100","name":"TANGGUNGAN","postal_code":"62257"},{"id":"3522100015","district_id":"3522100","name":"LEBAKSARI","postal_code":"43355"},{"id":"3522100016","district_id":"3522100","name":"BUMIAYU","postal_code":"56262"},{"id":"3522100017","district_id":"3522100","name":"KAUMAN","postal_code":"56364"},{"id":"3522100018","district_id":"3522100","name":"PASINAN","postal_code":"67186"},{"id":"3522100019","district_id":"3522100","name":"BANJARAN","postal_code":"53362"},{"id":"3522100020","district_id":"3522100","name":"DRAJAT","postal_code":"62264"},{"id":"3522100021","district_id":"3522100","name":"SEMBUNGLOR","postal_code":"62192"},{"id":"3522100022","district_id":"3522100","name":"POMAHAN","postal_code":"59254"},{"id":"3522100023","district_id":"3522100","name":"KARANGDAYU","postal_code":"62192"},{"id":"3522100024","district_id":"3522100","name":"KADUNGREJO","postal_code":"62192"},{"id":"3522100025","district_id":"3522100","name":"PUCANGARUM","postal_code":"62192"}]