[{"id":"3522140001","district_id":"3522140","name":"KALICILIK","postal_code":"59514"},{"id":"3522140002","district_id":"3522140","name":"SEMAWOT","postal_code":"62183"},{"id":"3522140004","district_id":"3522140","name":"TEGALKODO","postal_code":"62183"},{"id":"3522140005","district_id":"3522140","name":"SITIAJI","postal_code":"62183"},{"id":"3522140006","district_id":"3522140","name":"PURWOASRI","postal_code":"63561"},{"id":"3522140007","district_id":"3522140","name":"PACING","postal_code":"62366"},{"id":"3522140008","district_id":"3522140","name":"DUYUNGAN","postal_code":"57281"},{"id":"3522140010","district_id":"3522140","name":"SEMEN KIDUL","postal_code":"62183"},{"id":"3522140011","district_id":"3522140","name":"SUKOSEWU","postal_code":"62183"},{"id":"3522140012","district_id":"3522140","name":"SUMBEREJO KIDUL","postal_code":"62183"},{"id":"3522140013","district_id":"3522140","name":"SIDOREJO","postal_code":"56361"},{"id":"3522140014","district_id":"3522140","name":"SIDODADI","postal_code":"34595"}]