[{"id":"3522110001","district_id":"3522110","name":"SARANGAN","postal_code":"63361"},{"id":"3522110002","district_id":"3522110","name":"TEJO","postal_code":"61482"},{"id":"3522110004","district_id":"3522110","name":"SAMBERAN","postal_code":"62193"},{"id":"3522110005","district_id":"3522110","name":"NGLARANGAN","postal_code":"56259"},{"id":"3522110006","district_id":"3522110","name":"SROYO","postal_code":"57731"},{"id":"3522110007","district_id":"3522110","name":"BAKUNG","postal_code":"15550"},{"id":"3522110008","district_id":"3522110","name":"PALEMBON","postal_code":"62193"},{"id":"3522110009","district_id":"3522110","name":"SIMBATAN","postal_code":"63383"},{"id":"3522110010","district_id":"3522110","name":"CANGAKAN","postal_code":"63281"},{"id":"3522110011","district_id":"3522110","name":"KABALAN","postal_code":"62193"},{"id":"3522110012","district_id":"3522110","name":"PIYAK","postal_code":"62193"},{"id":"3522110013","district_id":"3522110","name":"CARUBAN","postal_code":"56281"},{"id":"3522110016","district_id":"3522110","name":"SIMOREJO","postal_code":"62383"},{"id":"3522110017","district_id":"3522110","name":"SUMBERWANGI","postal_code":"62193"},{"id":"3522110018","district_id":"3522110","name":"TAMBAHREJO","postal_code":"67373"},{"id":"3522110019","district_id":"3522110","name":"KANOR","postal_code":"62193"},{"id":"3522110020","district_id":"3522110","name":"PRIGI","postal_code":"66382"},{"id":"3522110022","district_id":"3522110","name":"KEDUNGPRIMPEN","postal_code":"62193"},{"id":"3522110023","district_id":"3522110","name":"GEDONGARUM","postal_code":"62193"},{"id":"3522110024","district_id":"3522110","name":"PILANG","postal_code":"57282"},{"id":"3522110025","district_id":"3522110","name":"SEMAMBUNG","postal_code":"68357"}]