[{"id":"3523170001","district_id":"3523170","name":"NGULAHAN","postal_code":"62353"},{"id":"3523170002","district_id":"3523170","name":"DIKIR","postal_code":"62353"},{"id":"3523170003","district_id":"3523170","name":"MANDER","postal_code":"62353"},{"id":"3523170004","district_id":"3523170","name":"PLAJAN","postal_code":"62353"},{"id":"3523170005","district_id":"3523170","name":"BELIKANGET","postal_code":"62353"},{"id":"3523170006","district_id":"3523170","name":"COKROWATI","postal_code":"62353"},{"id":"3523170007","district_id":"3523170","name":"SOTANG","postal_code":"62353"},{"id":"3523170008","district_id":"3523170","name":"PULOGEDE","postal_code":"62353"},{"id":"3523170009","district_id":"3523170","name":"GADON","postal_code":"62353"},{"id":"3523170010","district_id":"3523170","name":"PABEYAN","postal_code":"62353"},{"id":"3523170011","district_id":"3523170","name":"TAMBAKBOYO","postal_code":"62353"},{"id":"3523170013","district_id":"3523170","name":"DASIN","postal_code":"62353"},{"id":"3523170014","district_id":"3523170","name":"KENANTI","postal_code":"62353"},{"id":"3523170015","district_id":"3523170","name":"SOBONTORO","postal_code":"66232"},{"id":"3523170016","district_id":"3523170","name":"SAWIR","postal_code":"62353"},{"id":"3523170017","district_id":"3523170","name":"MERKAWANG","postal_code":"62353"},{"id":"3523170018","district_id":"3523170","name":"GLONDONGGEDE","postal_code":"62353"}]