[{"id":"3523180001","district_id":"3523180","name":"KARANGTENGAH","postal_code":"57677"},{"id":"3523180002","district_id":"3523180","name":"JOMBOK","postal_code":"62362"},{"id":"3523180003","district_id":"3523180","name":"WOTSOGO","postal_code":"62362"},{"id":"3523180004","district_id":"3523180","name":"SIDOMULYO","postal_code":"66262"},{"id":"3523180005","district_id":"3523180","name":"JATIKLABANG","postal_code":"62362"},{"id":"3523180006","district_id":"3523180","name":"DINGIL","postal_code":"62362"},{"id":"3523180007","district_id":"3523180","name":"DEMIT","postal_code":"62362"},{"id":"3523180008","district_id":"3523180","name":"SUGIHAN","postal_code":"57692"},{"id":"3523180009","district_id":"3523180","name":"SADANG","postal_code":"62362"},{"id":"3523180010","district_id":"3523180","name":"BADER","postal_code":"62362"},{"id":"3523180011","district_id":"3523180","name":"PASEYAN","postal_code":"62362"},{"id":"3523180012","district_id":"3523180","name":"KEBONHARJO","postal_code":"62362"},{"id":"3523180013","district_id":"3523180","name":"WANGI","postal_code":"62362"},{"id":"3523180014","district_id":"3523180","name":"KETODAN","postal_code":"62362"},{"id":"3523180015","district_id":"3523180","name":"BESOWO","postal_code":"62362"},{"id":"3523180016","district_id":"3523180","name":"NGEPON","postal_code":"62362"},{"id":"3523180017","district_id":"3523180","name":"KEDUNGMAKAM","postal_code":"62362"},{"id":"3523180018","district_id":"3523180","name":"SEKARAN","postal_code":"62362"}]