[{"id":"3524180001","district_id":"3524180","name":"SUKOANYAR","postal_code":"66273"},{"id":"3524180002","district_id":"3524180","name":"SUKOREJO","postal_code":"56351"},{"id":"3524180003","district_id":"3524180","name":"TAWANGREJO","postal_code":"57693"},{"id":"3524180004","district_id":"3524180","name":"TAMBAKPLOSO","postal_code":"62252"},{"id":"3524180005","district_id":"3524180","name":"BALUN","postal_code":"62252"},{"id":"3524180006","district_id":"3524180","name":"GEDONGBOYOUNTUNG","postal_code":"62252"},{"id":"3524180007","district_id":"3524180","name":"NGUJUNGREJO","postal_code":"62252"},{"id":"3524180008","district_id":"3524180","name":"BAMBANG","postal_code":"34877"},{"id":"3524180009","district_id":"3524180","name":"KEMLAGIGEDE","postal_code":"62252"},{"id":"3524180010","district_id":"3524180","name":"TURI","postal_code":"63473"},{"id":"3524180012","district_id":"3524180","name":"WANGUNREJO","postal_code":"54171"},{"id":"3524180014","district_id":"3524180","name":"BADURAME","postal_code":"62252"},{"id":"3524180015","district_id":"3524180","name":"KARANGWEDORO","postal_code":"62252"},{"id":"3524180016","district_id":"3524180","name":"PUTATKUMPUL","postal_code":"62252"},{"id":"3524180017","district_id":"3524180","name":"KEMLAGGI LOR","postal_code":"62252"},{"id":"3524180018","district_id":"3524180","name":"POMAHANJANGGAN","postal_code":"62252"},{"id":"3524180019","district_id":"3524180","name":"KEPUDIBENER","postal_code":"62252"}]