[{"id":"3524060001","district_id":"3524060","name":"MORONYAMPLUNG","postal_code":"62282"},{"id":"3524060002","district_id":"3524060","name":"DUMPIAGUNG","postal_code":"62282"},{"id":"3524060003","district_id":"3524060","name":"KATEMAS","postal_code":"62282"},{"id":"3524060004","district_id":"3524060","name":"GINTUNGAN","postal_code":"54191"},{"id":"3524060005","district_id":"3524060","name":"PELANG","postal_code":"59274"},{"id":"3524060007","district_id":"3524060","name":"MAOR","postal_code":"62282"},{"id":"3524060008","district_id":"3524060","name":"RANDUBENER","postal_code":"62282"},{"id":"3524060009","district_id":"3524060","name":"KALIWATES","postal_code":"62282"},{"id":"3524060010","district_id":"3524060","name":"TLOGOAGUNG","postal_code":"62354"},{"id":"3524060011","district_id":"3524060","name":"KEDUNGMEGARIH","postal_code":"62282"},{"id":"3524060012","district_id":"3524060","name":"KEMBANGBAHU","postal_code":"62282"},{"id":"3524060013","district_id":"3524060","name":"LOPANG","postal_code":"42113"},{"id":"3524060014","district_id":"3524060","name":"MANGKUJAJAR","postal_code":"62282"},{"id":"3524060015","district_id":"3524060","name":"KEDUNGASRI","postal_code":"62282"},{"id":"3524060016","district_id":"3524060","name":"DOYOMULYO","postal_code":"62282"},{"id":"3524060017","district_id":"3524060","name":"SIDOMUKTI","postal_code":"62363"},{"id":"3524060018","district_id":"3524060","name":"SUKOSONGO","postal_code":"62282"}]