[{"id":"3524130001","district_id":"3524130","name":"RANCANG KENCONO","postal_code":"62218"},{"id":"3524130002","district_id":"3524130","name":"WAJIK","postal_code":"62218"},{"id":"3524130003","district_id":"3524130","name":"KRAMAT","postal_code":"56271"},{"id":"3524130004","district_id":"3524130","name":"SIDOMUKTI","postal_code":"62363"},{"id":"3524130005","district_id":"3524130","name":"TLOGOANYAR","postal_code":"62218"},{"id":"3524130006","district_id":"3524130","name":"SIDOHARJO","postal_code":"57682"},{"id":"3524130007","district_id":"3524130","name":"SUMBERJO","postal_code":"59219"},{"id":"3524130008","district_id":"3524130","name":"SENDANGREJO","postal_code":"57673"},{"id":"3524130010","district_id":"3524130","name":"TANJUNG","postal_code":"57697"},{"id":"3524130011","district_id":"3524130","name":"PANGKATREJO","postal_code":"62218"},{"id":"3524130012","district_id":"3524130","name":"KARANGLANGIT","postal_code":"62218"},{"id":"3524130013","district_id":"3524130","name":"PLOSOWAHYU","postal_code":"62218"},{"id":"3524130014","district_id":"3524130","name":"MADE","postal_code":"57694"},{"id":"3524130015","district_id":"3524130","name":"SUKOMULYO","postal_code":"67281"},{"id":"3524130016","district_id":"3524130","name":"SUKOREJO","postal_code":"56351"},{"id":"3524130017","district_id":"3524130","name":"TUMENGGUNGAN","postal_code":"56361"},{"id":"3524130018","district_id":"3524130","name":"JETIS","postal_code":"56262"},{"id":"3524130019","district_id":"3524130","name":"BANJARMENDALAN","postal_code":"62212"},{"id":"3524130020","district_id":"3524130","name":"SIDOKUMPUL","postal_code":"62364"}]