[{"id":"3524230001","district_id":"3524230","name":"DURI KULON","postal_code":"62262"},{"id":"3524230002","district_id":"3524230","name":"CENTINI","postal_code":"62262"},{"id":"3524230004","district_id":"3524230","name":"PESANGGRAHAN","postal_code":"68372"},{"id":"3524230005","district_id":"3524230","name":"JABUNG","postal_code":"57283"},{"id":"3524230006","district_id":"3524230","name":"DATENG","postal_code":"62262"},{"id":"3524230007","district_id":"3524230","name":"GELAP","postal_code":"62262"},{"id":"3524230008","district_id":"3524230","name":"MOJO ASEM","postal_code":"62262"},{"id":"3524230009","district_id":"3524230","name":"SISER","postal_code":"62262"},{"id":"3524230010","district_id":"3524230","name":"BULUTIGO","postal_code":"62262"},{"id":"3524230011","district_id":"3524230","name":"PELANGWOT","postal_code":"62262"},{"id":"3524230012","district_id":"3524230","name":"LAREN","postal_code":"62262"},{"id":"3524230013","district_id":"3524230","name":"GAMPANG SEJATI","postal_code":"62262"},{"id":"3524230014","district_id":"3524230","name":"TAMAN PRIJEK","postal_code":"62262"},{"id":"3524230015","district_id":"3524230","name":"KARANGTAWAR","postal_code":"62262"},{"id":"3524230016","district_id":"3524230","name":"TEJOASRI","postal_code":"62262"},{"id":"3524230017","district_id":"3524230","name":"GODOG","postal_code":"57555"},{"id":"3524230018","district_id":"3524230","name":"BULUBRANGSI","postal_code":"62262"},{"id":"3524230019","district_id":"3524230","name":"KARANGWUNGU LOR","postal_code":"62262"},{"id":"3524230020","district_id":"3524230","name":"BRANGSI","postal_code":"62262"}]