[{"id":"3525010001","district_id":"3525010","name":"KEDUNGANYAR","postal_code":"61176"},{"id":"3525010002","district_id":"3525010","name":"SUMBERAME","postal_code":"61176"},{"id":"3525010003","district_id":"3525010","name":"WRINGINANOM","postal_code":"56371"},{"id":"3525010004","district_id":"3525010","name":"LEBANISUKO","postal_code":"61176"},{"id":"3525010005","district_id":"3525010","name":"LEBANIWARAS","postal_code":"61176"},{"id":"3525010006","district_id":"3525010","name":"SUMENGKO","postal_code":"63283"},{"id":"3525010007","district_id":"3525010","name":"PASINAN LEMAHPUTIH","postal_code":"61176"},{"id":"3525010008","district_id":"3525010","name":"WATESTANJUNG","postal_code":"61176"},{"id":"3525010009","district_id":"3525010","name":"PEDAGANGAN","postal_code":"52451"},{"id":"3525010011","district_id":"3525010","name":"SUMBERWARU","postal_code":"68374"},{"id":"3525010012","district_id":"3525010","name":"KEPUHKLAGEN","postal_code":"61176"},{"id":"3525010014","district_id":"3525010","name":"MONDOLUKU","postal_code":"61176"},{"id":"3525010015","district_id":"3525010","name":"KESAMBENKULON","postal_code":"61176"},{"id":"3525010016","district_id":"3525010","name":"SOKO","postal_code":"66274"}]