[{"id":"3525110001","district_id":"3525110","name":"TEBALO","postal_code":"61151"},{"id":"3525110002","district_id":"3525110","name":"SUCI","postal_code":"57664"},{"id":"3525110003","district_id":"3525110","name":"YOSOWILANGUN","postal_code":"61151"},{"id":"3525110004","district_id":"3525110","name":"ROOMO","postal_code":"61151"},{"id":"3525110005","district_id":"3525110","name":"SUKOMULYO","postal_code":"67281"},{"id":"3525110006","district_id":"3525110","name":"PONGANGAN","postal_code":"61151"},{"id":"3525110007","district_id":"3525110","name":"PEGANDEN","postal_code":"61151"},{"id":"3525110008","district_id":"3525110","name":"BANJARSARI","postal_code":"66252"},{"id":"3525110009","district_id":"3525110","name":"LERAN","postal_code":"62365"},{"id":"3525110010","district_id":"3525110","name":"MANYAREJO","postal_code":"57283"},{"id":"3525110011","district_id":"3525110","name":"MANYARSIDOMUKTI","postal_code":"59462"},{"id":"3525110012","district_id":"3525110","name":"MANYARSIDORUKUN","postal_code":"59462"},{"id":"3525110013","district_id":"3525110","name":"BANYUWANGI","postal_code":"43172"},{"id":"3525110014","district_id":"3525110","name":"KARANGREJO","postal_code":"56361"},{"id":"3525110015","district_id":"3525110","name":"SEMBAYAT","postal_code":"38885"},{"id":"3525110016","district_id":"3525110","name":"BETOYOGUCI","postal_code":"61151"},{"id":"3525110017","district_id":"3525110","name":"BETOYOKAUMAN","postal_code":"61151"},{"id":"3525110018","district_id":"3525110","name":"SUMBEREJO","postal_code":"56365"},{"id":"3525110019","district_id":"3525110","name":"TANGGULREJO","postal_code":"56161"},{"id":"3525110020","district_id":"3525110","name":"GUMENO","postal_code":"61151"},{"id":"3525110021","district_id":"3525110","name":"NGAMPEL","postal_code":"54263"},{"id":"3525110022","district_id":"3525110","name":"PEJANGGANAN","postal_code":"61151"},{"id":"3525110023","district_id":"3525110","name":"MOROBAKUNG","postal_code":"61151"}]