[{"id":"3525100001","district_id":"3525100","name":"NGIPIK","postal_code":"56272"},{"id":"3525100002","district_id":"3525100","name":"TLOGOPATUT","postal_code":"61111"},{"id":"3525100003","district_id":"3525100","name":"SIDOKUMPUL","postal_code":"62364"},{"id":"3525100004","district_id":"3525100","name":"KRAMATINGGIL","postal_code":"61119"},{"id":"3525100005","district_id":"3525100","name":"SIDORUKUN","postal_code":"96469"},{"id":"3525100006","district_id":"3525100","name":"PULOPANCIKAN","postal_code":"61113"},{"id":"3525100007","district_id":"3525100","name":"GAPUROSUKOLILO","postal_code":"61119"},{"id":"3525100008","district_id":"3525100","name":"TLOGOBENDUNG","postal_code":"61113"},{"id":"3525100009","district_id":"3525100","name":"PEKAUMAN","postal_code":"52125"},{"id":"3525100010","district_id":"3525100","name":"SUKORAME","postal_code":"66372"},{"id":"3525100011","district_id":"3525100","name":"KARANGTURI","postal_code":"66365"},{"id":"3525100012","district_id":"3525100","name":"TRATE","postal_code":"61114"},{"id":"3525100013","district_id":"3525100","name":"KARANGPOH","postal_code":"54361"},{"id":"3525100014","district_id":"3525100","name":"BEDILAN","postal_code":"32382"},{"id":"3525100015","district_id":"3525100","name":"KEBUNGSON","postal_code":"61115"},{"id":"3525100016","district_id":"3525100","name":"PEKELINGAN","postal_code":"61115"},{"id":"3525100017","district_id":"3525100","name":"KEMUTERAN","postal_code":"61115"},{"id":"3525100018","district_id":"3525100","name":"SUKODONO","postal_code":"66253"},{"id":"3525100019","district_id":"3525100","name":"KROMAN","postal_code":"61116"},{"id":"3525100021","district_id":"3525100","name":"TLOGOPOJOK","postal_code":"61118"}]