[{"id":"3526090001","district_id":"3526090","name":"ALANG ALANG","postal_code":"42193"},{"id":"3526090002","district_id":"3526090","name":"KEMONENG","postal_code":"98261"},{"id":"3526090003","district_id":"3526090","name":"SOKET LAOK","postal_code":"69165"},{"id":"3526090004","district_id":"3526090","name":"BAJEMAN","postal_code":"69165"},{"id":"3526090005","district_id":"3526090","name":"TAMBIN","postal_code":"69165"},{"id":"3526090006","district_id":"3526090","name":"SOKET DAYA","postal_code":"69165"},{"id":"3526090008","district_id":"3526090","name":"JAAH","postal_code":"69165"},{"id":"3526090009","district_id":"3526090","name":"BANCANG","postal_code":"59265"},{"id":"3526090010","district_id":"3526090","name":"MASARAN","postal_code":"66351"},{"id":"3526090011","district_id":"3526090","name":"PACANGAN","postal_code":"69165"},{"id":"3526090012","district_id":"3526090","name":"POCONG","postal_code":"86583"},{"id":"3526090013","district_id":"3526090","name":"TRAGAH","postal_code":"69165"},{"id":"3526090014","district_id":"3526090","name":"KARANG LEMAN","postal_code":"31453"},{"id":"3526090015","district_id":"3526090","name":"DUKOTAMBIN","postal_code":"69165"},{"id":"3526090016","district_id":"3526090","name":"JADDUNG","postal_code":"69465"},{"id":"3526090017","district_id":"3526090","name":"BANYU BESE","postal_code":"33253"},{"id":"3526090018","district_id":"3526090","name":"PAMORAH","postal_code":"69165"}]