[{"id":"3526030002","district_id":"3526030","name":"KWANYAR BARAT","postal_code":"69163"},{"id":"3526030003","district_id":"3526030","name":"PASANGGRAHAN","postal_code":"15730"},{"id":"3526030004","district_id":"3526030","name":"KARANGANYAR","postal_code":"56362"},{"id":"3526030005","district_id":"3526030","name":"BATAH BARAT","postal_code":"69163"},{"id":"3526030006","district_id":"3526030","name":"BATAH TIMUR","postal_code":"69163"},{"id":"3526030008","district_id":"3526030","name":"PANDANAN","postal_code":"57473"},{"id":"3526030009","district_id":"3526030","name":"KARANG ENTANG","postal_code":"31171"},{"id":"3526030010","district_id":"3526030","name":"JANTEH","postal_code":"69163"},{"id":"3526030012","district_id":"3526030","name":"KETETANG","postal_code":"69163"},{"id":"3526030013","district_id":"3526030","name":"MOROMBUH","postal_code":"69163"},{"id":"3526030014","district_id":"3526030","name":"SUMUR KUNING","postal_code":"34387"},{"id":"3526030015","district_id":"3526030","name":"PAORAN","postal_code":"69163"}]