[{"id":"3526020002","district_id":"3526020","name":"PANGPONG","postal_code":"69163"},{"id":"3526020003","district_id":"3526020","name":"SUKOLILO BARAT","postal_code":"69163"},{"id":"3526020004","district_id":"3526020","name":"SUKOLILO TIMUR","postal_code":"69163"},{"id":"3526020005","district_id":"3526020","name":"BUNAJIH","postal_code":"69163"},{"id":"3526020006","district_id":"3526020","name":"BRINGIN","postal_code":"62357"},{"id":"3526020007","district_id":"3526020","name":"BA'ENGAS","postal_code":"92965"},{"id":"3526020008","district_id":"3526020","name":"MORKEPEK","postal_code":"69163"},{"id":"3526020009","district_id":"3526020","name":"LABANG","postal_code":"69273"},{"id":"3526020010","district_id":"3526020","name":"JUKONG","postal_code":"69163"},{"id":"3526020011","district_id":"3526020","name":"SENDANG LAOK","postal_code":"69163"},{"id":"3526020012","district_id":"3526020","name":"SENDANG DAJAH","postal_code":"64473"},{"id":"3526020013","district_id":"3526020","name":"PETAPAN","postal_code":"69163"}]