[{"id":"3526140001","district_id":"3526140","name":"TOGUBANG","postal_code":"22394"},{"id":"3526140002","district_id":"3526140","name":"LERPAK","postal_code":"69152"},{"id":"3526140004","district_id":"3526140","name":"BATOBELLA","postal_code":"25519"},{"id":"3526140005","district_id":"3526140","name":"TEGERPRIYAH","postal_code":"24671"},{"id":"3526140006","district_id":"3526140","name":"CAMPOR","postal_code":"69363"},{"id":"3526140007","district_id":"3526140","name":"KOMPOL","postal_code":"69152"},{"id":"3526140008","district_id":"3526140","name":"KAMPAK","postal_code":"69152"},{"id":"3526140009","district_id":"3526140","name":"KOMBANGAN","postal_code":"69152"},{"id":"3526140010","district_id":"3526140","name":"DABUNG","postal_code":"77457"},{"id":"3526140011","district_id":"3526140","name":"KATOL BARAT","postal_code":"69152"},{"id":"3526140012","district_id":"3526140","name":"BANYONENG LAOK","postal_code":"69152"},{"id":"3526140013","district_id":"3526140","name":"BANYONENG DAJAH","postal_code":"70565"}]