[{"id":"3527020007","district_id":"3527020","name":"DULANG","postal_code":"69271"},{"id":"3527020008","district_id":"3527020","name":"PATARONGAN","postal_code":"69271"},{"id":"3527020009","district_id":"3527020","name":"PANGONGSEAN","postal_code":"69271"},{"id":"3527020010","district_id":"3527020","name":"KRAMPON","postal_code":"69271"},{"id":"3527020011","district_id":"3527020","name":"BRINGIN NONGGAL","postal_code":"69271"},{"id":"3527020012","district_id":"3527020","name":"TORJUN","postal_code":"69271"},{"id":"3527020013","district_id":"3527020","name":"PATAPAN","postal_code":"69271"},{"id":"3527020014","district_id":"3527020","name":"JERUK POROT","postal_code":"69271"},{"id":"3527020015","district_id":"3527020","name":"KODAK","postal_code":"69271"},{"id":"3527020016","district_id":"3527020","name":"KANJAR","postal_code":"69271"},{"id":"3527020017","district_id":"3527020","name":"KARA","postal_code":"69271"},{"id":"3527020018","district_id":"3527020","name":"TANA MERA","postal_code":"87283"}]