[{"id":"3527090001","district_id":"3527090","name":"OLOR","postal_code":"69263"},{"id":"3527090002","district_id":"3527090","name":"PLANGGARAN BARAT","postal_code":"69263"},{"id":"3527090003","district_id":"3527090","name":"PLANGGARAN TIMUR","postal_code":"69263"},{"id":"3527090004","district_id":"3527090","name":"TOLANG","postal_code":"22758"},{"id":"3527090005","district_id":"3527090","name":"LAR LAR","postal_code":"69263"},{"id":"3527090006","district_id":"3527090","name":"TLAGAH","postal_code":"69263"},{"id":"3527090007","district_id":"3527090","name":"NAGASAREH","postal_code":"69263"},{"id":"3527090008","district_id":"3527090","name":"TAPAAN","postal_code":"69263"},{"id":"3527090009","district_id":"3527090","name":"TEROSAN","postal_code":"69263"},{"id":"3527090010","district_id":"3527090","name":"ASEM JARAN","postal_code":"69263"},{"id":"3527090011","district_id":"3527090","name":"KEMBANG JERUK","postal_code":"69263"},{"id":"3527090012","district_id":"3527090","name":"MORBATOH","postal_code":"69263"},{"id":"3527090013","district_id":"3527090","name":"MONTOR","postal_code":"69263"},{"id":"3527090014","district_id":"3527090","name":"TEBANAH","postal_code":"69263"},{"id":"3527090015","district_id":"3527090","name":"NEPA","postal_code":"69263"},{"id":"3527090016","district_id":"3527090","name":"BATIOH","postal_code":"69263"},{"id":"3527090017","district_id":"3527090","name":"MASARAN","postal_code":"66351"},{"id":"3527090018","district_id":"3527090","name":"BANYUATES","postal_code":"69263"},{"id":"3527090019","district_id":"3527090","name":"JATRA TIMUR","postal_code":"69263"},{"id":"3527090020","district_id":"3527090","name":"TRAPANG","postal_code":"69263"}]