[{"id":"3527030001","district_id":"3527030","name":"PULAU MANDANGIN","postal_code":"78755"},{"id":"3527030002","district_id":"3527030","name":"AENG SAREH","postal_code":"69216"},{"id":"3527030003","district_id":"3527030","name":"POLAGAN","postal_code":"69215"},{"id":"3527030004","district_id":"3527030","name":"BANYUANYAR","postal_code":"57137"},{"id":"3527030005","district_id":"3527030","name":"GUNUNG MADDAH","postal_code":"69216"},{"id":"3527030006","district_id":"3527030","name":"RONG TENGAH","postal_code":"69216"},{"id":"3527030007","district_id":"3527030","name":"KARANG DALEM","postal_code":"69216"},{"id":"3527030008","district_id":"3527030","name":"GUNUNG SEKAR","postal_code":"69216"},{"id":"3527030009","district_id":"3527030","name":"DALPENANG","postal_code":"69212"},{"id":"3527030010","district_id":"3527030","name":"PASEYAN","postal_code":"62362"},{"id":"3527030011","district_id":"3527030","name":"PANGGUNG","postal_code":"52122"},{"id":"3527030012","district_id":"3527030","name":"BARUH","postal_code":"69216"},{"id":"3527030013","district_id":"3527030","name":"TAMAN SAREH","postal_code":"69216"},{"id":"3527030014","district_id":"3527030","name":"PEKALONGAN","postal_code":"53362"},{"id":"3527030015","district_id":"3527030","name":"TANGGUMONG","postal_code":"69216"},{"id":"3527030016","district_id":"3527030","name":"KAMONING","postal_code":"69216"},{"id":"3527030017","district_id":"3527030","name":"BANYUMAS","postal_code":"69216"},{"id":"3527030018","district_id":"3527030","name":"PANGELEN","postal_code":"69216"}]