[{"id":"3528050001","district_id":"3528050","name":"TEJAH BARAT","postal_code":"45472"},{"id":"3528050002","district_id":"3528050","name":"TEJAH TIMUR","postal_code":"45472"},{"id":"3528050003","district_id":"3528050","name":"JALMAK","postal_code":"69317"},{"id":"3528050004","district_id":"3528050","name":"LADEN","postal_code":"69317"},{"id":"3528050005","district_id":"3528050","name":"PANEMPAN","postal_code":"69317"},{"id":"3528050006","district_id":"3528050","name":"KANGENAN","postal_code":"69317"},{"id":"3528050007","district_id":"3528050","name":"PATEMON","postal_code":"68357"},{"id":"3528050008","district_id":"3528050","name":"BARURAMBAT KOTA","postal_code":"91854"},{"id":"3528050009","district_id":"3528050","name":"PARTEKER","postal_code":"69311"},{"id":"3528050010","district_id":"3528050","name":"JUNGCANGCANG","postal_code":"69317"},{"id":"3528050012","district_id":"3528050","name":"NYLABU LAOK","postal_code":"69317"},{"id":"3528050013","district_id":"3528050","name":"NYLABU DAYA","postal_code":"83652"},{"id":"3528050014","district_id":"3528050","name":"BUGIH","postal_code":"69316"},{"id":"3528050015","district_id":"3528050","name":"GLADAK ANYAR","postal_code":"69317"},{"id":"3528050016","district_id":"3528050","name":"KOLPAJUNG","postal_code":"69314"},{"id":"3528050017","district_id":"3528050","name":"KOWEL","postal_code":"69317"},{"id":"3528050018","district_id":"3528050","name":"TORONAN","postal_code":"69317"}]