[{"id":"3528060001","district_id":"3528060","name":"GRO'OM","postal_code":"24455"},{"id":"3528060002","district_id":"3528060","name":"BATUKALANGAN","postal_code":"80652"},{"id":"3528060003","district_id":"3528060","name":"CANDIBURUNG","postal_code":"51252"},{"id":"3528060004","district_id":"3528060","name":"TOKET","postal_code":"69363"},{"id":"3528060005","district_id":"3528060","name":"KARANGANYAR","postal_code":"56362"},{"id":"3528060006","district_id":"3528060","name":"SAMIRAN","postal_code":"69363"},{"id":"3528060007","district_id":"3528060","name":"PANGTONGGAL","postal_code":"69363"},{"id":"3528060008","district_id":"3528060","name":"SRAMBAH","postal_code":"69363"},{"id":"3528060009","district_id":"3528060","name":"BADUNG","postal_code":"69363"},{"id":"3528060010","district_id":"3528060","name":"TATTANGOH","postal_code":"69363"},{"id":"3528060011","district_id":"3528060","name":"PANGBATOK","postal_code":"69363"},{"id":"3528060012","district_id":"3528060","name":"PANAGUAN","postal_code":"69363"},{"id":"3528060013","district_id":"3528060","name":"CAMPOR","postal_code":"69363"},{"id":"3528060014","district_id":"3528060","name":"JAMBRINGIN","postal_code":"69363"},{"id":"3528060015","district_id":"3528060","name":"PROPPO","postal_code":"69363"},{"id":"3528060016","district_id":"3528060","name":"MAPPER","postal_code":"69363"},{"id":"3528060017","district_id":"3528060","name":"PANGLEMAH","postal_code":"69363"},{"id":"3528060018","district_id":"3528060","name":"BILLA'AN","postal_code":"69363"},{"id":"3528060019","district_id":"3528060","name":"TLANGOH","postal_code":"69363"},{"id":"3528060020","district_id":"3528060","name":"KODIK","postal_code":"69363"},{"id":"3528060022","district_id":"3528060","name":"SAMATAN","postal_code":"69363"},{"id":"3528060023","district_id":"3528060","name":"KLAMPAR","postal_code":"69363"},{"id":"3528060024","district_id":"3528060","name":"RANG PERANG LAOK","postal_code":"69363"},{"id":"3528060025","district_id":"3528060","name":"PANGURAYAN","postal_code":"69363"},{"id":"3528060026","district_id":"3528060","name":"BANYUBULU","postal_code":"50664"},{"id":"3528060027","district_id":"3528060","name":"RANG PERANG DAYA","postal_code":"69363"}]