[{"id":"3529010001","district_id":"3529010","name":"KADUARA TIMUR","postal_code":"69465"},{"id":"3529010002","district_id":"3529010","name":"SENDANG","postal_code":"57615"},{"id":"3529010003","district_id":"3529010","name":"ROMBASAN","postal_code":"69465"},{"id":"3529010004","district_id":"3529010","name":"SENTOL LAOK","postal_code":"69465"},{"id":"3529010005","district_id":"3529010","name":"LARANGAN PERENG","postal_code":"69465"},{"id":"3529010006","district_id":"3529010","name":"SENTOL DAYA","postal_code":"69465"},{"id":"3529010007","district_id":"3529010","name":"PAKAMBAN DAYA","postal_code":"69465"},{"id":"3529010008","district_id":"3529010","name":"PAKAMBAN LAOK","postal_code":"69465"},{"id":"3529010009","district_id":"3529010","name":"JADDUNG","postal_code":"69465"},{"id":"3529010010","district_id":"3529010","name":"PRAGAAN LAOK","postal_code":"69465"},{"id":"3529010011","district_id":"3529010","name":"PRAGAAN DAYA","postal_code":"69465"},{"id":"3529010012","district_id":"3529010","name":"PRENDUAN","postal_code":"69465"},{"id":"3529010013","district_id":"3529010","name":"AENGPANAS","postal_code":"69465"},{"id":"3529010014","district_id":"3529010","name":"KARDULUK","postal_code":"69465"}]