[{"id":"3529020001","district_id":"3529020","name":"GULUKMANJUNG","postal_code":"69466"},{"id":"3529020002","district_id":"3529020","name":"KAPEDI","postal_code":"69466"},{"id":"3529020003","district_id":"3529020","name":"PAKANDANGAN BARAT","postal_code":"69466"},{"id":"3529020004","district_id":"3529020","name":"PAKANDANGAN TENGAH","postal_code":"69466"},{"id":"3529020005","district_id":"3529020","name":"PAKANDANGAN SANGRA","postal_code":"69466"},{"id":"3529020006","district_id":"3529020","name":"AENGDAKE","postal_code":"69466"},{"id":"3529020007","district_id":"3529020","name":"AENGBAJA KENEK","postal_code":"69466"},{"id":"3529020008","district_id":"3529020","name":"BLUTO","postal_code":"69466"},{"id":"3529020009","district_id":"3529020","name":"LOBUK","postal_code":"69466"},{"id":"3529020010","district_id":"3529020","name":"BUNGBUNGAN","postal_code":"69466"},{"id":"3529020011","district_id":"3529020","name":"MASARAN","postal_code":"66351"},{"id":"3529020012","district_id":"3529020","name":"PALONGAN","postal_code":"69466"},{"id":"3529020013","district_id":"3529020","name":"AENGBAJA RAJA","postal_code":"69466"},{"id":"3529020014","district_id":"3529020","name":"KARANG CEMPAKA","postal_code":"69466"},{"id":"3529020015","district_id":"3529020","name":"SERA TIMUR","postal_code":"69466"},{"id":"3529020016","district_id":"3529020","name":"SERA TENGAH","postal_code":"69466"},{"id":"3529020017","district_id":"3529020","name":"SERA BARAT","postal_code":"69466"},{"id":"3529020018","district_id":"3529020","name":"GILANG","postal_code":"66292"},{"id":"3529020019","district_id":"3529020","name":"ERRABU","postal_code":"69466"},{"id":"3529020020","district_id":"3529020","name":"GING GING","postal_code":"69466"}]