[{"id":"3529170001","district_id":"3529170","name":"POJA","postal_code":"69472"},{"id":"3529170002","district_id":"3529170","name":"BERAJI","postal_code":"69472"},{"id":"3529170003","district_id":"3529170","name":"KARANG BUDI","postal_code":"69472"},{"id":"3529170004","district_id":"3529170","name":"BABAN","postal_code":"69472"},{"id":"3529170005","district_id":"3529170","name":"BATUDINDING","postal_code":"69472"},{"id":"3529170006","district_id":"3529170","name":"BANJAR BARAT","postal_code":"69472"},{"id":"3529170007","district_id":"3529170","name":"BANJAR TIMUR","postal_code":"69472"},{"id":"3529170008","district_id":"3529170","name":"PALOKLOAN","postal_code":"25673"},{"id":"3529170009","district_id":"3529170","name":"PANAGAN","postal_code":"69472"},{"id":"3529170010","district_id":"3529170","name":"GAPURA BARAT","postal_code":"69472"},{"id":"3529170011","district_id":"3529170","name":"GERSIK PUTIH","postal_code":"69472"},{"id":"3529170012","district_id":"3529170","name":"GAPURA TENGAH","postal_code":"69472"},{"id":"3529170013","district_id":"3529170","name":"MANDALA","postal_code":"69456"},{"id":"3529170014","district_id":"3529170","name":"GAPURA TIMUR","postal_code":"69472"},{"id":"3529170015","district_id":"3529170","name":"ANDULANG","postal_code":"69472"},{"id":"3529170016","district_id":"3529170","name":"LONGOS","postal_code":"69472"},{"id":"3529170017","district_id":"3529170","name":"GRUJUGAN","postal_code":"69472"}]