[{"id":"3571030001","district_id":"3571030","name":"BLABAK","postal_code":"64135"},{"id":"3571030002","district_id":"3571030","name":"BAWANG","postal_code":"21168"},{"id":"3571030004","district_id":"3571030","name":"TOSAREN","postal_code":"64133"},{"id":"3571030005","district_id":"3571030","name":"BANARAN","postal_code":"57664"},{"id":"3571030006","district_id":"3571030","name":"NGLETIH","postal_code":"64137"},{"id":"3571030007","district_id":"3571030","name":"TEMPUREJO","postal_code":"56373"},{"id":"3571030008","district_id":"3571030","name":"KETAMI","postal_code":"64139"},{"id":"3571030009","district_id":"3571030","name":"PESANTREN","postal_code":"56266"},{"id":"3571030010","district_id":"3571030","name":"BANGSAL","postal_code":"30654"},{"id":"3571030011","district_id":"3571030","name":"BURENGAN","postal_code":"64131"},{"id":"3571030012","district_id":"3571030","name":"TINALAN","postal_code":"64132"},{"id":"3571030013","district_id":"3571030","name":"PAKUNDEN","postal_code":"63416"},{"id":"3571030014","district_id":"3571030","name":"SINGONEGARAN","postal_code":"64132"},{"id":"3571030015","district_id":"3571030","name":"JAMSAREN","postal_code":"64132"}]