[{"id":"3601150001","district_id":"3601150","name":"PANDAT","postal_code":"42261"},{"id":"3601150002","district_id":"3601150","name":"CIKONENG","postal_code":"45356"},{"id":"3601150003","district_id":"3601150","name":"GIRIPAWANA","postal_code":"42261"},{"id":"3601150004","district_id":"3601150","name":"NEMBOL","postal_code":"42261"},{"id":"3601150005","district_id":"3601150","name":"GUNUNGSARI","postal_code":"57691"},{"id":"3601150006","district_id":"3601150","name":"KURUNGKAMBING","postal_code":"42261"},{"id":"3601150007","district_id":"3601150","name":"MANDALASARI","postal_code":"46471"},{"id":"3601150008","district_id":"3601150","name":"MANDALAWANGI","postal_code":"46192"},{"id":"3601150009","district_id":"3601150","name":"PARI","postal_code":"42261"},{"id":"3601150010","district_id":"3601150","name":"SINARJAYA","postal_code":"42261"},{"id":"3601150011","district_id":"3601150","name":"SIRNAGALIH","postal_code":"46151"},{"id":"3601150012","district_id":"3601150","name":"CURUGLEMO","postal_code":"42261"},{"id":"3601150013","district_id":"3601150","name":"PANJANGJAYA","postal_code":"42261"},{"id":"3601150014","district_id":"3601150","name":"CIKUMBUEUN","postal_code":"42261"},{"id":"3601150015","district_id":"3601150","name":"RAMEA","postal_code":"42261"}]