[{"id":"3602180007","district_id":"3602180","name":"PASIR TANJUNG","postal_code":"16840"},{"id":"3602180008","district_id":"3602180","name":"RANGKASBITUNG TIMUR","postal_code":"42313"},{"id":"3602180009","district_id":"3602180","name":"RANGKASBITUNG BARAT","postal_code":"42312"},{"id":"3602180010","district_id":"3602180","name":"MUARA CIUJUNG TIMUR","postal_code":"42314"},{"id":"3602180011","district_id":"3602180","name":"JATIMULYA","postal_code":"52182"},{"id":"3602180012","district_id":"3602180","name":"CIMANGEUNGTEUNG","postal_code":"42312"},{"id":"3602180013","district_id":"3602180","name":"CITERAS","postal_code":"42312"},{"id":"3602180014","district_id":"3602180","name":"MEKARSARI","postal_code":"46156"},{"id":"3602180015","district_id":"3602180","name":"NAMENG","postal_code":"42312"},{"id":"3602180016","district_id":"3602180","name":"KOLELET WETAN","postal_code":"42312"},{"id":"3602180017","district_id":"3602180","name":"SUKAMANAH","postal_code":"46131"},{"id":"3602180018","district_id":"3602180","name":"PABUARAN","postal_code":"15114"},{"id":"3602180019","district_id":"3602180","name":"CIJORO PASIR","postal_code":"42316"},{"id":"3602180020","district_id":"3602180","name":"CIJORO LEBAK","postal_code":"42317"},{"id":"3602180021","district_id":"3602180","name":"MUARA CIUJUNG BARAT","postal_code":"42311"},{"id":"3602180022","district_id":"3602180","name":"NARIMBANG MULIA","postal_code":"42319"}]