[{"id":"3602110010","district_id":"3602110","name":"PASIREURIH","postal_code":"42272"},{"id":"3602110011","district_id":"3602110","name":"PASIRNANGKA","postal_code":"42364"},{"id":"3602110012","district_id":"3602110","name":"CIKARANG","postal_code":"43178"},{"id":"3602110013","district_id":"3602110","name":"CIMINYAK","postal_code":"42364"},{"id":"3602110014","district_id":"3602110","name":"LEUWICOO","postal_code":"42364"},{"id":"3602110015","district_id":"3602110","name":"MUNCANG","postal_code":"46473"},{"id":"3602110016","district_id":"3602110","name":"SUKANAGARA","postal_code":"46184"},{"id":"3602110017","district_id":"3602110","name":"SINDANGWANGI","postal_code":"46384"},{"id":"3602110018","district_id":"3602110","name":"JAGARAKSA","postal_code":"42364"},{"id":"3602110019","district_id":"3602110","name":"TANJUNGWANGI","postal_code":"45354"},{"id":"3602110020","district_id":"3602110","name":"MEKARWANGI","postal_code":"46153"},{"id":"3602110021","district_id":"3602110","name":"GIRI JAGABAYA","postal_code":"34763"}]