[{"id":"3602190008","district_id":"3602190","name":"CILANGKAP","postal_code":"46197"},{"id":"3602190009","district_id":"3602190","name":"PASIR KECAPI","postal_code":"42381"},{"id":"3602190012","district_id":"3602190","name":"MEKARSARI","postal_code":"46156"},{"id":"3602190013","district_id":"3602190","name":"SANGIANG","postal_code":"15520"},{"id":"3602190014","district_id":"3602190","name":"TANJUNG SARI","postal_code":"34764"},{"id":"3602190015","district_id":"3602190","name":"MAJA","postal_code":"35384"},{"id":"3602190016","district_id":"3602190","name":"CURUG BADAK","postal_code":"42381"},{"id":"3602190017","district_id":"3602190","name":"PASIR KEMBANG","postal_code":"42176"},{"id":"3602190018","district_id":"3602190","name":"PADASUKA","postal_code":"46461"},{"id":"3602190019","district_id":"3602190","name":"GUBUGANCIBEUREUM","postal_code":"82115"},{"id":"3602190020","district_id":"3602190","name":"BINONG","postal_code":"15810"},{"id":"3602190021","district_id":"3602190","name":"SINDANGMULYA","postal_code":"42381"},{"id":"3602190022","district_id":"3602190","name":"BUYUT MEKAR","postal_code":"34161"},{"id":"3602190023","district_id":"3602190","name":"MAJA BARU","postal_code":"42381"}]