[{"id":"3602130001","district_id":"3602130","name":"MARAYA","postal_code":"42371"},{"id":"3602130002","district_id":"3602130","name":"MARGALUYU","postal_code":"46194"},{"id":"3602130003","district_id":"3602130","name":"SUKAMARGA","postal_code":"34876"},{"id":"3602130004","district_id":"3602130","name":"SINDANGSARI","postal_code":"46475"},{"id":"3602130005","district_id":"3602130","name":"SAJIRAMEKAR","postal_code":"42371"},{"id":"3602130006","district_id":"3602130","name":"SAJIRA","postal_code":"42371"},{"id":"3602130007","district_id":"3602130","name":"SUKARAME","postal_code":"34768"},{"id":"3602130008","district_id":"3602130","name":"CALUNGBUNGUR","postal_code":"42371"},{"id":"3602130009","district_id":"3602130","name":"SUKAJAYA","postal_code":"46151"},{"id":"3602130010","district_id":"3602130","name":"PAJA","postal_code":"42371"},{"id":"3602130011","district_id":"3602130","name":"MEKARSARI","postal_code":"46156"},{"id":"3602130012","district_id":"3602130","name":"PAJAGAN","postal_code":"45363"},{"id":"3602130013","district_id":"3602130","name":"PARUNGSARI","postal_code":"42371"},{"id":"3602130014","district_id":"3602130","name":"BUNGUR MEKAR","postal_code":"71153"},{"id":"3602130015","district_id":"3602130","name":"CIUYAH","postal_code":"45355"}]