[{"id":"3602160001","district_id":"3602160","name":"PASIRTANGKIL","postal_code":"42352"},{"id":"3602160002","district_id":"3602160","name":"SUKARENDAH","postal_code":"42352"},{"id":"3602160003","district_id":"3602160","name":"SELARAJA","postal_code":"42352"},{"id":"3602160004","district_id":"3602160","name":"WARUNGGUNUNG","postal_code":"42352"},{"id":"3602160005","district_id":"3602160","name":"CIBUAH","postal_code":"42352"},{"id":"3602160006","district_id":"3602160","name":"BAROS","postal_code":"35611"},{"id":"3602160007","district_id":"3602160","name":"SINDANGSARI","postal_code":"46475"},{"id":"3602160008","district_id":"3602160","name":"BANJARSARI","postal_code":"66252"},{"id":"3602160009","district_id":"3602160","name":"CEMPAKA","postal_code":"52466"},{"id":"3602160010","district_id":"3602160","name":"PADASUKA","postal_code":"46461"},{"id":"3602160011","district_id":"3602160","name":"SUKARAJA","postal_code":"46183"},{"id":"3602160012","district_id":"3602160","name":"JAGABAYA","postal_code":"42352"}]