[{"id":"3603020001","district_id":"3603020","name":"CILELES","postal_code":"15720"},{"id":"3603020002","district_id":"3603020","name":"BANTAR PANJANG","postal_code":"15720"},{"id":"3603020003","district_id":"3603020","name":"SODONG","postal_code":"15720"},{"id":"3603020004","district_id":"3603020","name":"TAPOS","postal_code":"15720"},{"id":"3603020013","district_id":"3603020","name":"MARGA SARI","postal_code":"34683"},{"id":"3603020014","district_id":"3603020","name":"KADU AGUNG","postal_code":"15720"},{"id":"3603020015","district_id":"3603020","name":"MATA GARA","postal_code":"15720"},{"id":"3603020016","district_id":"3603020","name":"TIGARAKSA","postal_code":"15720"},{"id":"3603020018","district_id":"3603020","name":"TEGALSARI","postal_code":"56353"},{"id":"3603020019","district_id":"3603020","name":"PEMATANG","postal_code":"15720"},{"id":"3603020020","district_id":"3603020","name":"PASIR NANGKA","postal_code":"15720"},{"id":"3603020021","district_id":"3603020","name":"CISEREH","postal_code":"15720"},{"id":"3603020022","district_id":"3603020","name":"PASIR BOLANG","postal_code":"15720"}]