[{"id":"3604190001","district_id":"3604190","name":"CIKEDUNG","postal_code":"42165"},{"id":"3604190002","district_id":"3604190","name":"CIWARNA","postal_code":"42165"},{"id":"3604190003","district_id":"3604190","name":"ANGSANA","postal_code":"72275"},{"id":"3604190004","district_id":"3604190","name":"TALAGA","postal_code":"15710"},{"id":"3604190005","district_id":"3604190","name":"BALEKAMBANG","postal_code":"56361"},{"id":"3604190006","district_id":"3604190","name":"LABUHAN","postal_code":"42165"},{"id":"3604190007","district_id":"3604190","name":"SANGIANG","postal_code":"15520"},{"id":"3604190008","district_id":"3604190","name":"PASIRWARU","postal_code":"42165"},{"id":"3604190009","district_id":"3604190","name":"WARINGIN","postal_code":"71152"},{"id":"3604190010","district_id":"3604190","name":"MANCAK","postal_code":"42165"},{"id":"3604190011","district_id":"3604190","name":"SIGEDONG","postal_code":"56259"},{"id":"3604190012","district_id":"3604190","name":"BATUKUDA","postal_code":"42165"},{"id":"3604190013","district_id":"3604190","name":"WINONG","postal_code":"66229"},{"id":"3604190014","district_id":"3604190","name":"BALE KENCANA","postal_code":"42165"}]