[{"id":"3604080001","district_id":"3604080","name":"PANYABRANGAN","postal_code":"42175"},{"id":"3604080002","district_id":"3604080","name":"DAHU","postal_code":"42175"},{"id":"3604080003","district_id":"3604080","name":"BANTAR PANJANG","postal_code":"15720"},{"id":"3604080004","district_id":"3604080","name":"KATULISAN","postal_code":"42175"},{"id":"3604080005","district_id":"3604080","name":"PANOSOGAN","postal_code":"42175"},{"id":"3604080006","district_id":"3604080","name":"CIKEUSAL","postal_code":"46184"},{"id":"3604080007","district_id":"3604080","name":"SUKAMAJU","postal_code":"34763"},{"id":"3604080008","district_id":"3604080","name":"HARUNDANG","postal_code":"42175"},{"id":"3604080009","district_id":"3604080","name":"GANDAYASA","postal_code":"42175"},{"id":"3604080010","district_id":"3604080","name":"MONGPOK","postal_code":"42175"},{"id":"3604080011","district_id":"3604080","name":"SUKARAME","postal_code":"34768"},{"id":"3604080012","district_id":"3604080","name":"CILAYANG","postal_code":"42175"},{"id":"3604080013","district_id":"3604080","name":"SUKARATU","postal_code":"46415"},{"id":"3604080014","district_id":"3604080","name":"SUKAMENAK","postal_code":"46196"},{"id":"3604080015","district_id":"3604080","name":"CIMAUNG","postal_code":"42175"},{"id":"3604080016","district_id":"3604080","name":"SUKARAJA","postal_code":"46183"},{"id":"3604080017","district_id":"3604080","name":"CILAYANG GUHA","postal_code":"42175"}]