[{"id":"3673050001","district_id":"3673050","name":"CILOWONG","postal_code":"42162"},{"id":"3673050002","district_id":"3673050","name":"SAYAR","postal_code":"42162"},{"id":"3673050003","district_id":"3673050","name":"SEPANG","postal_code":"24782"},{"id":"3673050004","district_id":"3673050","name":"PANCUR","postal_code":"42162"},{"id":"3673050005","district_id":"3673050","name":"KALANG ANYAR","postal_code":"42162"},{"id":"3673050006","district_id":"3673050","name":"KURANJI","postal_code":"72272"},{"id":"3673050007","district_id":"3673050","name":"PANGGUNGJATI","postal_code":"42162"},{"id":"3673050008","district_id":"3673050","name":"DRANGONG","postal_code":"42162"},{"id":"3673050009","district_id":"3673050","name":"TAKTAKAN","postal_code":"42162"},{"id":"3673050010","district_id":"3673050","name":"UMBUL TENGAH","postal_code":"42162"},{"id":"3673050011","district_id":"3673050","name":"LIALANG","postal_code":"42162"},{"id":"3673050012","district_id":"3673050","name":"TAMANBARU","postal_code":"42162"},{"id":"3673050013","district_id":"3673050","name":"CIBENDUNG","postal_code":"52265"}]