[{"id":"5102040001","district_id":"5102040","name":"PANGKUNG TIBAH","postal_code":"82121"},{"id":"5102040002","district_id":"5102040","name":"BELALANG","postal_code":"82121"},{"id":"5102040003","district_id":"5102040","name":"BERABAN","postal_code":"82121"},{"id":"5102040004","district_id":"5102040","name":"BUWIT","postal_code":"82121"},{"id":"5102040005","district_id":"5102040","name":"CEPAKA","postal_code":"82121"},{"id":"5102040006","district_id":"5102040","name":"KABA-KABA","postal_code":"82121"},{"id":"5102040007","district_id":"5102040","name":"PANDAK GEDE","postal_code":"82121"},{"id":"5102040009","district_id":"5102040","name":"PEJATEN","postal_code":"82121"},{"id":"5102040010","district_id":"5102040","name":"NYITDAH","postal_code":"82121"},{"id":"5102040011","district_id":"5102040","name":"PANDAK BANDUNG","postal_code":"82121"},{"id":"5102040012","district_id":"5102040","name":"NYAMBU","postal_code":"82121"},{"id":"5102040013","district_id":"5102040","name":"KEDIRI","postal_code":"82121"},{"id":"5102040014","district_id":"5102040","name":"ABIAN TUWUNG","postal_code":"82121"},{"id":"5102040015","district_id":"5102040","name":"BANJAR ANYAR","postal_code":"52464"}]