[{"id":"5102070001","district_id":"5102070","name":"REJASA","postal_code":"82152"},{"id":"5102070003","district_id":"5102070","name":"RIANG GEDE","postal_code":"82152"},{"id":"5102070004","district_id":"5102070","name":"BURUAN","postal_code":"82152"},{"id":"5102070005","district_id":"5102070","name":"TAJEN","postal_code":"82152"},{"id":"5102070006","district_id":"5102070","name":"PITRA","postal_code":"82152"},{"id":"5102070007","district_id":"5102070","name":"PENATAHAN","postal_code":"82152"},{"id":"5102070008","district_id":"5102070","name":"TENGKUDAK","postal_code":"82152"},{"id":"5102070011","district_id":"5102070","name":"BIAUNG","postal_code":"82152"},{"id":"5102070012","district_id":"5102070","name":"BABAHAN","postal_code":"82152"},{"id":"5102070013","district_id":"5102070","name":"SENGANAN","postal_code":"82152"},{"id":"5102070014","district_id":"5102070","name":"JATILUWIH","postal_code":"82152"},{"id":"5102070015","district_id":"5102070","name":"WONGAYA GEDE","postal_code":"82152"},{"id":"5102070016","district_id":"5102070","name":"PESAGI","postal_code":"82152"},{"id":"5102070017","district_id":"5102070","name":"TEGALINGGAH","postal_code":"82152"},{"id":"5102070018","district_id":"5102070","name":"SANGKETAN","postal_code":"82152"}]