[{"id":"5103040001","district_id":"5103040","name":"CEMAGI","postal_code":"80351"},{"id":"5103040003","district_id":"5103040","name":"PERERENAN","postal_code":"80351"},{"id":"5103040004","district_id":"5103040","name":"TUMBAK BAYUH","postal_code":"80351"},{"id":"5103040006","district_id":"5103040","name":"ABIANBASE","postal_code":"80515"},{"id":"5103040007","district_id":"5103040","name":"SEMPIDI","postal_code":"80351"},{"id":"5103040008","district_id":"5103040","name":"SADING","postal_code":"80351"},{"id":"5103040010","district_id":"5103040","name":"KAPAL","postal_code":"80351"},{"id":"5103040011","district_id":"5103040","name":"KEKERAN","postal_code":"81154"},{"id":"5103040012","district_id":"5103040","name":"MENGWITANI","postal_code":"80351"},{"id":"5103040013","district_id":"5103040","name":"MENGWI","postal_code":"80351"},{"id":"5103040014","district_id":"5103040","name":"GULINGAN","postal_code":"80351"},{"id":"5103040015","district_id":"5103040","name":"PENARUNGAN","postal_code":"80351"},{"id":"5103040016","district_id":"5103040","name":"BAHA","postal_code":"80351"},{"id":"5103040017","district_id":"5103040","name":"WERDI BHUWANA","postal_code":"80351"},{"id":"5103040018","district_id":"5103040","name":"SOBANGAN","postal_code":"80351"}]