[{"id":"5105020001","district_id":"5105020","name":"NEGARI","postal_code":"80752"},{"id":"5105020002","district_id":"5105020","name":"TAKMUNG","postal_code":"80752"},{"id":"5105020003","district_id":"5105020","name":"BANJARANGKAN","postal_code":"80752"},{"id":"5105020004","district_id":"5105020","name":"TUSAN","postal_code":"80752"},{"id":"5105020005","district_id":"5105020","name":"BAKAS","postal_code":"80752"},{"id":"5105020006","district_id":"5105020","name":"GETAKAN","postal_code":"80752"},{"id":"5105020007","district_id":"5105020","name":"TIHINGAN","postal_code":"80752"},{"id":"5105020008","district_id":"5105020","name":"AAN","postal_code":"80752"},{"id":"5105020009","district_id":"5105020","name":"NYALIAN","postal_code":"80752"},{"id":"5105020010","district_id":"5105020","name":"BUNGBUNGAN","postal_code":"69466"},{"id":"5105020011","district_id":"5105020","name":"TIMUHUN","postal_code":"80752"},{"id":"5105020012","district_id":"5105020","name":"NYANGLAN","postal_code":"80752"},{"id":"5105020013","district_id":"5105020","name":"TOHPATI","postal_code":"80752"}]