[{"id":"5105030001","district_id":"5105030","name":"SATRA","postal_code":"80716"},{"id":"5105030002","district_id":"5105030","name":"TOJAN","postal_code":"80716"},{"id":"5105030004","district_id":"5105030","name":"KAMPUNG GELGEL","postal_code":"80716"},{"id":"5105030005","district_id":"5105030","name":"JUMPAI","postal_code":"80716"},{"id":"5105030006","district_id":"5105030","name":"TANGKAS","postal_code":"34765"},{"id":"5105030007","district_id":"5105030","name":"KAMASAN","postal_code":"42167"},{"id":"5105030008","district_id":"5105030","name":"SEMARAPURA KELOD","postal_code":"80713"},{"id":"5105030009","district_id":"5105030","name":"SEMARAPURA KELOD KANGIN","postal_code":"80713"},{"id":"5105030010","district_id":"5105030","name":"SEMARAPURA KANGIN","postal_code":"80716"},{"id":"5105030011","district_id":"5105030","name":"SEMARAPURA TENGAH","postal_code":"80711"},{"id":"5105030012","district_id":"5105030","name":"SEMARAPURA KAUH","postal_code":"80713"},{"id":"5105030013","district_id":"5105030","name":"SEMARAPURA KAJA","postal_code":"80712"},{"id":"5105030014","district_id":"5105030","name":"AKAH","postal_code":"80716"},{"id":"5105030015","district_id":"5105030","name":"MANDUANG","postal_code":"80716"},{"id":"5105030016","district_id":"5105030","name":"SELAT","postal_code":"83371"},{"id":"5105030017","district_id":"5105030","name":"TEGAK","postal_code":"80716"},{"id":"5105030018","district_id":"5105030","name":"SELISIHAN","postal_code":"80716"}]