[{"id":"5108060001","district_id":"5108060","name":"KALIBUKBUK","postal_code":"81119"},{"id":"5108060002","district_id":"5108060","name":"ANTURAN","postal_code":"81119"},{"id":"5108060003","district_id":"5108060","name":"TUKADMUNGGA","postal_code":"81119"},{"id":"5108060004","district_id":"5108060","name":"PEMARON","postal_code":"81119"},{"id":"5108060005","district_id":"5108060","name":"BAKTISERAGA","postal_code":"16418"},{"id":"5108060006","district_id":"5108060","name":"BANYUASRI","postal_code":"81116"},{"id":"5108060007","district_id":"5108060","name":"BANJAR TEGAL","postal_code":"81117"},{"id":"5108060008","district_id":"5108060","name":"PAKET AGUNG","postal_code":"81118"},{"id":"5108060009","district_id":"5108060","name":"BERATAN","postal_code":"81119"},{"id":"5108060010","district_id":"5108060","name":"LILIGUNDI","postal_code":"81119"},{"id":"5108060011","district_id":"5108060","name":"KAMPUNG SINGARAJA","postal_code":"81111"},{"id":"5108060012","district_id":"5108060","name":"KENDRAN","postal_code":"81112"},{"id":"5108060013","district_id":"5108060","name":"ASTINA","postal_code":"94473"},{"id":"5108060014","district_id":"5108060","name":"BANJAR JAWA","postal_code":"81113"},{"id":"5108060015","district_id":"5108060","name":"BANJAR BALI","postal_code":"81113"},{"id":"5108060016","district_id":"5108060","name":"KAMPUNG KAJANAN","postal_code":"81114"},{"id":"5108060017","district_id":"5108060","name":"KALIUNTU","postal_code":"62352"},{"id":"5108060018","district_id":"5108060","name":"KAMPUNG ANYAR","postal_code":"81115"},{"id":"5108060019","district_id":"5108060","name":"KAMPUNG BUGIS","postal_code":"29115"},{"id":"5108060020","district_id":"5108060","name":"KAMPUNG BARU","postal_code":"34765"},{"id":"5108060021","district_id":"5108060","name":"BANYUNING","postal_code":"81119"},{"id":"5108060022","district_id":"5108060","name":"PENARUKAN","postal_code":"52194"},{"id":"5108060023","district_id":"5108060","name":"JINENGDALEM","postal_code":"81119"},{"id":"5108060024","district_id":"5108060","name":"PENGLATAN","postal_code":"81119"},{"id":"5108060025","district_id":"5108060","name":"PETANDAKAN","postal_code":"81119"},{"id":"5108060026","district_id":"5108060","name":"SARI MEKAR","postal_code":"81119"},{"id":"5108060027","district_id":"5108060","name":"NAGASEPAHA","postal_code":"81119"},{"id":"5108060028","district_id":"5108060","name":"ALASANGKER","postal_code":"81119"},{"id":"5108060029","district_id":"5108060","name":"POH BERGONG","postal_code":"81119"}]