[{"id":"5108010001","district_id":"5108010","name":"SUMBER KLAMPOK","postal_code":"81155"},{"id":"5108010002","district_id":"5108010","name":"PEJARAKAN","postal_code":"61276"},{"id":"5108010003","district_id":"5108010","name":"SUMBERKIMA","postal_code":"81155"},{"id":"5108010004","district_id":"5108010","name":"PEMUTERAN","postal_code":"81155"},{"id":"5108010005","district_id":"5108010","name":"BANYUPOH","postal_code":"81155"},{"id":"5108010006","district_id":"5108010","name":"PENYABANGAN","postal_code":"33791"},{"id":"5108010007","district_id":"5108010","name":"MUSI","postal_code":"95871"},{"id":"5108010008","district_id":"5108010","name":"SANGGALANGIT","postal_code":"81155"},{"id":"5108010009","district_id":"5108010","name":"GEROKGAK","postal_code":"81155"},{"id":"5108010010","district_id":"5108010","name":"PATAS","postal_code":"81155"},{"id":"5108010011","district_id":"5108010","name":"PENGULON","postal_code":"81155"},{"id":"5108010012","district_id":"5108010","name":"TINGA TINGA","postal_code":"81155"},{"id":"5108010013","district_id":"5108010","name":"CELUKAN BAWANG","postal_code":"81155"},{"id":"5108010014","district_id":"5108010","name":"TUKAD SUMAGA","postal_code":"81155"}]