[{"id":"5108040001","district_id":"5108040","name":"BANYUATIS","postal_code":"81152"},{"id":"5108040002","district_id":"5108040","name":"GESING","postal_code":"57696"},{"id":"5108040004","district_id":"5108040","name":"GOBLEG","postal_code":"81152"},{"id":"5108040005","district_id":"5108040","name":"KAYUPUTIH","postal_code":"81152"},{"id":"5108040006","district_id":"5108040","name":"TIRTASARI","postal_code":"41372"},{"id":"5108040007","district_id":"5108040","name":"BANYUSRI","postal_code":"81152"},{"id":"5108040008","district_id":"5108040","name":"PEDAWA","postal_code":"81152"},{"id":"5108040009","district_id":"5108040","name":"TIGAWASA","postal_code":"81152"},{"id":"5108040010","district_id":"5108040","name":"CEMPAGA","postal_code":"81152"},{"id":"5108040011","district_id":"5108040","name":"SIDETAPA","postal_code":"81152"},{"id":"5108040012","district_id":"5108040","name":"TAMPEKAN","postal_code":"81152"},{"id":"5108040013","district_id":"5108040","name":"BANJAR TEGEHA","postal_code":"81152"},{"id":"5108040014","district_id":"5108040","name":"BANJAR","postal_code":"56371"},{"id":"5108040015","district_id":"5108040","name":"DENCARIK","postal_code":"81152"},{"id":"5108040017","district_id":"5108040","name":"KALIASEM","postal_code":"81152"}]