[{"id":"5202060001","district_id":"5202060","name":"PANJISARI","postal_code":"83516"},{"id":"5202060004","district_id":"5202060","name":"PRAYA","postal_code":"83511"},{"id":"5202060005","district_id":"5202060","name":"PRAPEN","postal_code":"60299"},{"id":"5202060006","district_id":"5202060","name":"TIWUGALIH","postal_code":"83518"},{"id":"5202060009","district_id":"5202060","name":"SEMAYAN","postal_code":"83512"},{"id":"5202060018","district_id":"5202060","name":"BUNUT BAOK","postal_code":"83511"},{"id":"5202060020","district_id":"5202060","name":"GONJAK","postal_code":"83522"},{"id":"5202060021","district_id":"5202060","name":"JAGO","postal_code":"83511"},{"id":"5202060022","district_id":"5202060","name":"AIK MUAL","postal_code":"83511"},{"id":"5202060023","district_id":"5202060","name":"MERTAK TOMBOK","postal_code":"83511"},{"id":"5202060024","district_id":"5202060","name":"MONTONG TEREP","postal_code":"83511"},{"id":"5202060025","district_id":"5202060","name":"MEKAR DAMAI","postal_code":"80352"}]