[{"id":"5202020001","district_id":"5202020","name":"TUMPAK","postal_code":"83573"},{"id":"5202020002","district_id":"5202020","name":"PRABU","postal_code":"83573"},{"id":"5202020003","district_id":"5202020","name":"KUTA","postal_code":"87153"},{"id":"5202020004","district_id":"5202020","name":"REMBITAN","postal_code":"83573"},{"id":"5202020005","district_id":"5202020","name":"SUKADANA","postal_code":"34767"},{"id":"5202020006","district_id":"5202020","name":"MERTAK","postal_code":"83573"},{"id":"5202020007","district_id":"5202020","name":"PENGENGAT","postal_code":"83573"},{"id":"5202020008","district_id":"5202020","name":"TERUWAI","postal_code":"83573"},{"id":"5202020009","district_id":"5202020","name":"GAPURA","postal_code":"79462"},{"id":"5202020010","district_id":"5202020","name":"KAWO","postal_code":"83573"},{"id":"5202020011","district_id":"5202020","name":"SEGALE ANYAR","postal_code":"83573"},{"id":"5202020012","district_id":"5202020","name":"SENGKOL","postal_code":"83573"},{"id":"5202020014","district_id":"5202020","name":"KETARA","postal_code":"83573"},{"id":"5202020015","district_id":"5202020","name":"TANAK AWU","postal_code":"83573"},{"id":"5202020016","district_id":"5202020","name":"BANGKET PARAK","postal_code":"69355"}]