[{"id":"5203040001","district_id":"5203040","name":"SEMAYA","postal_code":"52353"},{"id":"5203040002","district_id":"5203040","name":"SIKUR","postal_code":"83662"},{"id":"5203040003","district_id":"5203040","name":"MONTONGBAAN","postal_code":"83662"},{"id":"5203040004","district_id":"5203040","name":"LOYOK","postal_code":"83662"},{"id":"5203040005","district_id":"5203040","name":"KOTARAJA","postal_code":"83662"},{"id":"5203040006","district_id":"5203040","name":"TETEBATU","postal_code":"83662"},{"id":"5203040007","district_id":"5203040","name":"KEMBANG KUNING","postal_code":"83662"},{"id":"5203040008","district_id":"5203040","name":"MONTONGBAAN SELATAN","postal_code":"83662"},{"id":"5203040009","district_id":"5203040","name":"GELORA","postal_code":"28992"},{"id":"5203040010","district_id":"5203040","name":"DARMA SARI","postal_code":"31452"},{"id":"5203040011","district_id":"5203040","name":"TETEBATU SELATAN","postal_code":"83662"},{"id":"5203040012","district_id":"5203040","name":"JERUK MANIS","postal_code":"83662"},{"id":"5203040013","district_id":"5203040","name":"SIKUR SELATAN","postal_code":"83662"},{"id":"5203040014","district_id":"5203040","name":"SIKUR BARAT","postal_code":"83662"}]