[{"id":"5203080001","district_id":"5203080","name":"BAGIK PAPAN","postal_code":"83654"},{"id":"5203080002","district_id":"5203080","name":"APITAIK","postal_code":"83654"},{"id":"5203080004","district_id":"5203080","name":"POHGADING","postal_code":"59162"},{"id":"5203080005","district_id":"5203080","name":"BATUYANG","postal_code":"83654"},{"id":"5203080006","district_id":"5203080","name":"PRINGGABAYA","postal_code":"83654"},{"id":"5203080013","district_id":"5203080","name":"LABUHAN LOMBOK","postal_code":"83654"},{"id":"5203080014","district_id":"5203080","name":"TEKO","postal_code":"83654"},{"id":"5203080015","district_id":"5203080","name":"POHGADING TIMUR","postal_code":"83654"},{"id":"5203080016","district_id":"5203080","name":"PRINGGABAYA UTARA","postal_code":"83654"},{"id":"5203080017","district_id":"5203080","name":"TANAK GADANG","postal_code":"83654"},{"id":"5203080018","district_id":"5203080","name":"ANGGARAKSA","postal_code":"83654"},{"id":"5203080019","district_id":"5203080","name":"GUNUNG MALANG","postal_code":"43367"},{"id":"5203080020","district_id":"5203080","name":"SERUNI MUMBUL","postal_code":"83654"},{"id":"5203080021","district_id":"5203080","name":"TELAGA WARU","postal_code":"83654"}]