[{"id":"5203010005","district_id":"5203010","name":"TANJUNG LUAR","postal_code":"83672"},{"id":"5203010006","district_id":"5203010","name":"PIJOT","postal_code":"83672"},{"id":"5203010007","district_id":"5203010","name":"SELEBUNG KETANGGA","postal_code":"83672"},{"id":"5203010008","district_id":"5203010","name":"SEPIT","postal_code":"83672"},{"id":"5203010009","district_id":"5203010","name":"KERUAK","postal_code":"83672"},{"id":"5203010010","district_id":"5203010","name":"BATU PUTIK","postal_code":"83672"},{"id":"5203010011","district_id":"5203010","name":"SENYIUR","postal_code":"83672"},{"id":"5203010012","district_id":"5203010","name":"KETAPANG RAYA","postal_code":"83672"},{"id":"5203010013","district_id":"5203010","name":"PIJOT UTARA","postal_code":"83672"},{"id":"5203010014","district_id":"5203010","name":"KETANGGA JERAING","postal_code":"83672"},{"id":"5203010015","district_id":"5203010","name":"MENDANA RAYA","postal_code":"83672"},{"id":"5203010016","district_id":"5203010","name":"SETUNGKEP LINGSAR","postal_code":"83672"},{"id":"5203010017","district_id":"5203010","name":"DANERASE","postal_code":"39265"},{"id":"5203010018","district_id":"5203010","name":"MONTONG BELAE","postal_code":"83672"},{"id":"5203010019","district_id":"5203010","name":"PULAU MARINGKIK","postal_code":"83672"}]