[{"id":"5205060001","district_id":"5205060","name":"DOROPETI","postal_code":"59262"},{"id":"5205060002","district_id":"5205060","name":"BERINGIN JAYA","postal_code":"34767"},{"id":"5205060003","district_id":"5205060","name":"PEKAT","postal_code":"84315"},{"id":"5205060004","district_id":"5205060","name":"SORINOMO","postal_code":"84261"},{"id":"5205060005","district_id":"5205060","name":"TAMBORA","postal_code":"11220"},{"id":"5205060006","district_id":"5205060","name":"KADINDI","postal_code":"84261"},{"id":"5205060007","district_id":"5205060","name":"NANGAMIRO","postal_code":"84261"},{"id":"5205060008","district_id":"5205060","name":"CALABAI","postal_code":"99577"},{"id":"5205060009","district_id":"5205060","name":"UPT NANGAKARA","postal_code":"39262"},{"id":"5205060010","district_id":"5205060","name":"KADINDI BARAT","postal_code":"84261"},{"id":"5205060011","district_id":"5205060","name":"PERSIAPAN SORI TATANGA","postal_code":"20624"},{"id":"5205060012","district_id":"5205060","name":"PERSIAPAN KAROMBO","postal_code":"20624"}]