[{"id":"5205051001","district_id":"5205051","name":"KWANGKO","postal_code":"84253"},{"id":"5205051002","district_id":"5205051","name":"NANGATUMPU","postal_code":"84253"},{"id":"5205051003","district_id":"5205051","name":"BANGGO","postal_code":"84253"},{"id":"5205051004","district_id":"5205051","name":"SORIUTU","postal_code":"84253"},{"id":"5205051005","district_id":"5205051","name":"DOROMELO","postal_code":"84253"},{"id":"5205051006","district_id":"5205051","name":"LANCI JAYA","postal_code":"84253"},{"id":"5205051007","district_id":"5205051","name":"NUSA JAYA","postal_code":"15116"},{"id":"5205051008","district_id":"5205051","name":"SUKA DAMAI","postal_code":"37553"},{"id":"5205051009","district_id":"5205051","name":"TANJU","postal_code":"24264"},{"id":"5205051010","district_id":"5205051","name":"KAMPAS MECI","postal_code":"78854"},{"id":"5205051011","district_id":"5205051","name":"PERSIAPAN TEKA SIRE","postal_code":"20624"},{"id":"5205051012","district_id":"5205051","name":"PERSIAPAN ANAMINA","postal_code":"20624"}]