[{"id":"5206070002","district_id":"5206070","name":"NTOKE","postal_code":"84152"},{"id":"5206070003","district_id":"5206070","name":"PAI","postal_code":"90243"},{"id":"5206070004","district_id":"5206070","name":"BALA","postal_code":"91354"},{"id":"5206070005","district_id":"5206070","name":"OITUI","postal_code":"84152"},{"id":"5206070006","district_id":"5206070","name":"TAWALI","postal_code":"84152"},{"id":"5206070007","district_id":"5206070","name":"SANGIANG","postal_code":"15520"},{"id":"5206070008","district_id":"5206070","name":"HIDIRASA","postal_code":"84182"},{"id":"5206070009","district_id":"5206070","name":"NUNGGI","postal_code":"84152"},{"id":"5206070010","district_id":"5206070","name":"WORA","postal_code":"84152"},{"id":"5206070015","district_id":"5206070","name":"TADEWA","postal_code":"84152"},{"id":"5206070016","district_id":"5206070","name":"NANGA WERA","postal_code":"84152"},{"id":"5206070017","district_id":"5206070","name":"KALAJENA","postal_code":"95998"},{"id":"5206070018","district_id":"5206070","name":"RANGGASOLO","postal_code":"45393"},{"id":"5206070019","district_id":"5206070","name":"MANDALA","postal_code":"69456"}]