[{"id":"5303140001","district_id":"5303140","name":"OEFAFI","postal_code":"85362"},{"id":"5303140002","district_id":"5303140","name":"TUATUKA","postal_code":"85362"},{"id":"5303140016","district_id":"5303140","name":"PUKDALE","postal_code":"85362"},{"id":"5303140017","district_id":"5303140","name":"OESAO","postal_code":"85362"},{"id":"5303140018","district_id":"5303140","name":"NAIBONAT","postal_code":"85362"},{"id":"5303140020","district_id":"5303140","name":"BABAU","postal_code":"85362"},{"id":"5303140021","district_id":"5303140","name":"MERDEKA","postal_code":"21135"},{"id":"5303140022","district_id":"5303140","name":"TUAPUKAN","postal_code":"85362"},{"id":"5303140023","district_id":"5303140","name":"MANUSAK","postal_code":"85362"},{"id":"5303140024","district_id":"5303140","name":"OESAO II","postal_code":"85362"},{"id":"5303140025","district_id":"5303140","name":"OELATIMO","postal_code":"85362"},{"id":"5303140026","district_id":"5303140","name":"TANAH PUTIH","postal_code":"95377"}]