[{"id":"5304010003","district_id":"5304010","name":"LELOBOKO","postal_code":"85552"},{"id":"5304010004","district_id":"5304010","name":"NEFOKOKO","postal_code":"85552"},{"id":"5304010005","district_id":"5304010","name":"LELOBATAN","postal_code":"85552"},{"id":"5304010006","district_id":"5304010","name":"NETPALA","postal_code":"85552"},{"id":"5304010007","district_id":"5304010","name":"OBESI","postal_code":"85552"},{"id":"5304010008","district_id":"5304010","name":"EON BESI","postal_code":"85552"},{"id":"5304010009","district_id":"5304010","name":"BOSEN","postal_code":"85552"},{"id":"5304010010","district_id":"5304010","name":"SEBOT","postal_code":"85552"},{"id":"5304010011","district_id":"5304010","name":"AJAOBAKI","postal_code":"85552"},{"id":"5304010012","district_id":"5304010","name":"BIJAEPUNU","postal_code":"85552"},{"id":"5304010014","district_id":"5304010","name":"HALME","postal_code":"85552"},{"id":"5304010016","district_id":"5304010","name":"TUNUA","postal_code":"85552"},{"id":"5304010017","district_id":"5304010","name":"FATUKOTO","postal_code":"85552"},{"id":"5304010018","district_id":"5304010","name":"IUSMOLLO","postal_code":"92752"},{"id":"5304010019","district_id":"5304010","name":"KOKFEU","postal_code":"85552"},{"id":"5304010020","district_id":"5304010","name":"TOMANAT","postal_code":"99571"},{"id":"5304010021","district_id":"5304010","name":"TOFEN","postal_code":"69491"},{"id":"5304010022","district_id":"5304010","name":"TAIFTOB","postal_code":"85552"}]