[{"id":"5307060007","district_id":"5307060","name":"ALOR KECIL","postal_code":"85851"},{"id":"5307060008","district_id":"5307060","name":"LEFOKISU","postal_code":"85851"},{"id":"5307060009","district_id":"5307060","name":"AMPERA","postal_code":"99583"},{"id":"5307060010","district_id":"5307060","name":"LEWALU","postal_code":"85851"},{"id":"5307060011","district_id":"5307060","name":"BAMPALOLA","postal_code":"85851"},{"id":"5307060012","district_id":"5307060","name":"DULOLONG BARAT","postal_code":"85851"},{"id":"5307060013","district_id":"5307060","name":"DULOLONG","postal_code":"85851"},{"id":"5307060014","district_id":"5307060","name":"HULNANI","postal_code":"85851"},{"id":"5307060015","district_id":"5307060","name":"ALOR BESAR","postal_code":"85851"},{"id":"5307060016","district_id":"5307060","name":"TERNATE SELATAN","postal_code":"85851"},{"id":"5307060017","district_id":"5307060","name":"TERNATE","postal_code":"85851"},{"id":"5307060018","district_id":"5307060","name":"PULAU BUAYA","postal_code":"85851"},{"id":"5307060019","district_id":"5307060","name":"O'AMATE","postal_code":"99578"},{"id":"5307060020","district_id":"5307060","name":"AIMOLI","postal_code":"85851"},{"id":"5307060021","district_id":"5307060","name":"ALAANG","postal_code":"85851"},{"id":"5307060022","district_id":"5307060","name":"ADANG","postal_code":"24161"},{"id":"5307060023","district_id":"5307060","name":"ALILA","postal_code":"85851"},{"id":"5307060024","district_id":"5307060","name":"OTVAI","postal_code":"85851"},{"id":"5307060025","district_id":"5307060","name":"ALILA SELATAN","postal_code":"85851"}]