[{"id":"5308050001","district_id":"5308050","name":"BELOBATANG","postal_code":"86682"},{"id":"5308050002","district_id":"5308050","name":"UDAK MELOMATA","postal_code":"86682"},{"id":"5308050003","district_id":"5308050","name":"BAOLANGU","postal_code":"86682"},{"id":"5308050004","district_id":"5308050","name":"NUBA MADO","postal_code":"86682"},{"id":"5308050005","district_id":"5308050","name":"PAOBOKOL","postal_code":"96365"},{"id":"5308050006","district_id":"5308050","name":"WATOKOBU","postal_code":"86682"},{"id":"5308050007","district_id":"5308050","name":"WAIJARANG","postal_code":"86682"},{"id":"5308050008","district_id":"5308050","name":"LEWOLEBA BARAT","postal_code":"86613"},{"id":"5308050009","district_id":"5308050","name":"LEWOLEBA UTARA","postal_code":"86612"},{"id":"5308050010","district_id":"5308050","name":"LEWOLEBA","postal_code":"86611"},{"id":"5308050011","district_id":"5308050","name":"LEWOLEBA TENGAH","postal_code":"86615"},{"id":"5308050012","district_id":"5308050","name":"LEWOLEBA TIMUR","postal_code":"86616"},{"id":"5308050013","district_id":"5308050","name":"LITEULUMADO","postal_code":"86616"},{"id":"5308050014","district_id":"5308050","name":"PADA","postal_code":"94654"},{"id":"5308050015","district_id":"5308050","name":"BAKALEREK","postal_code":"86682"},{"id":"5308050016","district_id":"5308050","name":"LEWOLEBA SELATAN","postal_code":"86682"},{"id":"5308050017","district_id":"5308050","name":"SELANDORO","postal_code":"86682"},{"id":"5308050018","district_id":"5308050","name":"BOUR","postal_code":"97764"}]