[{"id":"5308010001","district_id":"5308010","name":"PASIR PUTIH","postal_code":"90984"},{"id":"5308010002","district_id":"5308010","name":"LOLONG","postal_code":"51182"},{"id":"5308010003","district_id":"5308010","name":"BABOKERONG","postal_code":"86684"},{"id":"5308010004","district_id":"5308010","name":"DUAWUTUN","postal_code":"86684"},{"id":"5308010005","district_id":"5308010","name":"WUAKERONG","postal_code":"65156"},{"id":"5308010006","district_id":"5308010","name":"PENIKENE","postal_code":"86684"},{"id":"5308010007","district_id":"5308010","name":"ATAWAI","postal_code":"86684"},{"id":"5308010008","district_id":"5308010","name":"LUSIDUAWUTUN","postal_code":"86684"},{"id":"5308010016","district_id":"5308010","name":"BELABAJA","postal_code":"86684"},{"id":"5308010017","district_id":"5308010","name":"LABALIMUT","postal_code":"86684"},{"id":"5308010018","district_id":"5308010","name":"ILE BOLI","postal_code":"86684"},{"id":"5308010019","district_id":"5308010","name":"BAOBOLAK","postal_code":"86684"},{"id":"5308010020","district_id":"5308010","name":"TEWAOWUTUNG","postal_code":"86684"},{"id":"5308010021","district_id":"5308010","name":"BOLIBEAN","postal_code":"86684"},{"id":"5308010022","district_id":"5308010","name":"RIA BAO","postal_code":"86419"},{"id":"5308010023","district_id":"5308010","name":"IDALOLONG","postal_code":"22865"},{"id":"5308010024","district_id":"5308010","name":"WARAWATUNG","postal_code":"98157"},{"id":"5308010025","district_id":"5308010","name":"LIWULAGANG","postal_code":"93781"}]