[{"id":"5309040001","district_id":"5309040","name":"TANAH LEIN","postal_code":"86272"},{"id":"5309040002","district_id":"5309040","name":"LAMAOLE","postal_code":"86272"},{"id":"5309040003","district_id":"5309040","name":"LEWOTANAH OLE","postal_code":"86272"},{"id":"5309040004","district_id":"5309040","name":"LAMAWOHONG","postal_code":"86683"},{"id":"5309040005","district_id":"5309040","name":"KALELU","postal_code":"86272"},{"id":"5309040010","district_id":"5309040","name":"KARAWATUNG","postal_code":"86272"},{"id":"5309040011","district_id":"5309040","name":"ONGALERENG","postal_code":"86272"},{"id":"5309040012","district_id":"5309040","name":"PAMAKAYO","postal_code":"86272"},{"id":"5309040013","district_id":"5309040","name":"BALAWELING I","postal_code":"86272"},{"id":"5309040014","district_id":"5309040","name":"BALAWELING II","postal_code":"86272"},{"id":"5309040015","district_id":"5309040","name":"DANI WATO","postal_code":"86272"},{"id":"5309040016","district_id":"5309040","name":"NURHALOLON","postal_code":"85871"},{"id":"5309040017","district_id":"5309040","name":"RITAEBANG","postal_code":"86272"},{"id":"5309040018","district_id":"5309040","name":"TITEHENA","postal_code":"86272"},{"id":"5309040019","district_id":"5309040","name":"LEWONAMA","postal_code":"86272"}]