[{"id":"5311063001","district_id":"5311063","name":"WOLOGAI TIMUR","postal_code":"86376"},{"id":"5311063002","district_id":"5311063","name":"NGGUMBELAKA","postal_code":"86376"},{"id":"5311063005","district_id":"5311063","name":"NDENGGARONGGE","postal_code":"86375"},{"id":"5311063006","district_id":"5311063","name":"TANALANGI","postal_code":"86374"},{"id":"5311063007","district_id":"5311063","name":"TANIWODA","postal_code":"86374"},{"id":"5311063008","district_id":"5311063","name":"DETUARA","postal_code":"86374"},{"id":"5311063009","district_id":"5311063","name":"TIWUSORA","postal_code":"86374"},{"id":"5311063010","district_id":"5311063","name":"NDIKOSAPU","postal_code":"86378"},{"id":"5311063011","district_id":"5311063","name":"KURU SARE","postal_code":"86375"},{"id":"5311063012","district_id":"5311063","name":"MUKUREKU SAATE","postal_code":"86376"},{"id":"5311063013","district_id":"5311063","name":"LISEKURU","postal_code":"86372"},{"id":"5311063014","district_id":"5311063","name":"RUTUJEJA","postal_code":"86377"}]