[{"id":"5311040001","district_id":"5311040","name":"NANGANESA","postal_code":"86361"},{"id":"5311040002","district_id":"5311040","name":"KEL. ONELAKO","postal_code":"24562"},{"id":"5311040003","district_id":"5311040","name":"MANULONDO","postal_code":"85765"},{"id":"5311040004","district_id":"5311040","name":"WOLOTOPO","postal_code":"86361"},{"id":"5311040005","district_id":"5311040","name":"WOLOTOPO TIMUR","postal_code":"86361"},{"id":"5311040006","district_id":"5311040","name":"NGALUPOLO","postal_code":"86361"},{"id":"5311040007","district_id":"5311040","name":"KEKASEWA","postal_code":"86361"},{"id":"5311040008","district_id":"5311040","name":"NILA","postal_code":"86361"},{"id":"5311040009","district_id":"5311040","name":"NGALUROGA","postal_code":"59582"},{"id":"5311040014","district_id":"5311040","name":"PUUTUGA","postal_code":"86361"},{"id":"5311040015","district_id":"5311040","name":"KEL. LOKOBOKO","postal_code":"24562"},{"id":"5311040017","district_id":"5311040","name":"REKA","postal_code":"86361"},{"id":"5311040018","district_id":"5311040","name":"WOLOKOTA","postal_code":"86361"},{"id":"5311040019","district_id":"5311040","name":"KELIKIKU","postal_code":"86361"}]