[{"id":"5311052001","district_id":"5311052","name":"HOBATUWA","postal_code":"98453"},{"id":"5311052002","district_id":"5311052","name":"KEL. WATUNESO","postal_code":"24562"},{"id":"5311052003","district_id":"5311052","name":"WOLOSAMBI","postal_code":"86361"},{"id":"5311052004","district_id":"5311052","name":"LIABEKE","postal_code":"86361"},{"id":"5311052005","district_id":"5311052","name":"WOLOLELE A","postal_code":"86361"},{"id":"5311052006","district_id":"5311052","name":"DETUPERA","postal_code":"86361"},{"id":"5311052007","district_id":"5311052","name":"WOLOARO","postal_code":"86318"},{"id":"5311052008","district_id":"5311052","name":"FATAMARI","postal_code":"86361"},{"id":"5311052009","district_id":"5311052","name":"TANAROGA","postal_code":"86361"},{"id":"5311052010","district_id":"5311052","name":"MBEWAWORA","postal_code":"86361"},{"id":"5311052011","district_id":"5311052","name":"RANGGATALO","postal_code":"86361"},{"id":"5311052012","district_id":"5311052","name":"NUALIMA","postal_code":"85772"},{"id":"5311052013","district_id":"5311052","name":"BU TANALAGU","postal_code":"86361"}]