[{"id":"5311061005","district_id":"5311061","name":"HANGALANDE","postal_code":"86111"},{"id":"5311061006","district_id":"5311061","name":"TOU TIMUR","postal_code":"86111"},{"id":"5311061007","district_id":"5311061","name":"TOU","postal_code":"86111"},{"id":"5311061008","district_id":"5311061","name":"NIOPANDA","postal_code":"86111"},{"id":"5311061009","district_id":"5311061","name":"LOBONIKI","postal_code":"86111"},{"id":"5311061010","district_id":"5311061","name":"NDONDO","postal_code":"86111"},{"id":"5311061011","district_id":"5311061","name":"KOTABARU","postal_code":"55224"},{"id":"5311061012","district_id":"5311061","name":"LISELANDE","postal_code":"86111"},{"id":"5311061013","district_id":"5311061","name":"TOU BARAT","postal_code":"86111"},{"id":"5311061014","district_id":"5311061","name":"RANGALAKA","postal_code":"86111"},{"id":"5311061015","district_id":"5311061","name":"PISE","postal_code":"41357"},{"id":"5311061016","district_id":"5311061","name":"NUANAGA","postal_code":"86318"},{"id":"5311061017","district_id":"5311061","name":"NEOTONDA","postal_code":"98355"}]