[{"id":"5311050005","district_id":"5311050","name":"MBULIWARALAU UTARA","postal_code":"86372"},{"id":"5311050006","district_id":"5311050","name":"MBULIWARALAU","postal_code":"86372"},{"id":"5311050015","district_id":"5311050","name":"WOLOSOKO","postal_code":"86372"},{"id":"5311050016","district_id":"5311050","name":"BOKASAPE TIMUR","postal_code":"86372"},{"id":"5311050017","district_id":"5311050","name":"BOKASAPE","postal_code":"86372"},{"id":"5311050018","district_id":"5311050","name":"WOLOKOLI","postal_code":"86171"},{"id":"5311050019","district_id":"5311050","name":"JOPU","postal_code":"86372"},{"id":"5311050024","district_id":"5311050","name":"MBULILOO","postal_code":"86372"},{"id":"5311050025","district_id":"5311050","name":"RINDIWAWO","postal_code":"86372"},{"id":"5311050026","district_id":"5311050","name":"LISEDETU","postal_code":"86372"},{"id":"5311050027","district_id":"5311050","name":"NUALISE","postal_code":"86372"},{"id":"5311050033","district_id":"5311050","name":"LISELOWOBORA","postal_code":"86111"},{"id":"5311050036","district_id":"5311050","name":"LIKANAKA","postal_code":"86372"},{"id":"5311050037","district_id":"5311050","name":"NAKAMBARA","postal_code":"86372"},{"id":"5311050038","district_id":"5311050","name":"NIRAMESI","postal_code":"99582"},{"id":"5311050039","district_id":"5311050","name":"TANA LOO","postal_code":"86372"},{"id":"5311050040","district_id":"5311050","name":"LISE PUU","postal_code":"86372"}]