[{"id":"5312020001","district_id":"5312020","name":"BAJAWA","postal_code":"86413"},{"id":"5312020002","district_id":"5312020","name":"FAOBATA","postal_code":"86419"},{"id":"5312020003","district_id":"5312020","name":"TANALODU","postal_code":"86412"},{"id":"5312020004","district_id":"5312020","name":"KISANATA","postal_code":"86411"},{"id":"5312020005","district_id":"5312020","name":"JAWAMEZE","postal_code":"86416"},{"id":"5312020006","district_id":"5312020","name":"TRIKORA","postal_code":"99583"},{"id":"5312020008","district_id":"5312020","name":"LEBIJAGA","postal_code":"86418"},{"id":"5312020010","district_id":"5312020","name":"BEJA","postal_code":"86413"},{"id":"5312020011","district_id":"5312020","name":"BOMARI","postal_code":"86413"},{"id":"5312020012","district_id":"5312020","name":"UBEDOLUMOLO","postal_code":"86413"},{"id":"5312020013","district_id":"5312020","name":"BEIWALI","postal_code":"86413"},{"id":"5312020014","district_id":"5312020","name":"WAWOWAE","postal_code":"86413"},{"id":"5312020015","district_id":"5312020","name":"NARU","postal_code":"84171"},{"id":"5312020016","district_id":"5312020","name":"BORANI","postal_code":"86413"},{"id":"5312020017","district_id":"5312020","name":"LANGAGEDHA","postal_code":"86418"},{"id":"5312020018","district_id":"5312020","name":"PAPE","postal_code":"86413"},{"id":"5312020019","district_id":"5312020","name":"BOWALI","postal_code":"86413"},{"id":"5312020020","district_id":"5312020","name":"NGORANALE","postal_code":"86413"},{"id":"5312020021","district_id":"5312020","name":"BELA","postal_code":"98972"},{"id":"5312020022","district_id":"5312020","name":"UBEDOLUMOLO I","postal_code":"86413"}]