[{"id":"5312080006","district_id":"5312080","name":"TAEN TERONG","postal_code":"86419"},{"id":"5312080007","district_id":"5312080","name":"RAWANGKALO","postal_code":"86419"},{"id":"5312080008","district_id":"5312080","name":"WANGKA","postal_code":"94363"},{"id":"5312080010","district_id":"5312080","name":"LENGKOSAMBI","postal_code":"86419"},{"id":"5312080011","district_id":"5312080","name":"TADHO","postal_code":"86419"},{"id":"5312080012","district_id":"5312080","name":"BENTENG TENGAH","postal_code":"86419"},{"id":"5312080013","district_id":"5312080","name":"NANGAMESE","postal_code":"86419"},{"id":"5312080014","district_id":"5312080","name":"LATUNG","postal_code":"86419"},{"id":"5312080015","district_id":"5312080","name":"SAMBINASI","postal_code":"86419"},{"id":"5312080016","district_id":"5312080","name":"WANGKA SELATAN","postal_code":"86419"},{"id":"5312080017","district_id":"5312080","name":"LENGKOSAMBI TIMUR","postal_code":"86419"},{"id":"5312080018","district_id":"5312080","name":"LENGKOSAMBI BARAT","postal_code":"86419"},{"id":"5312080019","district_id":"5312080","name":"TAEN TERONG I","postal_code":"86419"},{"id":"5312080020","district_id":"5312080","name":"TAEN TERONG II","postal_code":"86419"},{"id":"5312080021","district_id":"5312080","name":"LENGKOSAMBI UTARA","postal_code":"86419"},{"id":"5312080022","district_id":"5312080","name":"SAMBINASI BARAT","postal_code":"86419"}]