[{"id":"5313110001","district_id":"5313110","name":"GOLO DUKAL","postal_code":"86515"},{"id":"5313110002","district_id":"5313110","name":"PAU","postal_code":"86516"},{"id":"5313110003","district_id":"5313110","name":"WASO","postal_code":"86517"},{"id":"5313110004","district_id":"5313110","name":"WATU","postal_code":"90862"},{"id":"5313110005","district_id":"5313110","name":"TENDA","postal_code":"86518"},{"id":"5313110006","district_id":"5313110","name":"CAREP","postal_code":"86519"},{"id":"5313110007","district_id":"5313110","name":"MBAUMUKU","postal_code":"86511"},{"id":"5313110008","district_id":"5313110","name":"KAROT","postal_code":"86512"},{"id":"5313110009","district_id":"5313110","name":"PITAK","postal_code":"86513"},{"id":"5313110010","district_id":"5313110","name":"LAWIR","postal_code":"86516"},{"id":"5313110011","district_id":"5313110","name":"WALI","postal_code":"93794"},{"id":"5313110012","district_id":"5313110","name":"BANGKA LEDA","postal_code":"86516"},{"id":"5313110013","district_id":"5313110","name":"ROWANG","postal_code":"86462"},{"id":"5313110014","district_id":"5313110","name":"BANGKA NEKANG","postal_code":"86571"},{"id":"5313110015","district_id":"5313110","name":"POCO MAL","postal_code":"86516"},{"id":"5313110016","district_id":"5313110","name":"SATAR TACIK","postal_code":"86561"},{"id":"5313110017","district_id":"5313110","name":"LACI CAREP","postal_code":"92753"},{"id":"5313110018","district_id":"5313110","name":"COMPANG CAREP","postal_code":"86756"},{"id":"5313110019","district_id":"5313110","name":"TADONG","postal_code":"93353"},{"id":"5313110020","district_id":"5313110","name":"COMPANG TUKE","postal_code":"86571"}]