[{"id":"5313120004","district_id":"5313120","name":"BULAN","postal_code":"56262"},{"id":"5313120005","district_id":"5313120","name":"PONG LAO","postal_code":"86516"},{"id":"5313120006","district_id":"5313120","name":"CUMBI","postal_code":"86516"},{"id":"5313120007","district_id":"5313120","name":"POCO LIKANG","postal_code":"86583"},{"id":"5313120008","district_id":"5313120","name":"PONG MURUNG","postal_code":"86516"},{"id":"5313120009","district_id":"5313120","name":"PONG LEKO","postal_code":"86516"},{"id":"5313120011","district_id":"5313120","name":"BELANG TURI","postal_code":"86516"},{"id":"5313120012","district_id":"5313120","name":"GOLOWOROK","postal_code":"99571"},{"id":"5313120014","district_id":"5313120","name":"WAE BELANG","postal_code":"86516"},{"id":"5313120015","district_id":"5313120","name":"RAI","postal_code":"86516"},{"id":"5313120017","district_id":"5313120","name":"KAKOR","postal_code":"86753"},{"id":"5313120018","district_id":"5313120","name":"BEO RAHONG","postal_code":"86516"},{"id":"5313120029","district_id":"5313120","name":"BANGKA LAO","postal_code":"86516"},{"id":"5313120030","district_id":"5313120","name":"COMPANG DALO","postal_code":"86516"},{"id":"5313120031","district_id":"5313120","name":"COMPANG NAMUT","postal_code":"86516"},{"id":"5313120032","district_id":"5313120","name":"COMPANG LALE","postal_code":"86583"},{"id":"5313120033","district_id":"5313120","name":"BEA KAKOR","postal_code":"93661"}]