[{"id":"5315020001","district_id":"5315020","name":"MATA WAE","postal_code":"86757"},{"id":"5315020002","district_id":"5315020","name":"WAE SANO","postal_code":"86757"},{"id":"5315020003","district_id":"5315020","name":"SANO NGGOANG","postal_code":"86757"},{"id":"5315020004","district_id":"5315020","name":"GOLO SENGANG","postal_code":"86757"},{"id":"5315020005","district_id":"5315020","name":"GOLO MBU","postal_code":"86757"},{"id":"5315020006","district_id":"5315020","name":"GOLO MANTING","postal_code":"86757"},{"id":"5315020007","district_id":"5315020","name":"GOLO NDARING","postal_code":"86757"},{"id":"5315020008","district_id":"5315020","name":"GOLO KEMPO","postal_code":"86757"},{"id":"5315020009","district_id":"5315020","name":"NAMPAR MACING","postal_code":"86757"},{"id":"5315020010","district_id":"5315020","name":"GOLO LELENG","postal_code":"86757"},{"id":"5315020019","district_id":"5315020","name":"WAE LOLOS","postal_code":"86757"},{"id":"5315020020","district_id":"5315020","name":"PULAU NUNCUNG","postal_code":"74171"},{"id":"5315020021","district_id":"5315020","name":"GOLO KONDENG","postal_code":"86754"},{"id":"5315020022","district_id":"5315020","name":"WATU PANGGAL","postal_code":"86572"},{"id":"5315020023","district_id":"5315020","name":"POCO GOLO KEMPO","postal_code":"86591"}]