[{"id":"5315032001","district_id":"5315032","name":"NANGA BERE","postal_code":"86753"},{"id":"5315032002","district_id":"5315032","name":"BENTENG DEWA","postal_code":"86753"},{"id":"5315032003","district_id":"5315032","name":"NANGA LILI","postal_code":"86753"},{"id":"5315032004","district_id":"5315032","name":"REPI","postal_code":"86753"},{"id":"5315032005","district_id":"5315032","name":"WATU WAJA","postal_code":"86753"},{"id":"5315032007","district_id":"5315032","name":"MUNTING","postal_code":"86753"},{"id":"5315032008","district_id":"5315032","name":"LALONG","postal_code":"86753"},{"id":"5315032009","district_id":"5315032","name":"KAKOR","postal_code":"86753"},{"id":"5315032010","district_id":"5315032","name":"WAE MOSE","postal_code":"86753"},{"id":"5315032011","district_id":"5315032","name":"WATU TIRI","postal_code":"86592"},{"id":"5315032012","district_id":"5315032","name":"BENTENG TADO","postal_code":"90225"},{"id":"5315032013","district_id":"5315032","name":"WATU RAMBUNG","postal_code":"93891"},{"id":"5315032014","district_id":"5315032","name":"LENDONG","postal_code":"85819"},{"id":"5315032015","district_id":"5315032","name":"MODO","postal_code":"94564"}]