[{"id":"5315031001","district_id":"5315031","name":"GALANG","postal_code":"86753"},{"id":"5315031002","district_id":"5315031","name":"PONG WELAK","postal_code":"86753"},{"id":"5315031003","district_id":"5315031","name":"REHAK","postal_code":"86753"},{"id":"5315031004","district_id":"5315031","name":"ORONG","postal_code":"86753"},{"id":"5315031006","district_id":"5315031","name":"LALE","postal_code":"86753"},{"id":"5315031007","district_id":"5315031","name":"GOLO RONGGOT","postal_code":"86753"},{"id":"5315031008","district_id":"5315031","name":"WATU UMPU","postal_code":"86753"},{"id":"5315031009","district_id":"5315031","name":"DUNTA","postal_code":"86753"},{"id":"5315031010","district_id":"5315031","name":"SEMANG","postal_code":"86753"},{"id":"5315031011","district_id":"5315031","name":"PENGKA","postal_code":"86753"},{"id":"5315031012","district_id":"5315031","name":"RACANG WELAK","postal_code":"97756"},{"id":"5315031013","district_id":"5315031","name":"ROBO","postal_code":"86592"},{"id":"5315031014","district_id":"5315031","name":"WEWA","postal_code":"23361"},{"id":"5315031015","district_id":"5315031","name":"GOLO NDARI","postal_code":"86583"},{"id":"5315031016","district_id":"5315031","name":"SEWAR","postal_code":"99373"}]