[{"id":"5317011001","district_id":"5317011","name":"KAHALE","postal_code":"87262"},{"id":"5317011002","district_id":"5317011","name":"PANENGGO EDE","postal_code":"87262"},{"id":"5317011003","district_id":"5317011","name":"WAI KARARA","postal_code":"97795"},{"id":"5317011004","district_id":"5317011","name":"WAILANGIRA","postal_code":"87262"},{"id":"5317011005","district_id":"5317011","name":"WAI HA","postal_code":"55663"},{"id":"5317011006","district_id":"5317011","name":"WAINYAPU","postal_code":"87262"},{"id":"5317011007","district_id":"5317011","name":"KARANG INDAH","postal_code":"72275"},{"id":"5317011008","district_id":"5317011","name":"RADA MALANDO","postal_code":"87262"},{"id":"5317011009","district_id":"5317011","name":"WAIMARINGI","postal_code":"87262"},{"id":"5317011010","district_id":"5317011","name":"TANA METE","postal_code":"87262"},{"id":"5317011011","district_id":"5317011","name":"WAIMAKAHA","postal_code":"87262"},{"id":"5317011012","district_id":"5317011","name":"MANU TOGHI","postal_code":"87262"},{"id":"5317011013","district_id":"5317011","name":"LOKO TALI","postal_code":"87257"},{"id":"5317011014","district_id":"5317011","name":"WAIPAKOLO","postal_code":"87262"}]