[{"id":"5317070001","district_id":"5317070","name":"WANO TALLA","postal_code":"87252"},{"id":"5317070002","district_id":"5317070","name":"WEE PABOBA","postal_code":"87252"},{"id":"5317070003","district_id":"5317070","name":"MATALOKO","postal_code":"87252"},{"id":"5317070004","district_id":"5317070","name":"PUU POTTO","postal_code":"87252"},{"id":"5317070005","district_id":"5317070","name":"WEE NAMBA","postal_code":"87252"},{"id":"5317070006","district_id":"5317070","name":"MALI MADA","postal_code":"87252"},{"id":"5317070007","district_id":"5317070","name":"MAWO MALITI","postal_code":"95854"},{"id":"5317070008","district_id":"5317070","name":"JELA MANU","postal_code":"59382"},{"id":"5317070009","district_id":"5317070","name":"BODO PONDA","postal_code":"87271"},{"id":"5317070010","district_id":"5317070","name":"PANDUA TANA","postal_code":"74184"},{"id":"5317070011","district_id":"5317070","name":"ODI PAURATA","postal_code":"98455"},{"id":"5317070012","district_id":"5317070","name":"REDA WANO","postal_code":"87253"}]