[{"id":"5317010007","district_id":"5317010","name":"UMBU NGEDO","postal_code":"87262"},{"id":"5317010008","district_id":"5317010","name":"WALLA NDIMU","postal_code":"87262"},{"id":"5317010009","district_id":"5317010","name":"MATA KAPORE","postal_code":"87262"},{"id":"5317010010","district_id":"5317010","name":"WAI KADADA","postal_code":"97795"},{"id":"5317010011","district_id":"5317010","name":"LETE LOKO","postal_code":"87262"},{"id":"5317010012","district_id":"5317010","name":"DINJO","postal_code":"87262"},{"id":"5317010013","district_id":"5317010","name":"RADA LOKO","postal_code":"87262"},{"id":"5317010014","district_id":"5317010","name":"WAIPADDI","postal_code":"87262"},{"id":"5317010015","district_id":"5317010","name":"DELU DEPA","postal_code":"87262"},{"id":"5317010016","district_id":"5317010","name":"MERAKEHE","postal_code":"67352"},{"id":"5317010017","district_id":"5317010","name":"WAIKANINYO","postal_code":"87262"},{"id":"5317010018","district_id":"5317010","name":"ANA GOGKA","postal_code":"87262"},{"id":"5317010019","district_id":"5317010","name":"MALITI BONDO ATE","postal_code":"87217"},{"id":"5317010020","district_id":"5317010","name":"ANA LEWE","postal_code":"87262"},{"id":"5317010021","district_id":"5317010","name":"BONDO BALLA","postal_code":"59453"}]