[{"id":"5317030001","district_id":"5317030","name":"HOHA WUNGO","postal_code":"87261"},{"id":"5317030002","district_id":"5317030","name":"HOMBA KARIPIT","postal_code":"87261"},{"id":"5317030003","district_id":"5317030","name":"WAILA BUBUR","postal_code":"97756"},{"id":"5317030004","district_id":"5317030","name":"NOHA","postal_code":"87261"},{"id":"5317030005","district_id":"5317030","name":"WAI HOLO","postal_code":"55663"},{"id":"5317030006","district_id":"5317030","name":"KORI","postal_code":"87261"},{"id":"5317030007","district_id":"5317030","name":"KALENA RONGO","postal_code":"87261"},{"id":"5317030008","district_id":"5317030","name":"MANGGA NIPI","postal_code":"93616"},{"id":"5317030009","district_id":"5317030","name":"KENDU WELA","postal_code":"81112"},{"id":"5317030010","district_id":"5317030","name":"BILA CENGE","postal_code":"87261"},{"id":"5317030011","district_id":"5317030","name":"BUKAMBERO","postal_code":"87261"},{"id":"5317030013","district_id":"5317030","name":"WAITARU","postal_code":"87261"},{"id":"5317030014","district_id":"5317030","name":"HOMBA PARE","postal_code":"87261"},{"id":"5317030015","district_id":"5317030","name":"KADAGHU TANA","postal_code":"87261"},{"id":"5317030016","district_id":"5317030","name":"HAMELI ATE","postal_code":"87261"},{"id":"5317030017","district_id":"5317030","name":"KADU ETA","postal_code":"87261"},{"id":"5317030018","district_id":"5317030","name":"MAGHO LINYO","postal_code":"87261"},{"id":"5317030019","district_id":"5317030","name":"WEE WELLA","postal_code":"87261"},{"id":"5317030020","district_id":"5317030","name":"NANGGA MUTU","postal_code":"99569"},{"id":"5317030021","district_id":"5317030","name":"LIMBU KEMBE","postal_code":"91452"},{"id":"5317030022","district_id":"5317030","name":"MORO MANDUYO","postal_code":"60178"}]