[{"id":"5317020001","district_id":"5317020","name":"KAPAKA MADETA","postal_code":"87261"},{"id":"5317020002","district_id":"5317020","name":"KOKI","postal_code":"87261"},{"id":"5317020003","district_id":"5317020","name":"HAMONGGO LELE","postal_code":"87261"},{"id":"5317020004","district_id":"5317020","name":"BONDO KODI","postal_code":"87261"},{"id":"5317020005","district_id":"5317020","name":"PERO BATANG","postal_code":"87261"},{"id":"5317020006","district_id":"5317020","name":"WURA HOMBA","postal_code":"87261"},{"id":"5317020007","district_id":"5317020","name":"ATE DALO","postal_code":"87261"},{"id":"5317020008","district_id":"5317020","name":"HOMBA RANDE","postal_code":"87261"},{"id":"5317020009","district_id":"5317020","name":"KAWANGO HARI","postal_code":"87261"},{"id":"5317020010","district_id":"5317020","name":"MALI IHA","postal_code":"87261"},{"id":"5317020011","district_id":"5317020","name":"ONGGOL","postal_code":"87261"},{"id":"5317020012","district_id":"5317020","name":"PERO KONDA","postal_code":"87261"},{"id":"5317020013","district_id":"5317020","name":"TANJUNG KAROSO","postal_code":"87261"},{"id":"5317020014","district_id":"5317020","name":"WATU WONA","postal_code":"87261"},{"id":"5317020015","district_id":"5317020","name":"ANA ENGGE","postal_code":"23891"},{"id":"5317020016","district_id":"5317020","name":"KADOKI HORO","postal_code":"57552"},{"id":"5317020017","district_id":"5317020","name":"HOMBA RICA","postal_code":"87261"},{"id":"5317020018","district_id":"5317020","name":"ANA KAKA","postal_code":"87262"},{"id":"5317020019","district_id":"5317020","name":"OLE ATE","postal_code":"87258"}]