[{"id":"5318030002","district_id":"5318030","name":"PODENURA","postal_code":"86464"},{"id":"5318030003","district_id":"5318030","name":"TONGGO","postal_code":"86464"},{"id":"5318030004","district_id":"5318030","name":"RITI","postal_code":"86464"},{"id":"5318030007","district_id":"5318030","name":"WOKODEKORORO","postal_code":"86464"},{"id":"5318030008","district_id":"5318030","name":"DEGALEA","postal_code":"86464"},{"id":"5318030009","district_id":"5318030","name":"KOTAKEO","postal_code":"86464"},{"id":"5318030010","district_id":"5318030","name":"PAGOMOGO","postal_code":"86464"},{"id":"5318030011","district_id":"5318030","name":"NANGARORO","postal_code":"86464"},{"id":"5318030012","district_id":"5318030","name":"NATAUTE","postal_code":"86464"},{"id":"5318030013","district_id":"5318030","name":"UTETOTO","postal_code":"86464"},{"id":"5318030014","district_id":"5318030","name":"BIDOA","postal_code":"86464"},{"id":"5318030016","district_id":"5318030","name":"WOEDOA","postal_code":"86464"},{"id":"5318030018","district_id":"5318030","name":"WOEWUTU","postal_code":"86464"},{"id":"5318030019","district_id":"5318030","name":"WOKOWOE","postal_code":"86464"},{"id":"5318030020","district_id":"5318030","name":"KOTAKEO I","postal_code":"86464"},{"id":"5318030021","district_id":"5318030","name":"KOTAKEO II","postal_code":"86464"},{"id":"5318030022","district_id":"5318030","name":"ODAUTE","postal_code":"98263"}]