[{"id":"5318020001","district_id":"5318020","name":"MBAENUAMURI","postal_code":"86464"},{"id":"5318020002","district_id":"5318020","name":"WITUROMBAUA","postal_code":"86464"},{"id":"5318020003","district_id":"5318020","name":"KOTAWUJI TIMUR","postal_code":"86464"},{"id":"5318020004","district_id":"5318020","name":"KOTAWUJI BARAT","postal_code":"86464"},{"id":"5318020005","district_id":"5318020","name":"UDIWOROWATU","postal_code":"86464"},{"id":"5318020006","district_id":"5318020","name":"PAUTOLA","postal_code":"86464"},{"id":"5318020007","district_id":"5318020","name":"LADOLIMA","postal_code":"86464"},{"id":"5318020008","district_id":"5318020","name":"KOTADIRUMALI","postal_code":"86464"},{"id":"5318020009","district_id":"5318020","name":"KELI","postal_code":"86464"},{"id":"5318020010","district_id":"5318020","name":"LEWANGERA","postal_code":"86464"},{"id":"5318020011","district_id":"5318020","name":"WAJO","postal_code":"86464"},{"id":"5318020012","district_id":"5318020","name":"NGERA","postal_code":"86464"},{"id":"5318020013","district_id":"5318020","name":"LADOLIMA TIMUR","postal_code":"86464"},{"id":"5318020014","district_id":"5318020","name":"LADOLIMA UTARA","postal_code":"86464"},{"id":"5318020015","district_id":"5318020","name":"PAUMALI","postal_code":"86464"},{"id":"5318020016","district_id":"5318020","name":"WAJO TIMUR","postal_code":"86464"}]