[{"id":"5319050001","district_id":"5319050","name":"GOLO LOBOS","postal_code":"86583"},{"id":"5319050002","district_id":"5319050","name":"BANGKA KULENG","postal_code":"86583"},{"id":"5319050003","district_id":"5319050","name":"MANDO SAWU","postal_code":"86583"},{"id":"5319050004","district_id":"5319050","name":"BANGKA PAU","postal_code":"86583"},{"id":"5319050005","district_id":"5319050","name":"NGGALAK LELENG","postal_code":"86583"},{"id":"5319050006","district_id":"5319050","name":"GOLO NDERU","postal_code":"86572"},{"id":"5319050007","district_id":"5319050","name":"POCOLIA","postal_code":"63264"},{"id":"5319050016","district_id":"5319050","name":"GURUNG TURI","postal_code":"86583"},{"id":"5319050017","district_id":"5319050","name":"COMPANG LAHO","postal_code":"86583"},{"id":"5319050018","district_id":"5319050","name":"BEA WAEK","postal_code":"86583"},{"id":"5319050019","district_id":"5319050","name":"SATAR TESEM","postal_code":"86583"},{"id":"5319050020","district_id":"5319050","name":"LENANG","postal_code":"87283"},{"id":"5319050021","district_id":"5319050","name":"POCONG","postal_code":"86583"},{"id":"5319050025","district_id":"5319050","name":"WATU LANUR","postal_code":"86583"},{"id":"5319050026","district_id":"5319050","name":"LEONG","postal_code":"86583"},{"id":"5319050027","district_id":"5319050","name":"MELO","postal_code":"86583"},{"id":"5319050028","district_id":"5319050","name":"GOLO NDARI","postal_code":"86583"},{"id":"5319050029","district_id":"5319050","name":"COMPANG WESANG","postal_code":"86583"},{"id":"5319050030","district_id":"5319050","name":"BANGKA LELENG","postal_code":"86583"},{"id":"5319050031","district_id":"5319050","name":"LENTO","postal_code":"86583"},{"id":"5319050036","district_id":"5319050","name":"GOLO RENGKET","postal_code":"86583"},{"id":"5319050037","district_id":"5319050","name":"GOLO WUNE","postal_code":"86583"},{"id":"5319050038","district_id":"5319050","name":"DENO","postal_code":"86583"},{"id":"5319050041","district_id":"5319050","name":"COMPANG WELUK","postal_code":"86583"}]