[{"id":"6101060001","district_id":"6101060","name":"TELUK KASEH","postal_code":"79465"},{"id":"6101060002","district_id":"6101060","name":"SENGAWANG","postal_code":"79465"},{"id":"6101060003","district_id":"6101060","name":"SUNGAI BARU","postal_code":"29282"},{"id":"6101060004","district_id":"6101060","name":"BERLIMANG","postal_code":"79465"},{"id":"6101060005","district_id":"6101060","name":"PURINGAN","postal_code":"79465"},{"id":"6101060006","district_id":"6101060","name":"KUBANGGA","postal_code":"79465"},{"id":"6101060007","district_id":"6101060","name":"TAMBATAN","postal_code":"79465"},{"id":"6101060008","district_id":"6101060","name":"LELA","postal_code":"86161"},{"id":"6101060009","district_id":"6101060","name":"SUNGAI KUMPAI","postal_code":"28558"},{"id":"6101060010","district_id":"6101060","name":"SEKURA","postal_code":"79465"},{"id":"6101060011","district_id":"6101060","name":"SEPADU","postal_code":"79453"},{"id":"6101060012","district_id":"6101060","name":"TANJUNG KERACUT","postal_code":"79465"},{"id":"6101060013","district_id":"6101060","name":"SEBAGU","postal_code":"79465"},{"id":"6101060019","district_id":"6101060","name":"KUALA PANGKALAN KERAMAT","postal_code":"79465"},{"id":"6101060020","district_id":"6101060","name":"MEKAR SEKUNTUM","postal_code":"79461"},{"id":"6101060021","district_id":"6101060","name":"TELUK KEMBANG","postal_code":"79465"},{"id":"6101060022","district_id":"6101060","name":"SUNGAI SERABEK","postal_code":"78766"},{"id":"6101060023","district_id":"6101060","name":"PEDADA","postal_code":"79465"},{"id":"6101060024","district_id":"6101060","name":"TRI MANDAYAN","postal_code":"79465"},{"id":"6101060025","district_id":"6101060","name":"SAYANG SEDAYU","postal_code":"79465"},{"id":"6101060026","district_id":"6101060","name":"SAMUSTIDA","postal_code":"79465"},{"id":"6101060027","district_id":"6101060","name":"PIPIT TEJA","postal_code":"79465"},{"id":"6101060035","district_id":"6101060","name":"MULIA","postal_code":"79465"},{"id":"6101060036","district_id":"6101060","name":"MATANG SEGANTAR","postal_code":"79465"},{"id":"6101060037","district_id":"6101060","name":"SABING","postal_code":"99571"}]