[{"id":"6103080001","district_id":"6103080","name":"LADANGAN","postal_code":"79364"},{"id":"6103080002","district_id":"6103080","name":"ONGKOL PADANG","postal_code":"79364"},{"id":"6103080003","district_id":"6103080","name":"TA AS","postal_code":"79364"},{"id":"6103080004","district_id":"6103080","name":"MAMEK","postal_code":"79364"},{"id":"6103080005","district_id":"6103080","name":"ANIK DINGIR","postal_code":"79364"},{"id":"6103080006","district_id":"6103080","name":"SEI LUBANG","postal_code":"20811"},{"id":"6103080007","district_id":"6103080","name":"TOLOK","postal_code":"95693"},{"id":"6103080008","district_id":"6103080","name":"BAGAK","postal_code":"71184"},{"id":"6103080009","district_id":"6103080","name":"DARIT","postal_code":"79364"},{"id":"6103080010","district_id":"6103080","name":"KAYUARA","postal_code":"30711"},{"id":"6103080011","district_id":"6103080","name":"ANSANG","postal_code":"79364"},{"id":"6103080012","district_id":"6103080","name":"ANGKARAS","postal_code":"79364"},{"id":"6103080017","district_id":"6103080","name":"SONGGA","postal_code":"79364"},{"id":"6103080018","district_id":"6103080","name":"LINTAH BETUNG","postal_code":"79364"},{"id":"6103080019","district_id":"6103080","name":"SIDAN","postal_code":"79364"},{"id":"6103080020","district_id":"6103080","name":"BERINANG MAYUN","postal_code":"79364"}]