[{"id":"6103110001","district_id":"6103110","name":"PAREK","postal_code":"74363"},{"id":"6103110003","district_id":"6103110","name":"ENGKADIK PADE","postal_code":"99652"},{"id":"6103110004","district_id":"6103110","name":"SEMUNTIK","postal_code":"79365"},{"id":"6103110005","district_id":"6103110","name":"SEKENDAL","postal_code":"79365"},{"id":"6103110006","district_id":"6103110","name":"SEPANGAH","postal_code":"79365"},{"id":"6103110007","district_id":"6103110","name":"SERIMBU","postal_code":"79365"},{"id":"6103110008","district_id":"6103110","name":"JAMBU TEMBAWANG","postal_code":"79365"},{"id":"6103110009","district_id":"6103110","name":"DANGE AJI","postal_code":"41212"},{"id":"6103110010","district_id":"6103110","name":"BENTIANG MADOMANG","postal_code":"79365"},{"id":"6103110011","district_id":"6103110","name":"TENGON","postal_code":"99574"},{"id":"6103110012","district_id":"6103110","name":"SEMPATUNG LAWEK","postal_code":"79365"},{"id":"6103110013","district_id":"6103110","name":"ENGKANGIN","postal_code":"79365"},{"id":"6103110014","district_id":"6103110","name":"MERAYUH","postal_code":"79365"},{"id":"6103110015","district_id":"6103110","name":"NYARI","postal_code":"79365"},{"id":"6103110016","district_id":"6103110","name":"TEMOYOK","postal_code":"79365"}]