[{"id":"6107140002","district_id":"6107140","name":"MUNGGUK BANTOK","postal_code":"78616"},{"id":"6107140003","district_id":"6107140","name":"TANJUNG PURI","postal_code":"78611"},{"id":"6107140004","district_id":"6107140","name":"BANING KOTA","postal_code":"78612"},{"id":"6107140005","district_id":"6107140","name":"LADANG","postal_code":"78612"},{"id":"6107140006","district_id":"6107140","name":"KAPUAS KANAN HULU","postal_code":"78614"},{"id":"6107140007","district_id":"6107140","name":"KAPUAS KANAN HILIR","postal_code":"78613"},{"id":"6107140008","district_id":"6107140","name":"KAPUAS KIRI HILIR","postal_code":"78615"},{"id":"6107140009","district_id":"6107140","name":"KAPUAS KIRI HULU","postal_code":"78616"},{"id":"6107140010","district_id":"6107140","name":"TELUK KELANSAM","postal_code":"78616"},{"id":"6107140011","district_id":"6107140","name":"SUNGAI ANA","postal_code":"78619"},{"id":"6107140012","district_id":"6107140","name":"MARTI GUNA","postal_code":"99374"},{"id":"6107140013","district_id":"6107140","name":"TANJUNG KELANSAM","postal_code":"78611"},{"id":"6107140014","district_id":"6107140","name":"ANGGAH JAYA","postal_code":"78617"},{"id":"6107140015","district_id":"6107140","name":"LALANG BARU","postal_code":"78617"},{"id":"6107140016","district_id":"6107140","name":"TEBING RAYA","postal_code":"38964"},{"id":"6107140017","district_id":"6107140","name":"MAIL JEMPONG","postal_code":"98854"},{"id":"6107140018","district_id":"6107140","name":"JERORA SATU","postal_code":"57378"},{"id":"6107140019","district_id":"6107140","name":"KEBIAU BARU","postal_code":"62218"},{"id":"6107140020","district_id":"6107140","name":"AKCAYA","postal_code":"78121"},{"id":"6107140021","district_id":"6107140","name":"ALAI","postal_code":"31171"},{"id":"6107140022","district_id":"6107140","name":"ULAK JAYA","postal_code":"30759"},{"id":"6107140023","district_id":"6107140","name":"MENYUMBUNG TENGAH","postal_code":"78871"},{"id":"6107140024","district_id":"6107140","name":"BATU LALAU","postal_code":"71281"},{"id":"6107140025","district_id":"6107140","name":"MEKAR JAYA","postal_code":"34683"},{"id":"6107140026","district_id":"6107140","name":"SENGKUANG","postal_code":"38878"},{"id":"6107140027","district_id":"6107140","name":"RAWA MAMBOK","postal_code":"38121"},{"id":"6107140028","district_id":"6107140","name":"MENGKURAI","postal_code":"79355"},{"id":"6107140029","district_id":"6107140","name":"KEDABANG","postal_code":"78361"}]