[{"id":"6107150001","district_id":"6107150","name":"LUNDANG BARU","postal_code":"78691"},{"id":"6107150002","district_id":"6107150","name":"GANDIS","postal_code":"74152"},{"id":"6107150003","district_id":"6107150","name":"SUNGAI MALI","postal_code":"29273"},{"id":"6107150004","district_id":"6107150","name":"NANGA DEDAI","postal_code":"78691"},{"id":"6107150005","district_id":"6107150","name":"PENYAK LALANG","postal_code":"78691"},{"id":"6107150006","district_id":"6107150","name":"PENGKADAN SUNGAI RUPA","postal_code":"78691"},{"id":"6107150007","district_id":"6107150","name":"KUMPANG","postal_code":"78691"},{"id":"6107150008","district_id":"6107150","name":"BARAS","postal_code":"78691"},{"id":"6107150009","district_id":"6107150","name":"RIGUK","postal_code":"78691"},{"id":"6107150010","district_id":"6107150","name":"PENGKADAN BARU","postal_code":"78691"},{"id":"6107150011","district_id":"6107150","name":"NANGA JETAK","postal_code":"78691"},{"id":"6107150012","district_id":"6107150","name":"TAOK","postal_code":"98653"},{"id":"6107150013","district_id":"6107150","name":"EMPACI","postal_code":"78691"},{"id":"6107150014","district_id":"6107150","name":"MANGAT BARU","postal_code":"78691"},{"id":"6107150015","district_id":"6107150","name":"EMPARU","postal_code":"46113"},{"id":"6107150016","district_id":"6107150","name":"MENAUNG BARU","postal_code":"78757"},{"id":"6107150017","district_id":"6107150","name":"UMIN JAYA","postal_code":"78691"},{"id":"6107150018","district_id":"6107150","name":"MEREMPIT BARU","postal_code":"78691"},{"id":"6107150019","district_id":"6107150","name":"DEDAI KANAN","postal_code":"78691"},{"id":"6107150020","district_id":"6107150","name":"SUNGAI TAPANG","postal_code":"78691"},{"id":"6107150021","district_id":"6107150","name":"GANDIS HULU","postal_code":"74152"},{"id":"6107150022","district_id":"6107150","name":"HULU DEDAI","postal_code":"71282"},{"id":"6107150023","district_id":"6107150","name":"APIN BARU","postal_code":"25652"},{"id":"6107150024","district_id":"6107150","name":"JANGKANG","postal_code":"67287"},{"id":"6107150025","district_id":"6107150","name":"BELINYUK SIBAU","postal_code":"20771"},{"id":"6107150026","district_id":"6107150","name":"MENGKIRAI JAYA","postal_code":"28753"},{"id":"6107150027","district_id":"6107150","name":"TERUSAN","postal_code":"78912"},{"id":"6107150028","district_id":"6107150","name":"TANJUNG","postal_code":"57697"},{"id":"6107150029","district_id":"6107150","name":"BATU LANDUNG","postal_code":"93771"},{"id":"6107150030","district_id":"6107150","name":"SAMAK","postal_code":"97557"},{"id":"6107150031","district_id":"6107150","name":"MANYAM","postal_code":"98481"}]