[{"id":"6108070001","district_id":"6108070","name":"NANGA RAUN","postal_code":"78756"},{"id":"6108070002","district_id":"6108070","name":"BAHENAP","postal_code":"78756"},{"id":"6108070003","district_id":"6108070","name":"NANGA LEBANGAN","postal_code":"78756"},{"id":"6108070004","district_id":"6108070","name":"NANGA SEBINTANG","postal_code":"78756"},{"id":"6108070005","district_id":"6108070","name":"NANGA KALIS","postal_code":"78756"},{"id":"6108070006","district_id":"6108070","name":"NANGA DANAU","postal_code":"78756"},{"id":"6108070007","district_id":"6108070","name":"NANGA TUBUK","postal_code":"78756"},{"id":"6108070008","district_id":"6108070","name":"RANTAU KALIS","postal_code":"78756"},{"id":"6108070009","district_id":"6108070","name":"KENSURAY","postal_code":"78756"},{"id":"6108070010","district_id":"6108070","name":"KALIS RAYA","postal_code":"78756"},{"id":"6108070011","district_id":"6108070","name":"TEKUDAK","postal_code":"78756"},{"id":"6108070012","district_id":"6108070","name":"SEMERANTAU","postal_code":"78756"},{"id":"6108070013","district_id":"6108070","name":"TAPANG DA'AN","postal_code":"78756"},{"id":"6108070014","district_id":"6108070","name":"SEGIAM","postal_code":"78756"},{"id":"6108070015","district_id":"6108070","name":"PAYUNGAN","postal_code":"50229"},{"id":"6108070016","district_id":"6108070","name":"RIBANG KADENG","postal_code":"78756"},{"id":"6108070017","district_id":"6108070","name":"RANTAU BUMBUN","postal_code":"78756"}]