[{"id":"6109040001","district_id":"6109040","name":"PENITI","postal_code":"79516"},{"id":"6109040002","district_id":"6109040","name":"SUNGAI RINGIN","postal_code":"26255"},{"id":"6109040004","district_id":"6109040","name":"GONIS TEKAM","postal_code":"79582"},{"id":"6109040005","district_id":"6109040","name":"ENGKERSIK","postal_code":"79513"},{"id":"6109040006","district_id":"6109040","name":"TAPANG SEMADAK","postal_code":"79513"},{"id":"6109040007","district_id":"6109040","name":"SERARAS","postal_code":"79512"},{"id":"6109040008","district_id":"6109040","name":"MERAPI","postal_code":"79512"},{"id":"6109040009","district_id":"6109040","name":"TANJUNG","postal_code":"57697"},{"id":"6109040010","district_id":"6109040","name":"SEBERANG KAPUAS","postal_code":"79515"},{"id":"6109040011","district_id":"6109040","name":"SUNGAI KUNYIT","postal_code":"27777"},{"id":"6109040012","district_id":"6109040","name":"SEMABI","postal_code":"79515"},{"id":"6109040013","district_id":"6109040","name":"LANDAU KODAH","postal_code":"79514"},{"id":"6109040014","district_id":"6109040","name":"TIMPUK","postal_code":"79514"},{"id":"6109040015","district_id":"6109040","name":"ENSALANG","postal_code":"79516"},{"id":"6109040016","district_id":"6109040","name":"SELALONG","postal_code":"79582"},{"id":"6109040017","district_id":"6109040","name":"BOKAK SEBUMBUN","postal_code":"79582"}]