[{"id":"6109030001","district_id":"6109030","name":"SEKONAU","postal_code":"79583"},{"id":"6109030002","district_id":"6109030","name":"CUPANG GADING","postal_code":"79583"},{"id":"6109030003","district_id":"6109030","name":"NANGA BIABAN","postal_code":"79583"},{"id":"6109030004","district_id":"6109030","name":"MONDI","postal_code":"79583"},{"id":"6109030005","district_id":"6109030","name":"TAPANG PERODAH","postal_code":"79583"},{"id":"6109030006","district_id":"6109030","name":"SUNGAI SAMBANG","postal_code":"33451"},{"id":"6109030007","district_id":"6109030","name":"RAWAK HILIR","postal_code":"79583"},{"id":"6109030008","district_id":"6109030","name":"RAWAK HULU","postal_code":"79583"},{"id":"6109030009","district_id":"6109030","name":"TINTING BOYOK","postal_code":"79583"},{"id":"6109030010","district_id":"6109030","name":"PERONGKAN","postal_code":"79583"},{"id":"6109030011","district_id":"6109030","name":"NANGA MANTERAP","postal_code":"79583"},{"id":"6109030012","district_id":"6109030","name":"BOTI","postal_code":"85575"},{"id":"6109030013","district_id":"6109030","name":"SETAWAR","postal_code":"79583"},{"id":"6109030014","district_id":"6109030","name":"NANGA PEMUBUH","postal_code":"79583"},{"id":"6109030015","district_id":"6109030","name":"SUNSONG","postal_code":"79583"}]