[{"id":"6109020001","district_id":"6109020","name":"NANGA ENGKULUN","postal_code":"79584"},{"id":"6109020002","district_id":"6109020","name":"NANGA KOMAN","postal_code":"79584"},{"id":"6109020003","district_id":"6109020","name":"NANGA MONGKO","postal_code":"79584"},{"id":"6109020004","district_id":"6109020","name":"LUBUK TAJAU","postal_code":"79584"},{"id":"6109020005","district_id":"6109020","name":"PANTOK","postal_code":"79584"},{"id":"6109020006","district_id":"6109020","name":"MERAGUN","postal_code":"79584"},{"id":"6109020007","district_id":"6109020","name":"RIRANG JATI","postal_code":"79584"},{"id":"6109020008","district_id":"6109020","name":"NANGA TAMAN","postal_code":"79584"},{"id":"6109020009","district_id":"6109020","name":"SENANGAK","postal_code":"79584"},{"id":"6109020010","district_id":"6109020","name":"SUNGAI LAWAK","postal_code":"29271"},{"id":"6109020011","district_id":"6109020","name":"NANGA KIUNGKANG","postal_code":"79584"},{"id":"6109020012","district_id":"6109020","name":"TAPANG TINGANG","postal_code":"79584"},{"id":"6109020013","district_id":"6109020","name":"NANGA MENTUKAK","postal_code":"79584"}]