[{"id":"6110030001","district_id":"6110030","name":"MADYA RAYA","postal_code":"79673"},{"id":"6110030002","district_id":"6110030","name":"LANDAU SADAK","postal_code":"79673"},{"id":"6110030003","district_id":"6110030","name":"PEKAWAI","postal_code":"79673"},{"id":"6110030004","district_id":"6110030","name":"MEKAR PELITA","postal_code":"79673"},{"id":"6110030005","district_id":"6110030","name":"NANGA SAYAN","postal_code":"79673"},{"id":"6110030006","district_id":"6110030","name":"KERANGAN PURUN","postal_code":"78759"},{"id":"6110030007","district_id":"6110030","name":"BORA","postal_code":"94364"},{"id":"6110030008","district_id":"6110030","name":"NANGA KOMPI","postal_code":"79673"},{"id":"6110030009","district_id":"6110030","name":"NANGA MANCUR","postal_code":"79673"},{"id":"6110030010","district_id":"6110030","name":"TUMBAK RAYA","postal_code":"79673"},{"id":"6110030011","district_id":"6110030","name":"NANGA RAKU","postal_code":"79673"},{"id":"6110030012","district_id":"6110030","name":"META BERSATU","postal_code":"79673"},{"id":"6110030013","district_id":"6110030","name":"NANGA KASAI","postal_code":"79673"},{"id":"6110030014","district_id":"6110030","name":"SILING PERMAI","postal_code":"79673"},{"id":"6110030015","district_id":"6110030","name":"LINGKAR INDAH","postal_code":"79673"},{"id":"6110030016","district_id":"6110030","name":"SAYAN JAYA","postal_code":"79673"},{"id":"6110030017","district_id":"6110030","name":"NANGA PAK","postal_code":"79673"},{"id":"6110030018","district_id":"6110030","name":"BEROBAI PERMAI","postal_code":"79673"}]