[{"id":"6112080001","district_id":"6112080","name":"DURIAN","postal_code":"20621"},{"id":"6112080002","district_id":"6112080","name":"SIMPANG KANAN","postal_code":"35374"},{"id":"6112080004","district_id":"6112080","name":"BENGKAREK","postal_code":"78393"},{"id":"6112080005","district_id":"6112080","name":"PASAK PIANG","postal_code":"78393"},{"id":"6112080006","district_id":"6112080","name":"PASAK","postal_code":"78393"},{"id":"6112080007","district_id":"6112080","name":"PANCA ROBA","postal_code":"78393"},{"id":"6112080008","district_id":"6112080","name":"LINGGA","postal_code":"21174"},{"id":"6112080009","district_id":"6112080","name":"KOREK","postal_code":"78393"},{"id":"6112080010","district_id":"6112080","name":"JAWA TENGAH","postal_code":"78393"},{"id":"6112080011","district_id":"6112080","name":"AMBAWANG KUALA","postal_code":"70882"},{"id":"6112080012","district_id":"6112080","name":"MEGA TIMUR","postal_code":"78393"},{"id":"6112080013","district_id":"6112080","name":"TELUK BAKUNG","postal_code":"38766"},{"id":"6112080014","district_id":"6112080","name":"AMPERA RAYA","postal_code":"99583"},{"id":"6112080015","district_id":"6112080","name":"SUNGAI MALAYA","postal_code":"29273"}]