[{"id":"6202200001","district_id":"6202200","name":"TEHANG","postal_code":"74355"},{"id":"6202200002","district_id":"6202200","name":"KABUAU","postal_code":"74355"},{"id":"6202200003","district_id":"6202200","name":"PARENGGEAN","postal_code":"74355"},{"id":"6202200004","district_id":"6202200","name":"SARI HARAPAN","postal_code":"74355"},{"id":"6202200005","district_id":"6202200","name":"MEKAR JAYA","postal_code":"34683"},{"id":"6202200006","district_id":"6202200","name":"KARANG TUNGGAL","postal_code":"75572"},{"id":"6202200007","district_id":"6202200","name":"KARANG SARI","postal_code":"35679"},{"id":"6202200008","district_id":"6202200","name":"SUMBER MAKMUR","postal_code":"34682"},{"id":"6202200009","district_id":"6202200","name":"BANDAR AGUNG","postal_code":"34766"},{"id":"6202200010","district_id":"6202200","name":"BARINGIN TUNGGAL JAYA","postal_code":"74355"},{"id":"6202200011","district_id":"6202200","name":"BARUNANG MIRI","postal_code":"74355"},{"id":"6202200021","district_id":"6202200","name":"BAJARAU","postal_code":"74355"},{"id":"6202200024","district_id":"6202200","name":"BUKIT HARAPAN","postal_code":"34767"},{"id":"6202200025","district_id":"6202200","name":"MENJALIN","postal_code":"79362"},{"id":"6202200026","district_id":"6202200","name":"KARYA BERSAMA","postal_code":"74871"}]