[{"id":"6202211001","district_id":"6202211","name":"TUMBANG TILAP","postal_code":"74356"},{"id":"6202211002","district_id":"6202211","name":"TUMBANG KAMINTING","postal_code":"74356"},{"id":"6202211003","district_id":"6202211","name":"TANAH HALUAN","postal_code":"74356"},{"id":"6202211004","district_id":"6202211","name":"TUMBANG PENYAHUAN","postal_code":"74356"},{"id":"6202211005","district_id":"6202211","name":"TUMBANG SAPIA","postal_code":"74356"},{"id":"6202211006","district_id":"6202211","name":"TUMBANG GETAS","postal_code":"74356"},{"id":"6202211007","district_id":"6202211","name":"TUMBANG TURUNG","postal_code":"73981"},{"id":"6202211008","district_id":"6202211","name":"TUMBANG BATU","postal_code":"74356"},{"id":"6202211009","district_id":"6202211","name":"LUNUK BAGANTUNG","postal_code":"74356"},{"id":"6202211010","district_id":"6202211","name":"TUMBANG TAWAN","postal_code":"74356"},{"id":"6202211011","district_id":"6202211","name":"TUMBANG SALUANG","postal_code":"74356"},{"id":"6202211012","district_id":"6202211","name":"TEWEI HARA","postal_code":"74356"},{"id":"6202211013","district_id":"6202211","name":"TUMBANG PAYANG","postal_code":"74356"},{"id":"6202211014","district_id":"6202211","name":"TUMBANG KANIA","postal_code":"74356"}]