[{"id":"6202210001","district_id":"6202210","name":"TANGAR","postal_code":"74356"},{"id":"6202210002","district_id":"6202210","name":"BAAMPAH","postal_code":"74356"},{"id":"6202210003","district_id":"6202210","name":"KAWAN BATU","postal_code":"74356"},{"id":"6202210004","district_id":"6202210","name":"TANJUNG BATUR","postal_code":"74356"},{"id":"6202210005","district_id":"6202210","name":"PENDA DURIAN","postal_code":"74356"},{"id":"6202210006","district_id":"6202210","name":"PAHIRANGAN","postal_code":"74356"},{"id":"6202210007","district_id":"6202210","name":"SATIONG","postal_code":"74356"},{"id":"6202210008","district_id":"6202210","name":"SANTILIK","postal_code":"74356"},{"id":"6202210009","district_id":"6202210","name":"TANGKA ROBAH","postal_code":"74356"},{"id":"6202210010","district_id":"6202210","name":"PEMANTANG","postal_code":"74356"},{"id":"6202210011","district_id":"6202210","name":"TUMBANG SAPIRI","postal_code":"74356"},{"id":"6202210012","district_id":"6202210","name":"KUALA KUAYAN","postal_code":"74356"},{"id":"6202210014","district_id":"6202210","name":"BAWAN","postal_code":"24782"},{"id":"6202210015","district_id":"6202210","name":"TANJUNG JARIANGAU","postal_code":"74356"},{"id":"6202210031","district_id":"6202210","name":"KAPUK","postal_code":"30653"},{"id":"6202210032","district_id":"6202210","name":"PANTAP","postal_code":"94652"}]