[{"id":"6203100001","district_id":"6203100","name":"PALINGKAU BARU","postal_code":"73593"},{"id":"6203100002","district_id":"6203100","name":"PALINGKAU JAYA","postal_code":"73593"},{"id":"6203100003","district_id":"6203100","name":"PALINGKAU LAMA","postal_code":"73593"},{"id":"6203100004","district_id":"6203100","name":"PALINGKAU ASRI","postal_code":"73593"},{"id":"6203100005","district_id":"6203100","name":"PALINGKAU SEJAHTERA","postal_code":"73593"},{"id":"6203100006","district_id":"6203100","name":"TAJEPAN","postal_code":"73593"},{"id":"6203100007","district_id":"6203100","name":"MAMPAI","postal_code":"73593"},{"id":"6203100008","district_id":"6203100","name":"MUARA DADAHUP","postal_code":"73593"},{"id":"6203100014","district_id":"6203100","name":"SAKA BINJAI","postal_code":"73593"},{"id":"6203100024","district_id":"6203100","name":"BUMI RAHAYU","postal_code":"73593"},{"id":"6203100025","district_id":"6203100","name":"MANGGALA PERMAI","postal_code":"79672"},{"id":"6203100026","district_id":"6203100","name":"BELAWANG","postal_code":"73593"},{"id":"6203100027","district_id":"6203100","name":"SUKA REJA","postal_code":"73593"},{"id":"6203100028","district_id":"6203100","name":"SUKA MUKTI","postal_code":"30681"},{"id":"6203100029","district_id":"6203100","name":"PALANGKAU LAMA","postal_code":"73593"},{"id":"6203100030","district_id":"6203100","name":"BINA SEJAHTERA","postal_code":"73593"},{"id":"6203100031","district_id":"6203100","name":"PALANGKAU BARU","postal_code":"73593"},{"id":"6203100032","district_id":"6203100","name":"BINA KARYA","postal_code":"31658"},{"id":"6203100033","district_id":"6203100","name":"BINA MEKAR","postal_code":"73593"},{"id":"6203100034","district_id":"6203100","name":"RAWA SUBUR","postal_code":"73593"},{"id":"6203100035","district_id":"6203100","name":"SUMBER MULYA","postal_code":"30681"},{"id":"6203100036","district_id":"6203100","name":"KARYA BERSAMA","postal_code":"74871"},{"id":"6203100037","district_id":"6203100","name":"TALEKUNG PUNAI","postal_code":"73593"}]