[{"id":"6203150001","district_id":"6203150","name":"MANUSUP","postal_code":"73553"},{"id":"6203150002","district_id":"6203150","name":"LAMUNTI PERMAI","postal_code":"73553"},{"id":"6203150003","district_id":"6203150","name":"HARAPAN JAYA","postal_code":"98261"},{"id":"6203150004","district_id":"6203150","name":"SARI MAKMUR","postal_code":"79465"},{"id":"6203150005","district_id":"6203150","name":"SEI KAPAR","postal_code":"28555"},{"id":"6203150006","district_id":"6203150","name":"TARANTANG","postal_code":"25234"},{"id":"6203150007","district_id":"6203150","name":"LAMUNTI","postal_code":"73553"},{"id":"6203150008","district_id":"6203150","name":"MANYAHI","postal_code":"73553"},{"id":"6203150009","district_id":"6203150","name":"WARGA MULYA","postal_code":"30758"},{"id":"6203150010","district_id":"6203150","name":"SEKATA BANGUN","postal_code":"73553"},{"id":"6203150011","district_id":"6203150","name":"SUKA MAJU","postal_code":"37553"},{"id":"6203150013","district_id":"6203150","name":"PULAU KALADAN","postal_code":"73553"},{"id":"6203150014","district_id":"6203150","name":"SEKATA MAKMUR","postal_code":"73553"},{"id":"6203150015","district_id":"6203150","name":"KALADAN JAYA","postal_code":"73553"},{"id":"6203150016","district_id":"6203150","name":"LAMUNTI BARU","postal_code":"73553"},{"id":"6203150017","district_id":"6203150","name":"SRIWIDADI","postal_code":"57141"},{"id":"6203150018","district_id":"6203150","name":"SUMBER MAKMUR","postal_code":"34682"},{"id":"6203150019","district_id":"6203150","name":"MANTANGAI HILIR","postal_code":"73553"},{"id":"6203150020","district_id":"6203150","name":"RANTAU JAYA","postal_code":"34766"},{"id":"6203150021","district_id":"6203150","name":"SIDOMULYO","postal_code":"66262"},{"id":"6203150022","district_id":"6203150","name":"MANTANGAI TENGAH","postal_code":"73553"},{"id":"6203150023","district_id":"6203150","name":"MANTANGAI HULU","postal_code":"73553"},{"id":"6203150024","district_id":"6203150","name":"KALUMPANG","postal_code":"97722"},{"id":"6203150025","district_id":"6203150","name":"SEI AHAS","postal_code":"20117"},{"id":"6203150026","district_id":"6203150","name":"KATUNJUNG","postal_code":"73553"},{"id":"6203150027","district_id":"6203150","name":"LAHEI MANGKUTUP","postal_code":"73553"},{"id":"6203150028","district_id":"6203150","name":"TUMBANG MUROI","postal_code":"73553"},{"id":"6203150029","district_id":"6203150","name":"DANAU RAWAH","postal_code":"32279"},{"id":"6203150030","district_id":"6203150","name":"KATIMPUN","postal_code":"73553"},{"id":"6203150031","district_id":"6203150","name":"MANUSUP HILIR","postal_code":"73553"},{"id":"6203150032","district_id":"6203150","name":"MUROI RAYA","postal_code":"73553"},{"id":"6203150033","district_id":"6203150","name":"HUMBANG RAYA","postal_code":"73553"},{"id":"6203150034","district_id":"6203150","name":"TABORE","postal_code":"73553"},{"id":"6203150035","district_id":"6203150","name":"SEI GITA","postal_code":"73553"},{"id":"6203150036","district_id":"6203150","name":"BUKIT BATU","postal_code":"79114"},{"id":"6203150037","district_id":"6203150","name":"SEI GAWING","postal_code":"73553"},{"id":"6203150038","district_id":"6203150","name":"TUMBANG MANGKUTUP","postal_code":"73553"},{"id":"6203150039","district_id":"6203150","name":"LAPETAN","postal_code":"95854"}]