[{"id":"6203170001","district_id":"6203170","name":"MASARAN","postal_code":"66351"},{"id":"6203170002","district_id":"6203170","name":"KAYU BULAN","postal_code":"73555"},{"id":"6203170003","district_id":"6203170","name":"KOTA BARU","postal_code":"34769"},{"id":"6203170004","district_id":"6203170","name":"PENDA MUNTEI","postal_code":"73555"},{"id":"6203170005","district_id":"6203170","name":"TAPEN","postal_code":"54263"},{"id":"6203170006","district_id":"6203170","name":"PUJON","postal_code":"73555"},{"id":"6203170007","district_id":"6203170","name":"MARAPIT","postal_code":"22867"},{"id":"6203170008","district_id":"6203170","name":"MANIS","postal_code":"73555"},{"id":"6203170009","district_id":"6203170","name":"BAJUH","postal_code":"73555"},{"id":"6203170011","district_id":"6203170","name":"KARUKUS","postal_code":"73555"},{"id":"6203170018","district_id":"6203170","name":"BARUNANG","postal_code":"73555"},{"id":"6203170019","district_id":"6203170","name":"BUHUT JAYA","postal_code":"73555"}]