[{"id":"6203041001","district_id":"6203041","name":"TERUSAN RAYA HULU","postal_code":"73516"},{"id":"6203041002","district_id":"6203041","name":"TERUSAN MULYA","postal_code":"73516"},{"id":"6203041003","district_id":"6203041","name":"TERUSAN KARYA","postal_code":"73516"},{"id":"6203041004","district_id":"6203041","name":"TERUSAN MAKMUR","postal_code":"73516"},{"id":"6203041005","district_id":"6203041","name":"TERUSAN RAYA BARAT","postal_code":"73516"},{"id":"6203041006","district_id":"6203041","name":"TERUSAN BAGUNTAN RAYA","postal_code":"73516"},{"id":"6203041007","district_id":"6203041","name":"TERUSAN RAYA","postal_code":"73516"},{"id":"6203041008","district_id":"6203041","name":"BAMBAN RAYA","postal_code":"73516"},{"id":"6203041009","district_id":"6203041","name":"SEI JANGKIT","postal_code":"73516"},{"id":"6203041010","district_id":"6203041","name":"TAMBAN LUAR","postal_code":"73516"},{"id":"6203041011","district_id":"6203041","name":"BANGUN HARJO","postal_code":"32361"},{"id":"6203041012","district_id":"6203041","name":"PULAU KUPANG","postal_code":"73511"},{"id":"6203041013","district_id":"6203041","name":"SEI LUNUK","postal_code":"21381"},{"id":"6203041014","district_id":"6203041","name":"PULAU MAMBULAU","postal_code":"73516"},{"id":"6203041015","district_id":"6203041","name":"BUDI MUFAKAT","postal_code":"73516"}]