[{"id":"6205040001","district_id":"6205040","name":"LIJU","postal_code":"73881"},{"id":"6205040002","district_id":"6205040","name":"SAMPIRANG I","postal_code":"73881"},{"id":"6205040003","district_id":"6205040","name":"SAMPIRANG II","postal_code":"73881"},{"id":"6205040004","district_id":"6205040","name":"BENANGIN 3","postal_code":"29873"},{"id":"6205040005","district_id":"6205040","name":"BENANGIN 2","postal_code":"29873"},{"id":"6205040006","district_id":"6205040","name":"BENANGIN I","postal_code":"29873"},{"id":"6205040007","district_id":"6205040","name":"BENANGIN 5","postal_code":"29873"},{"id":"6205040008","district_id":"6205040","name":"MUARA WAKAT","postal_code":"73881"},{"id":"6205040012","district_id":"6205040","name":"MAMPUAK I","postal_code":"73881"},{"id":"6205040013","district_id":"6205040","name":"JAMUT","postal_code":"73881"},{"id":"6205040014","district_id":"6205040","name":"SEI LIJU","postal_code":"21381"},{"id":"6205040015","district_id":"6205040","name":"MAMPUAK II","postal_code":"73881"}]