[{"id":"6209070001","district_id":"6209070","name":"TEWANG PAPARI","postal_code":"74453"},{"id":"6209070002","district_id":"6209070","name":"TEWANG DARAYU","postal_code":"74452"},{"id":"6209070003","district_id":"6209070","name":"BUNTUT BALI","postal_code":"74453"},{"id":"6209070004","district_id":"6209070","name":"KULUK BALI","postal_code":"74453"},{"id":"6209070005","district_id":"6209070","name":"MANDUING TAHETA","postal_code":"74453"},{"id":"6209070006","district_id":"6209070","name":"MANDUING LAMA","postal_code":"74453"},{"id":"6209070007","district_id":"6209070","name":"TUMBANG BANJANG","postal_code":"74453"},{"id":"6209070008","district_id":"6209070","name":"TUMBANG LAWANG","postal_code":"74453"},{"id":"6209070009","district_id":"6209070","name":"DAHIAN TUNGGAL","postal_code":"74453"},{"id":"6209070010","district_id":"6209070","name":"TEWANG KARANGAN","postal_code":"74453"},{"id":"6209070011","district_id":"6209070","name":"TUMBANG TUNGKU","postal_code":"74453"},{"id":"6209070012","district_id":"6209070","name":"GERAGU","postal_code":"74453"},{"id":"6209070013","district_id":"6209070","name":"TUMBANG TANJUNG","postal_code":"74453"},{"id":"6209070014","district_id":"6209070","name":"TURA","postal_code":"74453"}]