[{"id":"6209110001","district_id":"6209110","name":"RANGAN RANJING","postal_code":"74457"},{"id":"6209110002","district_id":"6209110","name":"TUMBANG LABANING","postal_code":"74457"},{"id":"6209110003","district_id":"6209110","name":"BATU BANGO","postal_code":"74457"},{"id":"6209110004","district_id":"6209110","name":"PENDA TANGARING LAMA","postal_code":"74457"},{"id":"6209110005","district_id":"6209110","name":"PENDA TANGARING BARU","postal_code":"74457"},{"id":"6209110006","district_id":"6209110","name":"TUMBANG HANGEI II","postal_code":"74457"},{"id":"6209110007","district_id":"6209110","name":"TUMBANG JIGA","postal_code":"74457"},{"id":"6209110008","district_id":"6209110","name":"TUMBANG SENAMANG","postal_code":"74356"},{"id":"6209110009","district_id":"6209110","name":"TUMBANG KABAYAN","postal_code":"73981"},{"id":"6209110010","district_id":"6209110","name":"TUMBANG MANGKETAI","postal_code":"74457"},{"id":"6209110011","district_id":"6209110","name":"TUMBANG MANANGEI","postal_code":"74457"},{"id":"6209110012","district_id":"6209110","name":"TUMBANG SABETUNG","postal_code":"74457"},{"id":"6209110013","district_id":"6209110","name":"TUMBANG MAHOP","postal_code":"74291"},{"id":"6209110014","district_id":"6209110","name":"SEI NANJAN","postal_code":"21381"},{"id":"6209110016","district_id":"6209110","name":"RANTAU BAHAI","postal_code":"74457"},{"id":"6209110018","district_id":"6209110","name":"RANTAU PUKA","postal_code":"74457"},{"id":"6209110020","district_id":"6209110","name":"TELOK TAMPANG","postal_code":"74457"},{"id":"6209110023","district_id":"6209110","name":"TUMBANG SALAMAN","postal_code":"74457"},{"id":"6209110025","district_id":"6209110","name":"TUMBANG KUAI","postal_code":"74457"},{"id":"6209110027","district_id":"6209110","name":"KULUK SAPANGI","postal_code":"74456"},{"id":"6209110029","district_id":"6209110","name":"DEHES ASEM","postal_code":"74457"},{"id":"6209110031","district_id":"6209110","name":"RANGAN KAWIT","postal_code":"74457"},{"id":"6209110033","district_id":"6209110","name":"KIHAM BATANG","postal_code":"74457"}]