[{"id":"6210030001","district_id":"6210030","name":"GANDANG","postal_code":"74873"},{"id":"6210030002","district_id":"6210030","name":"GARANTUNG","postal_code":"74873"},{"id":"6210030003","district_id":"6210030","name":"MALIKU BARU","postal_code":"74873"},{"id":"6210030004","district_id":"6210030","name":"BADIRIH","postal_code":"74873"},{"id":"6210030005","district_id":"6210030","name":"TAHAI JAYA","postal_code":"74873"},{"id":"6210030006","district_id":"6210030","name":"TAHAI BARU","postal_code":"74873"},{"id":"6210030007","district_id":"6210030","name":"KANAMIT","postal_code":"74873"},{"id":"6210030008","district_id":"6210030","name":"PURWODADI","postal_code":"56261"},{"id":"6210030009","district_id":"6210030","name":"WONO AGUNG","postal_code":"34596"},{"id":"6210030010","district_id":"6210030","name":"KANAMIT BARAT","postal_code":"74873"},{"id":"6210030011","district_id":"6210030","name":"SEI BARU TEWU","postal_code":"21473"},{"id":"6210030012","district_id":"6210030","name":"SIDODADI","postal_code":"34595"},{"id":"6210030013","district_id":"6210030","name":"KANAMIT JAYA","postal_code":"74873"},{"id":"6210030014","district_id":"6210030","name":"GANDANG BARAT","postal_code":"74873"},{"id":"6210030015","district_id":"6210030","name":"MALIKU MULYA","postal_code":"74873"}]