[{"id":"6213020001","district_id":"6213020","name":"DIRUNG","postal_code":"73911"},{"id":"6213020002","district_id":"6213020","name":"MALASAN","postal_code":"66381"},{"id":"6213020003","district_id":"6213020","name":"BATU PUTIH","postal_code":"84455"},{"id":"6213020004","district_id":"6213020","name":"MANGKAHUI","postal_code":"73911"},{"id":"6213020005","district_id":"6213020","name":"PANU'UT","postal_code":"35376"},{"id":"6213020006","district_id":"6213020","name":"MUARA UNTU","postal_code":"73911"},{"id":"6213020007","district_id":"6213020","name":"MUARA JAAN","postal_code":"73911"},{"id":"6213020008","district_id":"6213020","name":"BAHITOM","postal_code":"94752"},{"id":"6213020009","district_id":"6213020","name":"DANAU USUNG","postal_code":"73911"},{"id":"6213020010","district_id":"6213020","name":"JUKING PAJANG","postal_code":"30671"},{"id":"6213020011","district_id":"6213020","name":"BERIWIT","postal_code":"73911"},{"id":"6213020012","district_id":"6213020","name":"PURUK CAHU","postal_code":"73911"},{"id":"6213020013","district_id":"6213020","name":"MUARA SUMPOI","postal_code":"73911"},{"id":"6213020014","district_id":"6213020","name":"MUARA BUMBAN","postal_code":"36613"},{"id":"6213020015","district_id":"6213020","name":"PENYANG","postal_code":"73911"}]