[{"id":"6302060007","district_id":"6302060","name":"MEGASARI","postal_code":"99562"},{"id":"6302060008","district_id":"6302060","name":"SEBELIMBINGAN","postal_code":"75561"},{"id":"6302060009","district_id":"6302060","name":"GUNUNG SARI","postal_code":"34767"},{"id":"6302060010","district_id":"6302060","name":"STAGEN","postal_code":"72114"},{"id":"6302060011","district_id":"6302060","name":"GUNUNG ULIN","postal_code":"72114"},{"id":"6302060012","district_id":"6302060","name":"SUNGAI TAIB","postal_code":"37356"},{"id":"6302060013","district_id":"6302060","name":"SEMAYAP","postal_code":"72117"},{"id":"6302060014","district_id":"6302060","name":"DIRGAHAYU","postal_code":"46156"},{"id":"6302060015","district_id":"6302060","name":"BAHARU SELATAN","postal_code":"72115"},{"id":"6302060016","district_id":"6302060","name":"KOTABARU HULU","postal_code":"72114"},{"id":"6302060017","district_id":"6302060","name":"RAMPA","postal_code":"22611"},{"id":"6302060018","district_id":"6302060","name":"SEBATUNG","postal_code":"72113"},{"id":"6302060019","district_id":"6302060","name":"KOTABARU TENGAH","postal_code":"72113"},{"id":"6302060020","district_id":"6302060","name":"KOTABARU HILIR","postal_code":"72111"},{"id":"6302060021","district_id":"6302060","name":"HILIR MUARA","postal_code":"72111"},{"id":"6302060022","district_id":"6302060","name":"BATUAH","postal_code":"72273"},{"id":"6302060023","district_id":"6302060","name":"BAHARU UTARA","postal_code":"72112"},{"id":"6302060024","district_id":"6302060","name":"TIRAWAN","postal_code":"72112"},{"id":"6302060025","district_id":"6302060","name":"GEDAMBAAN","postal_code":"72114"},{"id":"6302060026","district_id":"6302060","name":"SARANG TIUNG","postal_code":"72114"},{"id":"6302060027","district_id":"6302060","name":"SIGAM","postal_code":"31171"}]