[{"id":"6302040001","district_id":"6302040","name":"TANJUNG PENGHARAPAN","postal_code":"72152"},{"id":"6302040002","district_id":"6302040","name":"BATU TUNAU","postal_code":"72152"},{"id":"6302040003","district_id":"6302040","name":"SEJAKAH","postal_code":"72152"},{"id":"6302040004","district_id":"6302040","name":"BEKAMBIT","postal_code":"72152"},{"id":"6302040005","district_id":"6302040","name":"BEKAMBIT ASRI","postal_code":"72152"},{"id":"6302040007","district_id":"6302040","name":"LANGKANG BARU","postal_code":"72152"},{"id":"6302040008","district_id":"6302040","name":"KARANG SARI INDAH","postal_code":"72272"},{"id":"6302040009","district_id":"6302040","name":"SUNGAI LIMAU","postal_code":"28763"},{"id":"6302040010","district_id":"6302040","name":"LANGKANG LAMA","postal_code":"72152"},{"id":"6302040011","district_id":"6302040","name":"KULIPAK","postal_code":"72152"},{"id":"6302040012","district_id":"6302040","name":"BERANGAS","postal_code":"72152"},{"id":"6302040013","district_id":"6302040","name":"TELUK MESJID","postal_code":"28662"},{"id":"6302040014","district_id":"6302040","name":"TELUK GOSONG","postal_code":"72152"}]