[{"id":"6303050001","district_id":"6303050","name":"CINDAI ALUS","postal_code":"70612"},{"id":"6303050002","district_id":"6303050","name":"SUNGAI SIPAI","postal_code":"78693"},{"id":"6303050003","district_id":"6303050","name":"SUNGAI PARING","postal_code":"36554"},{"id":"6303050004","district_id":"6303050","name":"JAWA","postal_code":"75122"},{"id":"6303050005","district_id":"6303050","name":"TANJUNG REMA DARAT","postal_code":"70613"},{"id":"6303050006","district_id":"6303050","name":"INDRA SARI","postal_code":"70619"},{"id":"6303050007","district_id":"6303050","name":"LABUAN TABU","postal_code":"70619"},{"id":"6303050008","district_id":"6303050","name":"BINCAU","postal_code":"70619"},{"id":"6303050009","district_id":"6303050","name":"TAMBAK BARU","postal_code":"70619"},{"id":"6303050010","district_id":"6303050","name":"BINCAU MUARA","postal_code":"70619"},{"id":"6303050011","district_id":"6303050","name":"TUNGGUL IRANG","postal_code":"70615"},{"id":"6303050012","district_id":"6303050","name":"TUNGGUL IRANG ULU","postal_code":"70615"},{"id":"6303050013","district_id":"6303050","name":"TANJUNG REMA","postal_code":"70613"},{"id":"6303050014","district_id":"6303050","name":"JAWA LAUT","postal_code":"70615"},{"id":"6303050015","district_id":"6303050","name":"TUNGGUL IRANG ILIR","postal_code":"70615"},{"id":"6303050016","district_id":"6303050","name":"MURUNG KERATON","postal_code":"70616"},{"id":"6303050017","district_id":"6303050","name":"KERATON","postal_code":"45152"},{"id":"6303050018","district_id":"6303050","name":"PASAYANGAN UTARA","postal_code":"70619"},{"id":"6303050019","district_id":"6303050","name":"PASAYANGAN SELATAN","postal_code":"70619"},{"id":"6303050020","district_id":"6303050","name":"PASAYANGAN BARAT","postal_code":"70619"},{"id":"6303050021","district_id":"6303050","name":"PESAYANGAN","postal_code":"52193"},{"id":"6303050023","district_id":"6303050","name":"MURUNG KENANGA","postal_code":"70617"},{"id":"6303050027","district_id":"6303050","name":"TAMBAK BARU ILIR","postal_code":"70619"},{"id":"6303050028","district_id":"6303050","name":"TAMBAK BARU ULU","postal_code":"70619"},{"id":"6303050037","district_id":"6303050","name":"TUNGKARAN","postal_code":"70815"}]