[{"id":"6303030014","district_id":"6303030","name":"TATAH PEMANGKIH LAUT","postal_code":"70582"},{"id":"6303030015","district_id":"6303030","name":"TATAH BELAYUNG BARU","postal_code":"70654"},{"id":"6303030016","district_id":"6303030","name":"PASAR KEMIS","postal_code":"15560"},{"id":"6303030017","district_id":"6303030","name":"BANUA HANYAR","postal_code":"71114"},{"id":"6303030018","district_id":"6303030","name":"MEKAR RAYA","postal_code":"78854"},{"id":"6303030019","district_id":"6303030","name":"SUNGAI LAKUM","postal_code":"29661"},{"id":"6303030020","district_id":"6303030","name":"MANDAR SARI","postal_code":"70654"},{"id":"6303030021","district_id":"6303030","name":"MANARAP BARU","postal_code":"70654"},{"id":"6303030022","district_id":"6303030","name":"MANARAP TENGAH","postal_code":"70654"},{"id":"6303030023","district_id":"6303030","name":"MANARAP LAMA","postal_code":"70654"},{"id":"6303030024","district_id":"6303030","name":"SIMPANG EMPAT","postal_code":"20995"},{"id":"6303030025","district_id":"6303030","name":"KERTAK HANYAR II","postal_code":"70654"},{"id":"6303030026","district_id":"6303030","name":"KERTAK HANYAR I","postal_code":"70654"}]