[{"id":"6304020001","district_id":"6304020","name":"SEKATA BARU","postal_code":"70566"},{"id":"6304020002","district_id":"6304020","name":"DAMSARI","postal_code":"70566"},{"id":"6304020003","district_id":"6304020","name":"PURWOSARI II","postal_code":"70566"},{"id":"6304020004","district_id":"6304020","name":"SIDOREJO","postal_code":"56361"},{"id":"6304020005","district_id":"6304020","name":"KOANDA","postal_code":"70566"},{"id":"6304020006","district_id":"6304020","name":"PURWOSARI BARU","postal_code":"70566"},{"id":"6304020007","district_id":"6304020","name":"TAMBAN SARI BARU","postal_code":"70566"},{"id":"6304020008","district_id":"6304020","name":"PURWOSARI I","postal_code":"70566"},{"id":"6304020009","district_id":"6304020","name":"TAMBAN BANGUN","postal_code":"70566"},{"id":"6304020010","district_id":"6304020","name":"TAMBAN BANGUN BARU","postal_code":"70566"},{"id":"6304020011","district_id":"6304020","name":"TAMBAN MUARA BARU","postal_code":"70566"},{"id":"6304020012","district_id":"6304020","name":"TAMBAN MUARA","postal_code":"70566"},{"id":"6304020013","district_id":"6304020","name":"TAMBAN KECIL","postal_code":"70566"},{"id":"6304020014","district_id":"6304020","name":"TINGGIRAN II","postal_code":"70568"},{"id":"6304020015","district_id":"6304020","name":"JELAPAT I","postal_code":"70566"},{"id":"6304020016","district_id":"6304020","name":"JELAPAT BARU","postal_code":"70566"}]