[{"id":"6304090001","district_id":"6304090","name":"TUMIH","postal_code":"70562"},{"id":"6304090002","district_id":"6304090","name":"ROHAM RAYA","postal_code":"70562"},{"id":"6304090003","district_id":"6304090","name":"BELAWANG KOLAM KIRI","postal_code":"73593"},{"id":"6304090004","district_id":"6304090","name":"BABAT RAYA","postal_code":"70562"},{"id":"6304090005","district_id":"6304090","name":"BELAWANG KOLAM KANAN","postal_code":"73593"},{"id":"6304090006","district_id":"6304090","name":"SIDO MULYO","postal_code":"52462"},{"id":"6304090007","district_id":"6304090","name":"KOLAM MAKMUR","postal_code":"70562"},{"id":"6304090008","district_id":"6304090","name":"SIMPANG JAYA","postal_code":"23661"},{"id":"6304090009","district_id":"6304090","name":"WARINGIN KENCANA","postal_code":"70562"},{"id":"6304090010","district_id":"6304090","name":"PINANG HABANG","postal_code":"71419"},{"id":"6304090011","district_id":"6304090","name":"SURYA KANTA","postal_code":"70562"},{"id":"6304090012","district_id":"6304090","name":"SUMBER RAHAYU","postal_code":"32383"},{"id":"6304090013","district_id":"6304090","name":"DWI PASARI","postal_code":"70562"}]