[{"id":"6307090003","district_id":"6307090","name":"SUMANGGI","postal_code":"71391"},{"id":"6307090007","district_id":"6307090","name":"ILUNG PASAR LAMA","postal_code":"71391"},{"id":"6307090009","district_id":"6307090","name":"DANGU","postal_code":"71391"},{"id":"6307090011","district_id":"6307090","name":"HAPINGIN","postal_code":"71391"},{"id":"6307090012","district_id":"6307090","name":"ILUNG","postal_code":"71391"},{"id":"6307090013","district_id":"6307090","name":"ILUNG TENGAH","postal_code":"71391"},{"id":"6307090014","district_id":"6307090","name":"SUMANGGI SEBERANG","postal_code":"71391"},{"id":"6307090016","district_id":"6307090","name":"AWANG BARU","postal_code":"71391"},{"id":"6307090018","district_id":"6307090","name":"AWANG","postal_code":"71391"},{"id":"6307090019","district_id":"6307090","name":"MARINGGIT","postal_code":"71391"},{"id":"6307090020","district_id":"6307090","name":"LABUNGANAK","postal_code":"71391"},{"id":"6307090033","district_id":"6307090","name":"MUARA RINTIS","postal_code":"71391"},{"id":"6307090035","district_id":"6307090","name":"TELANG","postal_code":"30756"},{"id":"6307090036","district_id":"6307090","name":"HAUR GADING","postal_code":"71471"}]