[{"id":"6307060002","district_id":"6307060","name":"PANGGANG MARAK","postal_code":"71361"},{"id":"6307060004","district_id":"6307060","name":"MUNDAR","postal_code":"71361"},{"id":"6307060007","district_id":"6307060","name":"TABUDARAT HILIR","postal_code":"71361"},{"id":"6307060008","district_id":"6307060","name":"BARU","postal_code":"99582"},{"id":"6307060010","district_id":"6307060","name":"JAMIL","postal_code":"71361"},{"id":"6307060011","district_id":"6307060","name":"TABUDARAT HULU","postal_code":"71361"},{"id":"6307060013","district_id":"6307060","name":"PANTAI HAMBAWANG BARAT","postal_code":"71361"},{"id":"6307060014","district_id":"6307060","name":"PANTAI HAMBAWANG TIMUR","postal_code":"71361"},{"id":"6307060017","district_id":"6307060","name":"BENUA KEPAYANG","postal_code":"71361"},{"id":"6307060019","district_id":"6307060","name":"SUNGAI JARANIH","postal_code":"27365"},{"id":"6307060021","district_id":"6307060","name":"BATANG BAHALANG","postal_code":"71361"},{"id":"6307060022","district_id":"6307060","name":"TAAL","postal_code":"71361"},{"id":"6307060024","district_id":"6307060","name":"MURUNG TAAL","postal_code":"71361"},{"id":"6307060027","district_id":"6307060","name":"SUNGAI RANGAS","postal_code":"30862"},{"id":"6307060029","district_id":"6307060","name":"DURIAN GANTANG","postal_code":"71361"},{"id":"6307060032","district_id":"6307060","name":"GUHA","postal_code":"74863"},{"id":"6307060033","district_id":"6307060","name":"BANGKAL","postal_code":"69417"},{"id":"6307060035","district_id":"6307060","name":"TARAS PADANG","postal_code":"71361"}]