[{"id":"6307050002","district_id":"6307050","name":"PAJUKUNGAN","postal_code":"71315"},{"id":"6307050004","district_id":"6307050","name":"BUKAT","postal_code":"71315"},{"id":"6307050005","district_id":"6307050","name":"BARABAI BARAT","postal_code":"71314"},{"id":"6307050006","district_id":"6307050","name":"BARABAI UTARA","postal_code":"71313"},{"id":"6307050007","district_id":"6307050","name":"BARABAI SELATAN","postal_code":"71311"},{"id":"6307050008","district_id":"6307050","name":"BARABAI DARAT","postal_code":"71315"},{"id":"6307050009","district_id":"6307050","name":"BENAWA TENGAH","postal_code":"71315"},{"id":"6307050010","district_id":"6307050","name":"KAYU BAWANG","postal_code":"71315"},{"id":"6307050013","district_id":"6307050","name":"AWANG BESAR","postal_code":"71315"},{"id":"6307050014","district_id":"6307050","name":"GAMBAH","postal_code":"71315"},{"id":"6307050016","district_id":"6307050","name":"MANDINGIN","postal_code":"71315"},{"id":"6307050018","district_id":"6307050","name":"BARABAI TIMUR","postal_code":"71312"},{"id":"6307050020","district_id":"6307050","name":"BANUA BINJAI","postal_code":"71315"},{"id":"6307050021","district_id":"6307050","name":"BANUA BUDI","postal_code":"71315"},{"id":"6307050023","district_id":"6307050","name":"BABAI","postal_code":"71315"},{"id":"6307050025","district_id":"6307050","name":"BANUA JINGAH","postal_code":"71315"},{"id":"6307050028","district_id":"6307050","name":"BAKAPAS","postal_code":"71315"},{"id":"6307050029","district_id":"6307050","name":"AYUANG","postal_code":"71315"}]