[{"id":"6308031001","district_id":"6308031","name":"TAMBALANG RAYA","postal_code":"71455"},{"id":"6308031002","district_id":"6308031","name":"RANTAU BUJUR HILIR","postal_code":"71455"},{"id":"6308031003","district_id":"6308031","name":"TELUK CATI","postal_code":"71455"},{"id":"6308031004","district_id":"6308031","name":"GALAGAH","postal_code":"71455"},{"id":"6308031005","district_id":"6308031","name":"GALAGAH HULU","postal_code":"71455"},{"id":"6308031006","district_id":"6308031","name":"NELAYAN","postal_code":"71455"},{"id":"6308031007","district_id":"6308031","name":"SUNGAI TABUKAN","postal_code":"37356"},{"id":"6308031008","district_id":"6308031","name":"PEMATANG BENTENG","postal_code":"29354"},{"id":"6308031009","district_id":"6308031","name":"PEMATANG BENTENG HILIR","postal_code":"71455"},{"id":"6308031010","district_id":"6308031","name":"PASAR SABTU","postal_code":"71455"},{"id":"6308031011","district_id":"6308031","name":"HILIR MESJID","postal_code":"71455"},{"id":"6308031012","district_id":"6308031","name":"GAMPA RAYA","postal_code":"71455"},{"id":"6308031013","district_id":"6308031","name":"BANUA HANYAR","postal_code":"71114"},{"id":"6308031014","district_id":"6308031","name":"SUNGAI HAJI","postal_code":"37262"},{"id":"6308031015","district_id":"6308031","name":"RANTAU BUJUR HULU","postal_code":"71455"},{"id":"6308031016","district_id":"6308031","name":"RANTAU BUJUR TENGAH","postal_code":"71455"},{"id":"6308031017","district_id":"6308031","name":"RANTAU BUJUR DARAT","postal_code":"71455"}]