[{"id":"6310030001","district_id":"6310030","name":"SUNGAI CUKA","postal_code":"28755"},{"id":"6310030002","district_id":"6310030","name":"SEJAHTERA MULIA","postal_code":"78764"},{"id":"6310030003","district_id":"6310030","name":"JOMBANG","postal_code":"15414"},{"id":"6310030004","district_id":"6310030","name":"SUNGAI DANAU","postal_code":"29256"},{"id":"6310030005","district_id":"6310030","name":"SATUI TIMUR","postal_code":"72275"},{"id":"6310030007","district_id":"6310030","name":"SATUI BARAT","postal_code":"72275"},{"id":"6310030008","district_id":"6310030","name":"SETARAP","postal_code":"72275"},{"id":"6310030016","district_id":"6310030","name":"TEGAL SARI","postal_code":"72275"},{"id":"6310030017","district_id":"6310030","name":"SEKAPUK","postal_code":"72275"},{"id":"6310030018","district_id":"6310030","name":"SUMBER MAKMUR","postal_code":"34682"},{"id":"6310030019","district_id":"6310030","name":"WONO REJO","postal_code":"34595"},{"id":"6310030020","district_id":"6310030","name":"SUMBER ARUM","postal_code":"72275"},{"id":"6310030021","district_id":"6310030","name":"MAKMUR MULIA","postal_code":"70673"},{"id":"6310030022","district_id":"6310030","name":"AL KAUTSAR","postal_code":"72275"},{"id":"6310030025","district_id":"6310030","name":"SINAR BULAN","postal_code":"72275"},{"id":"6310030026","district_id":"6310030","name":"PENDAMARAN JAYA","postal_code":"78871"}]