[{"id":"6310010002","district_id":"6310010","name":"PULAU SALAK","postal_code":"72273"},{"id":"6310010003","district_id":"6310010","name":"BERINGIN","postal_code":"72273"},{"id":"6310010004","district_id":"6310010","name":"BARU GELANG","postal_code":"72273"},{"id":"6310010005","district_id":"6310010","name":"SEI LEMBU","postal_code":"30119"},{"id":"6310010007","district_id":"6310010","name":"WIRITASI","postal_code":"72273"},{"id":"6310010008","district_id":"6310010","name":"BATUAH","postal_code":"72273"},{"id":"6310010009","district_id":"6310010","name":"PAGAR RUYUNG","postal_code":"72273"},{"id":"6310010010","district_id":"6310010","name":"PASAR BARU","postal_code":"20627"},{"id":"6310010011","district_id":"6310010","name":"JUKU EJA","postal_code":"72273"},{"id":"6310010012","district_id":"6310010","name":"PEJALA","postal_code":"72273"},{"id":"6310010013","district_id":"6310010","name":"KOTA PAGATAN","postal_code":"72273"},{"id":"6310010014","district_id":"6310010","name":"PULAU SATU","postal_code":"72273"},{"id":"6310010015","district_id":"6310010","name":"KAMPUNG BARU","postal_code":"34765"},{"id":"6310010016","district_id":"6310010","name":"PENYOLONGAN","postal_code":"72273"},{"id":"6310010017","district_id":"6310010","name":"TANETTE","postal_code":"72273"},{"id":"6310010018","district_id":"6310010","name":"MUARA PAGATAN TENGAH","postal_code":"72273"},{"id":"6310010019","district_id":"6310010","name":"MUARA PAGATAN","postal_code":"72273"},{"id":"6310010021","district_id":"6310010","name":"API API","postal_code":"76284"},{"id":"6310010022","district_id":"6310010","name":"RANTAU PANJANG HILIR","postal_code":"72273"},{"id":"6310010023","district_id":"6310010","name":"PAKATELLU","postal_code":"72273"},{"id":"6310010024","district_id":"6310010","name":"RANTAU PANJANG HULU","postal_code":"72273"},{"id":"6310010025","district_id":"6310010","name":"MUDALANG","postal_code":"72273"},{"id":"6310010026","district_id":"6310010","name":"MANURUNG","postal_code":"90984"},{"id":"6310010027","district_id":"6310010","name":"BATARANG","postal_code":"72273"},{"id":"6310010028","district_id":"6310010","name":"MEKAR JAYA","postal_code":"34683"},{"id":"6310010029","district_id":"6310010","name":"PULAU TANJUNG","postal_code":"72273"},{"id":"6310010030","district_id":"6310010","name":"SALIMURAN","postal_code":"72273"},{"id":"6310010031","district_id":"6310010","name":"UPT. KARYA BHAKTI","postal_code":"39265"},{"id":"6310010032","district_id":"6310010","name":"SATIUNG","postal_code":"72273"},{"id":"6310010033","district_id":"6310010","name":"SARING SEI BINJAI","postal_code":"22161"},{"id":"6310010034","district_id":"6310010","name":"SARING SEI BUBU","postal_code":"22161"},{"id":"6310010035","district_id":"6310010","name":"SERDANGAN","postal_code":"72273"}]