[{"id":"6310053001","district_id":"6310053","name":"MANTEWE","postal_code":"72211"},{"id":"6310053002","district_id":"6310053","name":"MAJU MULYO","postal_code":"72211"},{"id":"6310053003","district_id":"6310053","name":"SIDOMULYO","postal_code":"66262"},{"id":"6310053004","district_id":"6310053","name":"SARI MULYA","postal_code":"72274"},{"id":"6310053005","district_id":"6310053","name":"BULU REJO","postal_code":"72211"},{"id":"6310053006","district_id":"6310053","name":"SUKADAMAI","postal_code":"36552"},{"id":"6310053007","district_id":"6310053","name":"SEPAKAT","postal_code":"72211"},{"id":"6310053008","district_id":"6310053","name":"DUKUH REJO","postal_code":"72211"},{"id":"6310053009","district_id":"6310053","name":"REJOSARI","postal_code":"56372"},{"id":"6310053010","district_id":"6310053","name":"EMIL BARU","postal_code":"72211"},{"id":"6310053011","district_id":"6310053","name":"MANTAWAKAN MULIA","postal_code":"94765"},{"id":"6310053013","district_id":"6310053","name":"GUNUNG RAYA","postal_code":"72211"}]