[{"id":"6311060001","district_id":"6311060","name":"BINUANG SANTANG","postal_code":"71666"},{"id":"6311060002","district_id":"6311060","name":"MARAJAI","postal_code":"71666"},{"id":"6311060003","district_id":"6311060","name":"MAUYA","postal_code":"71666"},{"id":"6311060004","district_id":"6311060","name":"MANTUYAN","postal_code":"71666"},{"id":"6311060005","district_id":"6311060","name":"TABUAN","postal_code":"71666"},{"id":"6311060006","district_id":"6311060","name":"BUNTUT PILANDUK","postal_code":"71666"},{"id":"6311060008","district_id":"6311060","name":"MAMANTANG","postal_code":"71666"},{"id":"6311060009","district_id":"6311060","name":"KAPUL","postal_code":"71666"},{"id":"6311060010","district_id":"6311060","name":"HALONG","postal_code":"71572"},{"id":"6311060011","district_id":"6311060","name":"BINJAI PUNGGAL","postal_code":"71666"},{"id":"6311060012","district_id":"6311060","name":"BARUH PANYAMBARAN","postal_code":"71666"},{"id":"6311060013","district_id":"6311060","name":"BINJU","postal_code":"71666"},{"id":"6311060014","district_id":"6311060","name":"BANGKAL","postal_code":"69417"},{"id":"6311060015","district_id":"6311060","name":"SURYATAMA","postal_code":"71666"},{"id":"6311060016","district_id":"6311060","name":"HA'UWAI","postal_code":"85682"},{"id":"6311060017","district_id":"6311060","name":"KARYA","postal_code":"21314"},{"id":"6311060019","district_id":"6311060","name":"GUNUNG RIUT","postal_code":"71666"},{"id":"6311060020","district_id":"6311060","name":"LIYU","postal_code":"71666"},{"id":"6311060021","district_id":"6311060","name":"ANIUNGAN","postal_code":"71666"},{"id":"6311060022","district_id":"6311060","name":"MAMIGANG","postal_code":"71666"},{"id":"6311060023","district_id":"6311060","name":"PADANG RAYA","postal_code":"34874"},{"id":"6311060024","district_id":"6311060","name":"SUMBER AGUNG","postal_code":"34595"}]