[{"id":"6311020001","district_id":"6311020","name":"GUNUNG MANAU","postal_code":"71663"},{"id":"6311020002","district_id":"6311020","name":"TARIWIN","postal_code":"71663"},{"id":"6311020003","district_id":"6311020","name":"LOK BATU","postal_code":"71572"},{"id":"6311020004","district_id":"6311020","name":"BAKUNG","postal_code":"15550"},{"id":"6311020005","district_id":"6311020","name":"KARUH","postal_code":"71663"},{"id":"6311020007","district_id":"6311020","name":"PELAJAU","postal_code":"30953"},{"id":"6311020008","district_id":"6311020","name":"KASAI","postal_code":"31357"},{"id":"6311020009","district_id":"6311020","name":"HAMPARAYA","postal_code":"71663"},{"id":"6311020010","district_id":"6311020","name":"TIMBUN TULANG","postal_code":"71663"},{"id":"6311020011","district_id":"6311020","name":"TELUK MESJID","postal_code":"28662"},{"id":"6311020012","district_id":"6311020","name":"BATU MANDI","postal_code":"94773"},{"id":"6311020014","district_id":"6311020","name":"RIWA","postal_code":"71663"},{"id":"6311020015","district_id":"6311020","name":"GUHA","postal_code":"74863"},{"id":"6311020016","district_id":"6311020","name":"MANTIMIN","postal_code":"71663"},{"id":"6311020017","district_id":"6311020","name":"BANUA HANYAR","postal_code":"71114"},{"id":"6311020018","district_id":"6311020","name":"MAMPARI","postal_code":"71663"}]