[{"id":"6402041001","district_id":"6402041","name":"LENDIAN LIANG NAYUK","postal_code":"94354"},{"id":"6402041002","district_id":"6402041","name":"KENDISIQ","postal_code":"75774"},{"id":"6402041003","district_id":"6402041","name":"PENAWANG","postal_code":"75774"},{"id":"6402041004","district_id":"6402041","name":"RIKONG","postal_code":"75774"},{"id":"6402041005","district_id":"6402041","name":"KIAQ","postal_code":"75774"},{"id":"6402041006","district_id":"6402041","name":"TENDIQ","postal_code":"75774"},{"id":"6402041007","district_id":"6402041","name":"KENYANYAN","postal_code":"75774"},{"id":"6402041009","district_id":"6402041","name":"BENTAS","postal_code":"75774"},{"id":"6402041010","district_id":"6402041","name":"MUARA KELAWIT","postal_code":"75774"},{"id":"6402041012","district_id":"6402041","name":"SANSANG","postal_code":"92231"},{"id":"6402041013","district_id":"6402041","name":"KALIQ","postal_code":"75774"},{"id":"6402041014","district_id":"6402041","name":"TANA MEA","postal_code":"87283"},{"id":"6402041015","district_id":"6402041","name":"TEBISAQ","postal_code":"75774"},{"id":"6402041016","district_id":"6402041","name":"MUARA PONAQ","postal_code":"75774"}]