[{"id":"6402020001","district_id":"6402020","name":"PENTAT","postal_code":"75773"},{"id":"6402020002","district_id":"6402020","name":"BEKOKONG MAKMUR","postal_code":"98763"},{"id":"6402020003","district_id":"6402020","name":"PULAI LANTING","postal_code":"30756"},{"id":"6402020004","district_id":"6402020","name":"TANJUNG JAN","postal_code":"75773"},{"id":"6402020005","district_id":"6402020","name":"TANJUNG ISUY","postal_code":"75773"},{"id":"6402020006","district_id":"6402020","name":"MUARA NAYAN","postal_code":"75773"},{"id":"6402020007","district_id":"6402020","name":"LEMBONAH","postal_code":"75773"},{"id":"6402020008","district_id":"6402020","name":"MANCONG","postal_code":"75773"},{"id":"6402020009","district_id":"6402020","name":"PERIGIQ","postal_code":"75773"},{"id":"6402020010","district_id":"6402020","name":"TANJUNG JONE","postal_code":"75773"},{"id":"6402020011","district_id":"6402020","name":"MUARA OHONG","postal_code":"75773"},{"id":"6402020012","district_id":"6402020","name":"MUARA TAE","postal_code":"75773"}]