[{"id":"6402082001","district_id":"6402082","name":"GADUR","postal_code":"75765"},{"id":"6402082002","district_id":"6402082","name":"SAKAQ TADA","postal_code":"75765"},{"id":"6402082004","district_id":"6402082","name":"SAKAQ LOTOQ","postal_code":"75765"},{"id":"6402082005","district_id":"6402082","name":"KARANGAN","postal_code":"34763"},{"id":"6402082006","district_id":"6402082","name":"KELUMPANG","postal_code":"32157"},{"id":"6402082007","district_id":"6402082","name":"MERAYAQ","postal_code":"75765"},{"id":"6402082008","district_id":"6402082","name":"LINGGANG MARIMUN","postal_code":"75765"},{"id":"6402082009","district_id":"6402082","name":"MUARA BATUQ","postal_code":"75765"},{"id":"6402082010","district_id":"6402082","name":"GUNUNG RAMPAH","postal_code":"75765"},{"id":"6402082011","district_id":"6402082","name":"RAMBAYAN","postal_code":"79465"},{"id":"6402082012","district_id":"6402082","name":"MUARA JAWAQ","postal_code":"75774"},{"id":"6402082013","district_id":"6402082","name":"ABIT","postal_code":"75774"},{"id":"6402082014","district_id":"6402082","name":"JENGAN","postal_code":"75765"},{"id":"6402082015","district_id":"6402082","name":"MUARA KALAQ","postal_code":"75765"},{"id":"6402082016","district_id":"6402082","name":"TONDOH","postal_code":"94354"}]