[{"id":"6402070001","district_id":"6402070","name":"ENGKUNI PASEK","postal_code":"75776"},{"id":"6402070002","district_id":"6402070","name":"MENCIMAI","postal_code":"75776"},{"id":"6402070003","district_id":"6402070","name":"REJO BASUKI","postal_code":"34155"},{"id":"6402070004","district_id":"6402070","name":"SUMBER SARI","postal_code":"34766"},{"id":"6402070005","district_id":"6402070","name":"BARONG TONGKOK","postal_code":"75776"},{"id":"6402070006","district_id":"6402070","name":"PEPAS EHENG","postal_code":"75776"},{"id":"6402070008","district_id":"6402070","name":"JUHAN ASA","postal_code":"75776"},{"id":"6402070009","district_id":"6402070","name":"ASA","postal_code":"75776"},{"id":"6402070010","district_id":"6402070","name":"JUAQ ASA","postal_code":"75776"},{"id":"6402070011","district_id":"6402070","name":"OMBAU ASA","postal_code":"75776"},{"id":"6402070012","district_id":"6402070","name":"NGENYAN ASA","postal_code":"75776"},{"id":"6402070013","district_id":"6402070","name":"GEMUHAN ASA","postal_code":"75776"},{"id":"6402070014","district_id":"6402070","name":"GELEO BARU","postal_code":"75776"},{"id":"6402070015","district_id":"6402070","name":"GELEO ASA","postal_code":"75776"},{"id":"6402070016","district_id":"6402070","name":"ONGKO ASA","postal_code":"75776"},{"id":"6402070017","district_id":"6402070","name":"PEPAS ASA","postal_code":"73861"},{"id":"6402070024","district_id":"6402070","name":"MUARA ASA","postal_code":"75776"},{"id":"6402070025","district_id":"6402070","name":"SENDAWAR","postal_code":"38875"},{"id":"6402070026","district_id":"6402070","name":"BALOK ASA","postal_code":"75776"},{"id":"6402070027","district_id":"6402070","name":"SIMPANG RAYA","postal_code":"75776"},{"id":"6402070028","district_id":"6402070","name":"BELEMPUNG ULAQ","postal_code":"75776"}]