[{"id":"6402091001","district_id":"6402091","name":"PURWOREJO","postal_code":"57615"},{"id":"6402091002","district_id":"6402091","name":"KELUBAQ","postal_code":"75766"},{"id":"6402091003","district_id":"6402091","name":"TERING SEBERANG","postal_code":"75766"},{"id":"6402091004","district_id":"6402091","name":"TERING LAMA","postal_code":"75766"},{"id":"6402091005","district_id":"6402091","name":"TERING BARU","postal_code":"75766"},{"id":"6402091009","district_id":"6402091","name":"MUARA MUJAN","postal_code":"75766"},{"id":"6402091010","district_id":"6402091","name":"KALIAN DALAM","postal_code":"72169"},{"id":"6402091011","district_id":"6402091","name":"MUYUP ILIR","postal_code":"75766"},{"id":"6402091012","district_id":"6402091","name":"MUYUT AKET","postal_code":"75766"},{"id":"6402091013","district_id":"6402091","name":"GABUNG BARU","postal_code":"99561"},{"id":"6402091014","district_id":"6402091","name":"BANJAREJO","postal_code":"66293"},{"id":"6402091015","district_id":"6402091","name":"TERING LAMA ULU","postal_code":"75766"}]