[{"id":"6403150001","district_id":"6403150","name":"BENUA PUHUN","postal_code":"75553"},{"id":"6403150002","district_id":"6403150","name":"TERATAK","postal_code":"83552"},{"id":"6403150003","district_id":"6403150","name":"BUNGA JADI","postal_code":"75553"},{"id":"6403150004","district_id":"6403150","name":"PANCA JAYA","postal_code":"74281"},{"id":"6403150005","district_id":"6403150","name":"SIDO MUKTI","postal_code":"34595"},{"id":"6403150006","district_id":"6403150","name":"SABINTULUNG","postal_code":"75553"},{"id":"6403150007","district_id":"6403150","name":"RANTAU HEMPANG","postal_code":"75553"},{"id":"6403150009","district_id":"6403150","name":"MUARA KAMAN ILIR","postal_code":"75553"},{"id":"6403150010","district_id":"6403150","name":"MUARA KAMAN ULU","postal_code":"75553"},{"id":"6403150011","district_id":"6403150","name":"TUNJUNGAN","postal_code":"54172"},{"id":"6403150012","district_id":"6403150","name":"MUARA SIRAN","postal_code":"75553"},{"id":"6403150013","district_id":"6403150","name":"SEDULANG","postal_code":"75553"},{"id":"6403150014","district_id":"6403150","name":"MENAMANG KIRI","postal_code":"75553"},{"id":"6403150015","district_id":"6403150","name":"MENAMANG KANAN","postal_code":"75553"},{"id":"6403150016","district_id":"6403150","name":"LEBAHO ULAQ","postal_code":"75553"},{"id":"6403150017","district_id":"6403150","name":"KUPANG BARU","postal_code":"75553"},{"id":"6403150018","district_id":"6403150","name":"PUAN CEPAK","postal_code":"75553"},{"id":"6403150019","district_id":"6403150","name":"BUKIT JERING","postal_code":"75553"},{"id":"6403150020","district_id":"6403150","name":"LIANG BUAYA","postal_code":"75553"},{"id":"6403150021","district_id":"6403150","name":"CIPARI MAKMUR","postal_code":"75553"}]