[{"id":"6409010001","district_id":"6409010","name":"GUNUNG MAKMUR","postal_code":"70861"},{"id":"6409010002","district_id":"6409010","name":"GUNUNG INTAN","postal_code":"76285"},{"id":"6409010003","district_id":"6409010","name":"SUMBER SARI","postal_code":"34766"},{"id":"6409010004","district_id":"6409010","name":"SRI RAHARJA","postal_code":"76285"},{"id":"6409010005","district_id":"6409010","name":"RAWA MULIA","postal_code":"76285"},{"id":"6409010006","district_id":"6409010","name":"SEBAKUNG JAYA","postal_code":"76285"},{"id":"6409010007","district_id":"6409010","name":"BABULU LAUT","postal_code":"76285"},{"id":"6409010008","district_id":"6409010","name":"BABULU DARAT","postal_code":"76285"},{"id":"6409010009","district_id":"6409010","name":"LABANGKA","postal_code":"84383"},{"id":"6409010010","district_id":"6409010","name":"RINTIK","postal_code":"76285"},{"id":"6409010011","district_id":"6409010","name":"GUNUNG MULIA","postal_code":"76285"},{"id":"6409010012","district_id":"6409010","name":"LABANGKA BARAT","postal_code":"76285"}]