[{"id":"6502090001","district_id":"6502090","name":"UJANG","postal_code":"77263"},{"id":"6502090002","district_id":"6502090","name":"TENGGILING","postal_code":"77263"},{"id":"6502090003","district_id":"6502090","name":"TERINDAK","postal_code":"77263"},{"id":"6502090004","district_id":"6502090","name":"PUNGIT","postal_code":"77263"},{"id":"6502090005","district_id":"6502090","name":"SEKATAK BENGARA","postal_code":"77263"},{"id":"6502090006","district_id":"6502090","name":"PENTIAN","postal_code":"77263"},{"id":"6502090007","district_id":"6502090","name":"AMBALAT","postal_code":"77263"},{"id":"6502090008","district_id":"6502090","name":"KENDARI","postal_code":"77263"},{"id":"6502090009","district_id":"6502090","name":"KELINCAWAN","postal_code":"77263"},{"id":"6502090010","district_id":"6502090","name":"BUNAU","postal_code":"77263"},{"id":"6502090011","district_id":"6502090","name":"ANJAR ARIP","postal_code":"83652"},{"id":"6502090012","district_id":"6502090","name":"PARU ABANG","postal_code":"77263"},{"id":"6502090013","district_id":"6502090","name":"KELISING","postal_code":"86372"},{"id":"6502090014","district_id":"6502090","name":"BEKILIU","postal_code":"77263"},{"id":"6502090015","district_id":"6502090","name":"PUNAN DULAU","postal_code":"77263"},{"id":"6502090016","district_id":"6502090","name":"BAMBANG","postal_code":"34877"},{"id":"6502090017","district_id":"6502090","name":"KELEMBUNAN","postal_code":"28711"},{"id":"6502090018","district_id":"6502090","name":"MARITAM","postal_code":"77263"},{"id":"6502090020","district_id":"6502090","name":"KERITING","postal_code":"29274"},{"id":"6502090021","district_id":"6502090","name":"SEKATAK BUJI","postal_code":"77263"},{"id":"6502090022","district_id":"6502090","name":"LIAGU","postal_code":"86361"}]