[{"id":"6504021001","district_id":"6504021","name":"KAMPUNG BARU","postal_code":"34765"},{"id":"6504021002","district_id":"6504021","name":"LONG UMUNG","postal_code":"77456"},{"id":"6504021003","district_id":"6504021","name":"PA KEBUAN","postal_code":"77456"},{"id":"6504021004","district_id":"6504021","name":"PA BETUNG","postal_code":"77456"},{"id":"6504021005","district_id":"6504021","name":"BUNGAYAN","postal_code":"77456"},{"id":"6504021006","district_id":"6504021","name":"WA YAGUNG","postal_code":"77456"},{"id":"6504021007","district_id":"6504021","name":"PA MELADE","postal_code":"77456"},{"id":"6504021008","district_id":"6504021","name":"LONG SEPAYANG","postal_code":"77456"},{"id":"6504021009","district_id":"6504021","name":"PA UMUNG","postal_code":"77456"},{"id":"6504021010","district_id":"6504021","name":"PA PAWAN","postal_code":"77456"},{"id":"6504021011","district_id":"6504021","name":"LONG NUAT","postal_code":"77456"},{"id":"6504021012","district_id":"6504021","name":"LONG TENEM","postal_code":"77456"},{"id":"6504021013","district_id":"6504021","name":"PA LIDUNG","postal_code":"77456"},{"id":"6504021014","district_id":"6504021","name":"PA RANGEB","postal_code":"77456"},{"id":"6504021015","district_id":"6504021","name":"PA RAYE","postal_code":"77456"},{"id":"6504021016","district_id":"6504021","name":"PA PALA","postal_code":"77456"},{"id":"6504021017","district_id":"6504021","name":"SINAR BARU","postal_code":"21167"}]