[{"id":"7101082003","district_id":"7101082","name":"PANGIAN","postal_code":"27292"},{"id":"7101082004","district_id":"7101082","name":"POOPO","postal_code":"95999"},{"id":"7101082006","district_id":"7101082","name":"MANEMBO","postal_code":"95694"},{"id":"7101082007","district_id":"7101082","name":"SINSINGON","postal_code":"95751"},{"id":"7101082008","district_id":"7101082","name":"MOBUYA","postal_code":"95751"},{"id":"7101082009","district_id":"7101082","name":"INSIL","postal_code":"95751"},{"id":"7101082010","district_id":"7101082","name":"INSIL BARU","postal_code":"95751"},{"id":"7101082011","district_id":"7101082","name":"PANGIAN TENGAH","postal_code":"95751"},{"id":"7101082012","district_id":"7101082","name":"PANGIAN BARAT","postal_code":"95751"},{"id":"7101082013","district_id":"7101082","name":"POOPO BARAT","postal_code":"95999"},{"id":"7101082014","district_id":"7101082","name":"POOPO SELATAN","postal_code":"95751"},{"id":"7101082015","district_id":"7101082","name":"SINSINGON BARAT","postal_code":"95751"},{"id":"7101082016","district_id":"7101082","name":"SINSINGON TIMUR","postal_code":"95751"}]