[{"id":"7101021001","district_id":"7101021","name":"TORAUT","postal_code":"94474"},{"id":"7101021002","district_id":"7101021","name":"MATAYANGAN","postal_code":"95773"},{"id":"7101021003","district_id":"7101021","name":"UUWAN","postal_code":"99552"},{"id":"7101021004","district_id":"7101021","name":"IKHWAN","postal_code":"95773"},{"id":"7101021005","district_id":"7101021","name":"DOLODUO","postal_code":"95773"},{"id":"7101021006","district_id":"7101021","name":"MEKARUO","postal_code":"95773"},{"id":"7101021007","district_id":"7101021","name":"WANGGA BARU","postal_code":"95773"},{"id":"7101021008","district_id":"7101021","name":"TORAUT UTARA","postal_code":"95773"},{"id":"7101021009","district_id":"7101021","name":"DOLODUO I","postal_code":"95773"},{"id":"7101021010","district_id":"7101021","name":"DOLODUO II","postal_code":"95773"},{"id":"7101021011","district_id":"7101021","name":"DOLODUO III","postal_code":"95773"},{"id":"7101021012","district_id":"7101021","name":"TORAUT TENGAH","postal_code":"94474"}]