[{"id":"7102240001","district_id":"7102240","name":"TULAP","postal_code":"95684"},{"id":"7102240002","district_id":"7102240","name":"KAYU BESI","postal_code":"95684"},{"id":"7102240003","district_id":"7102240","name":"LALUMPE","postal_code":"95956"},{"id":"7102240004","district_id":"7102240","name":"RANOWANGKO DUA","postal_code":"95684"},{"id":"7102240005","district_id":"7102240","name":"KOMBI","postal_code":"95684"},{"id":"7102240006","district_id":"7102240","name":"SAWANGAN","postal_code":"56362"},{"id":"7102240007","district_id":"7102240","name":"KOLONGAN","postal_code":"95442"},{"id":"7102240009","district_id":"7102240","name":"MAKALISUNG","postal_code":"95379"},{"id":"7102240010","district_id":"7102240","name":"KALAWIRAN","postal_code":"95682"},{"id":"7102240011","district_id":"7102240","name":"KINALEOSAN","postal_code":"95357"},{"id":"7102240012","district_id":"7102240","name":"KOLONGAN SATU","postal_code":"95441"},{"id":"7102240013","district_id":"7102240","name":"RERER SATU","postal_code":"95684"}]