[{"id":"7102130001","district_id":"7102130","name":"TIMBUKAR","postal_code":"95691"},{"id":"7102130002","district_id":"7102130","name":"TINCEP","postal_code":"95691"},{"id":"7102130003","district_id":"7102130","name":"KAUNERAN","postal_code":"95691"},{"id":"7102130004","district_id":"7102130","name":"SENDANGAN","postal_code":"95681"},{"id":"7102130005","district_id":"7102130","name":"KOLONGAN ATAS","postal_code":"95442"},{"id":"7102130006","district_id":"7102130","name":"LEILEM","postal_code":"98357"},{"id":"7102130007","district_id":"7102130","name":"TOUNELET","postal_code":"95682"},{"id":"7102130008","district_id":"7102130","name":"TALIKURAN","postal_code":"95681"},{"id":"7102130009","district_id":"7102130","name":"RAMBUNAN","postal_code":"95691"},{"id":"7102130010","district_id":"7102130","name":"SAWANGAN","postal_code":"56362"},{"id":"7102130011","district_id":"7102130","name":"KOLONGAN ATAS DUA","postal_code":"95442"},{"id":"7102130012","district_id":"7102130","name":"LEILEM DUA","postal_code":"98357"},{"id":"7102130013","district_id":"7102130","name":"LEILEM TIGA","postal_code":"95691"},{"id":"7102130014","district_id":"7102130","name":"KAUNERAN SATU","postal_code":"95691"},{"id":"7102130015","district_id":"7102130","name":"SENDANGAN I","postal_code":"95681"},{"id":"7102130016","district_id":"7102130","name":"KOLONGAN ATAS I","postal_code":"95691"},{"id":"7102130017","district_id":"7102130","name":"TOUNELET SATU","postal_code":"95682"},{"id":"7102130018","district_id":"7102130","name":"TALIKURAN SATU","postal_code":"95691"},{"id":"7102130019","district_id":"7102130","name":"RAMBUNAN AMIAN","postal_code":"95691"}]