[{"id":"7102092003","district_id":"7102092","name":"TOUNELET","postal_code":"95682"},{"id":"7102092004","district_id":"7102092","name":"KOYAWAS","postal_code":"95694"},{"id":"7102092005","district_id":"7102092","name":"WALEWANGKO","postal_code":"95694"},{"id":"7102092006","district_id":"7102092","name":"NOONGAN","postal_code":"92119"},{"id":"7102092007","district_id":"7102092","name":"RARINGIS","postal_code":"95694"},{"id":"7102092008","district_id":"7102092","name":"AMPRENG","postal_code":"95694"},{"id":"7102092009","district_id":"7102092","name":"PASLATEN","postal_code":"95372"},{"id":"7102092010","district_id":"7102092","name":"KOPIWANGKER","postal_code":"95694"},{"id":"7102092011","district_id":"7102092","name":"LOWIAN","postal_code":"95357"},{"id":"7102092014","district_id":"7102092","name":"TUMARATAS","postal_code":"61371"},{"id":"7102092015","district_id":"7102092","name":"TUMARATAS DUA","postal_code":"61371"},{"id":"7102092016","district_id":"7102092","name":"NOONGAN DUA","postal_code":"92119"},{"id":"7102092017","district_id":"7102092","name":"NOONGAN TIGA","postal_code":"95694"},{"id":"7102092018","district_id":"7102092","name":"RARANON","postal_code":"95694"},{"id":"7102092019","district_id":"7102092","name":"RARINGIS SELATAN","postal_code":"95694"},{"id":"7102092020","district_id":"7102092","name":"RARINGIS UTARA","postal_code":"95694"}]