[{"id":"7105070002","district_id":"7105070","name":"POOPO","postal_code":"95999"},{"id":"7105070003","district_id":"7105070","name":"RANOIAPO","postal_code":"95998"},{"id":"7105070004","district_id":"7105070","name":"PONTAK","postal_code":"95999"},{"id":"7105070005","district_id":"7105070","name":"MOPOLO","postal_code":"95999"},{"id":"7105070006","district_id":"7105070","name":"POWALUTAN","postal_code":"95999"},{"id":"7105070007","district_id":"7105070","name":"BERINGIN","postal_code":"72273"},{"id":"7105070009","district_id":"7105070","name":"LOMPAD","postal_code":"95999"},{"id":"7105070010","district_id":"7105070","name":"LOMPAD BARU","postal_code":"95999"},{"id":"7105070011","district_id":"7105070","name":"PONTAK SATU","postal_code":"95999"},{"id":"7105070012","district_id":"7105070","name":"POOPO BARAT","postal_code":"95999"},{"id":"7105070013","district_id":"7105070","name":"POOPO UTARA","postal_code":"95999"},{"id":"7105070014","district_id":"7105070","name":"MOPOLO ESA","postal_code":"95999"}]