[{"id":"7106020008","district_id":"7106020","name":"WATUDAMBO","postal_code":"95372"},{"id":"7106020010","district_id":"7106020","name":"KAUDITAN DUA","postal_code":"95372"},{"id":"7106020011","district_id":"7106020","name":"KAUDITAN SATU","postal_code":"95372"},{"id":"7106020012","district_id":"7106020","name":"KAWILEI","postal_code":"99776"},{"id":"7106020013","district_id":"7106020","name":"TREMAN","postal_code":"95372"},{"id":"7106020014","district_id":"7106020","name":"KAIMA","postal_code":"95372"},{"id":"7106020015","district_id":"7106020","name":"KAREGESAN","postal_code":"95372"},{"id":"7106020016","district_id":"7106020","name":"KAASAR","postal_code":"95372"},{"id":"7106020017","district_id":"7106020","name":"LEMBEAN","postal_code":"95372"},{"id":"7106020018","district_id":"7106020","name":"PASLATEN","postal_code":"95372"},{"id":"7106020019","district_id":"7106020","name":"TUMALUNTUNG","postal_code":"95372"},{"id":"7106020020","district_id":"7106020","name":"WATUDAMBO DUA","postal_code":"95372"}]