[{"id":"7107060001","district_id":"7107060","name":"BUSATO","postal_code":"95765"},{"id":"7107060002","district_id":"7107060","name":"KAYUOGU","postal_code":"95765"},{"id":"7107060003","district_id":"7107060","name":"BATU BANTAYO","postal_code":"27372"},{"id":"7107060004","district_id":"7107060","name":"TONTULOW","postal_code":"94971"},{"id":"7107060005","district_id":"7107060","name":"TOMBULANG","postal_code":"95765"},{"id":"7107060006","district_id":"7107060","name":"BUKO","postal_code":"59554"},{"id":"7107060007","district_id":"7107060","name":"BUKO SELATAN","postal_code":"95765"},{"id":"7107060008","district_id":"7107060","name":"DALAPULI","postal_code":"95765"},{"id":"7107060009","district_id":"7107060","name":"BATUTAJAM","postal_code":"95765"},{"id":"7107060010","district_id":"7107060","name":"DENGI","postal_code":"95765"},{"id":"7107060012","district_id":"7107060","name":"KOMUS I","postal_code":"95765"},{"id":"7107060013","district_id":"7107060","name":"TANJUNG SIDUPA","postal_code":"95765"},{"id":"7107060014","district_id":"7107060","name":"TONTULOW UTARA","postal_code":"95765"},{"id":"7107060015","district_id":"7107060","name":"BUKO UTARA","postal_code":"95765"},{"id":"7107060016","district_id":"7107060","name":"DALAPULI BARAT","postal_code":"95765"},{"id":"7107060017","district_id":"7107060","name":"DALAPULI TIMUR","postal_code":"95765"},{"id":"7107060018","district_id":"7107060","name":"TOMBULANG TIMUR","postal_code":"95765"},{"id":"7107060019","district_id":"7107060","name":"TOMBULANG PANTAI","postal_code":"95765"},{"id":"7107060020","district_id":"7107060","name":"DUINI","postal_code":"95765"},{"id":"7107060021","district_id":"7107060","name":"TUNTUNG TIMUR","postal_code":"95765"},{"id":"7107060022","district_id":"7107060","name":"PADANGO","postal_code":"95765"}]