[{"id":"7108030005","district_id":"7108030","name":"LAINGPATEHI","postal_code":"95863"},{"id":"7108030007","district_id":"7108030","name":"BAHOI","postal_code":"95377"},{"id":"7108030008","district_id":"7108030","name":"MAHANGIANG","postal_code":"95863"},{"id":"7108030009","district_id":"7108030","name":"TULUSAN","postal_code":"34391"},{"id":"7108030010","district_id":"7108030","name":"HAASI","postal_code":"95863"},{"id":"7108030021","district_id":"7108030","name":"BOTO","postal_code":"57673"},{"id":"7108030022","district_id":"7108030","name":"BALEHUMARA","postal_code":"95863"},{"id":"7108030023","district_id":"7108030","name":"LESAH","postal_code":"95863"},{"id":"7108030025","district_id":"7108030","name":"MOHONSAWANG","postal_code":"95863"},{"id":"7108030026","district_id":"7108030","name":"APENGSALA","postal_code":"95863"},{"id":"7108030027","district_id":"7108030","name":"LESAH RENDE","postal_code":"95863"},{"id":"7108030028","district_id":"7108030","name":"BARANGKAA PEHE","postal_code":"95863"},{"id":"7108030029","district_id":"7108030","name":"PAHIAMA","postal_code":"95863"}]