[{"id":"7110050001","district_id":"7110050","name":"MOTANDOI","postal_code":"93875"},{"id":"7110050002","district_id":"7110050","name":"DUMAGIN B","postal_code":"95775"},{"id":"7110050003","district_id":"7110050","name":"DUMAGIN A","postal_code":"95775"},{"id":"7110050004","district_id":"7110050","name":"DAYOW","postal_code":"95775"},{"id":"7110050005","district_id":"7110050","name":"PIDUNG","postal_code":"37173"},{"id":"7110050006","district_id":"7110050","name":"ONGGUNOI","postal_code":"95775"},{"id":"7110050007","district_id":"7110050","name":"MODISI","postal_code":"95775"},{"id":"7110050008","district_id":"7110050","name":"POSILAGON","postal_code":"95775"},{"id":"7110050009","district_id":"7110050","name":"ILIGON","postal_code":"95775"},{"id":"7110050010","district_id":"7110050","name":"MOTANDOI SELATAN","postal_code":"93875"},{"id":"7110050011","district_id":"7110050","name":"PERJUANGAN","postal_code":"21332"},{"id":"7110050012","district_id":"7110050","name":"ONGGUNOI SELATAN","postal_code":"95775"}]