[{"id":"7201050001","district_id":"7201050","name":"MAMULUSAN","postal_code":"94883"},{"id":"7201050002","district_id":"7201050","name":"KINANDAL","postal_code":"95357"},{"id":"7201050003","district_id":"7201050","name":"TOMBONIKI","postal_code":"94883"},{"id":"7201050006","district_id":"7201050","name":"OKUMEL","postal_code":"94883"},{"id":"7201050007","district_id":"7201050","name":"POPIDOLON","postal_code":"94883"},{"id":"7201050008","district_id":"7201050","name":"TANGKOP","postal_code":"94883"},{"id":"7201050009","district_id":"7201050","name":"BINUNTULI","postal_code":"94883"},{"id":"7201050010","district_id":"7201050","name":"SALEATI","postal_code":"94883"},{"id":"7201050011","district_id":"7201050","name":"BAJO","postal_code":"94479"},{"id":"7201050012","district_id":"7201050","name":"LIANG","postal_code":"77457"},{"id":"7201050014","district_id":"7201050","name":"BALAYON","postal_code":"94883"},{"id":"7201050015","district_id":"7201050","name":"BASOSOL","postal_code":"94883"},{"id":"7201050016","district_id":"7201050","name":"BOYOMOUTE","postal_code":"94883"},{"id":"7201050019","district_id":"7201050","name":"APAL","postal_code":"94881"},{"id":"7201050020","district_id":"7201050","name":"SELEKAN","postal_code":"94883"},{"id":"7201050021","district_id":"7201050","name":"LOOLONG","postal_code":"94883"}]