[{"id":"7201062001","district_id":"7201062","name":"BANGUNEMO","postal_code":"94882"},{"id":"7201062002","district_id":"7201062","name":"PAISULUNO","postal_code":"94882"},{"id":"7201062003","district_id":"7201062","name":"MONTOP","postal_code":"94882"},{"id":"7201062004","district_id":"7201062","name":"BOLUBUNG","postal_code":"94882"},{"id":"7201062005","district_id":"7201062","name":"BAKALINGA","postal_code":"94882"},{"id":"7201062006","district_id":"7201062","name":"SAMBULANGAN","postal_code":"94882"},{"id":"7201062007","district_id":"7201062","name":"KOYOBUNGA","postal_code":"94882"},{"id":"7201062008","district_id":"7201062","name":"SABANG","postal_code":"94561"},{"id":"7201062009","district_id":"7201062","name":"OMBULI","postal_code":"94882"},{"id":"7201062010","district_id":"7201062","name":"LUK PANENTENG","postal_code":"94882"},{"id":"7201062011","district_id":"7201062","name":"MINANGA","postal_code":"95997"},{"id":"7201062012","district_id":"7201062","name":"MANDOK","postal_code":"94882"}]