[{"id":"7202031001","district_id":"7202031","name":"BANGKETA","postal_code":"94753"},{"id":"7202031002","district_id":"7202031","name":"TOBELOMBANG","postal_code":"94753"},{"id":"7202031003","district_id":"7202031","name":"BALAANG","postal_code":"94753"},{"id":"7202031004","district_id":"7202031","name":"DAMAI MAKMUR","postal_code":"94753"},{"id":"7202031005","district_id":"7202031","name":"SUMBER AGUNG","postal_code":"34595"},{"id":"7202031006","district_id":"7202031","name":"JAYA MAKMUR","postal_code":"93794"},{"id":"7202031007","district_id":"7202031","name":"MANTAN B","postal_code":"94753"},{"id":"7202031008","district_id":"7202031","name":"TOMEANG","postal_code":"95661"},{"id":"7202031009","district_id":"7202031","name":"PIBOMBO","postal_code":"79671"},{"id":"7202031010","district_id":"7202031","name":"PAKOWA BUNTA","postal_code":"95119"},{"id":"7202031011","district_id":"7202031","name":"PETAK","postal_code":"64461"},{"id":"7202031012","district_id":"7202031","name":"BOLOBUNGKANG","postal_code":"94752"},{"id":"7202031013","district_id":"7202031","name":"SAITI","postal_code":"94753"},{"id":"7202031014","district_id":"7202031","name":"BINOHU","postal_code":"94753"},{"id":"7202031015","district_id":"7202031","name":"BELLA","postal_code":"94753"},{"id":"7202031016","district_id":"7202031","name":"BATU HITAM","postal_code":"94753"},{"id":"7202031017","district_id":"7202031","name":"KABUA BUA","postal_code":"23671"},{"id":"7202031018","district_id":"7202031","name":"PULODALAGAN","postal_code":"24187"},{"id":"7202031019","district_id":"7202031","name":"OBOK BALINGARA","postal_code":"94753"}]