[{"id":"7202012001","district_id":"7202012","name":"MINAKARYA","postal_code":"94765"},{"id":"7202012002","district_id":"7202012","name":"MINAHAKI","postal_code":"94765"},{"id":"7202012003","district_id":"7202012","name":"BUMIHARJO","postal_code":"57671"},{"id":"7202012004","district_id":"7202012","name":"SIDOHARJO","postal_code":"57682"},{"id":"7202012005","district_id":"7202012","name":"ARGAKENCANA","postal_code":"94765"},{"id":"7202012006","district_id":"7202012","name":"MULYOHARJO","postal_code":"52462"},{"id":"7202012007","district_id":"7202012","name":"SLAMETHARJO","postal_code":"65156"},{"id":"7202012008","district_id":"7202012","name":"TOILI","postal_code":"94765"},{"id":"7202012009","district_id":"7202012","name":"SALUAN","postal_code":"94765"},{"id":"7202012010","district_id":"7202012","name":"MOILONG","postal_code":"94765"},{"id":"7202012011","district_id":"7202012","name":"KARYA JAYA","postal_code":"34767"},{"id":"7202012012","district_id":"7202012","name":"SUMBER HARJO","postal_code":"55572"},{"id":"7202012013","district_id":"7202012","name":"KARANG ANYAR","postal_code":"56365"},{"id":"7202012014","district_id":"7202012","name":"SIDOMAKMUR","postal_code":"34595"},{"id":"7202012015","district_id":"7202012","name":"ARGO MULYA","postal_code":"99563"},{"id":"7202012016","district_id":"7202012","name":"TOU","postal_code":"86111"}]