[{"id":"7203030011","district_id":"7203030","name":"PUUNGKOILU","postal_code":"94973"},{"id":"7203030012","district_id":"7203030","name":"BAHONTOBUNGKU","postal_code":"94973"},{"id":"7203030013","district_id":"7203030","name":"TOFUTI","postal_code":"94973"},{"id":"7203030014","district_id":"7203030","name":"SAKITA","postal_code":"97772"},{"id":"7203030015","district_id":"7203030","name":"MENDUI","postal_code":"82261"},{"id":"7203030016","district_id":"7203030","name":"TOFOISO","postal_code":"94973"},{"id":"7203030017","district_id":"7203030","name":"MARSAOLEH","postal_code":"94973"},{"id":"7203030018","district_id":"7203030","name":"LAMBEREA","postal_code":"94973"},{"id":"7203030019","district_id":"7203030","name":"BUNGI","postal_code":"91253"},{"id":"7203030020","district_id":"7203030","name":"MATANO","postal_code":"94973"},{"id":"7203030021","district_id":"7203030","name":"MATANSALA","postal_code":"94973"},{"id":"7203030022","district_id":"7203030","name":"BAHORURU","postal_code":"94973"},{"id":"7203030023","district_id":"7203030","name":"IPI","postal_code":"94973"},{"id":"7203030025","district_id":"7203030","name":"BAHOMOHONI","postal_code":"94973"},{"id":"7203030026","district_id":"7203030","name":"BAHOMOLEO","postal_code":"94973"},{"id":"7203030027","district_id":"7203030","name":"BAHOMANTE","postal_code":"94973"},{"id":"7203030028","district_id":"7203030","name":"LANONA","postal_code":"94973"},{"id":"7203030029","district_id":"7203030","name":"TUDUA","postal_code":"94973"}]