[{"id":"7204031001","district_id":"7204031","name":"MASEWE","postal_code":"99374"},{"id":"7204031002","district_id":"7204031","name":"PANCASILA I","postal_code":"94664"},{"id":"7204031003","district_id":"7204031","name":"OLUMOKUNDE","postal_code":"94664"},{"id":"7204031004","district_id":"7204031","name":"KAMBA","postal_code":"94664"},{"id":"7204031005","district_id":"7204031","name":"PETIRO","postal_code":"94664"},{"id":"7204031006","district_id":"7204031","name":"TARIPA","postal_code":"94664"},{"id":"7204031007","district_id":"7204031","name":"TIU","postal_code":"94663"},{"id":"7204031008","district_id":"7204031","name":"POLEGANYARA","postal_code":"94663"},{"id":"7204031009","district_id":"7204031","name":"OMPO DIDIRI","postal_code":"90813"},{"id":"7204031010","district_id":"7204031","name":"KELEI","postal_code":"94663"},{"id":"7204031011","district_id":"7204031","name":"MATIALEMBA","postal_code":"94663"},{"id":"7204031012","district_id":"7204031","name":"KANCUU","postal_code":"94663"},{"id":"7204031013","district_id":"7204031","name":"MAGAPU","postal_code":"73612"}]