[{"id":"7205081002","district_id":"7205081","name":"SALUMPAKU","postal_code":"94351"},{"id":"7205081003","district_id":"7205081","name":"WATATU","postal_code":"94351"},{"id":"7205081004","district_id":"7205081","name":"SURUMANA","postal_code":"94351"},{"id":"7205081005","district_id":"7205081","name":"LALOMBI","postal_code":"94351"},{"id":"7205081006","district_id":"7205081","name":"BAMBARIMI","postal_code":"94351"},{"id":"7205081007","district_id":"7205081","name":"TANAHMEA","postal_code":"94351"},{"id":"7205081008","district_id":"7205081","name":"SALUNGKAENU","postal_code":"94351"},{"id":"7205081009","district_id":"7205081","name":"LUMBUMAMARA","postal_code":"94351"},{"id":"7205081010","district_id":"7205081","name":"TOLONGANO","postal_code":"94351"},{"id":"7205081011","district_id":"7205081","name":"TOSALE","postal_code":"94351"},{"id":"7205081012","district_id":"7205081","name":"LUMBUTAROMBO","postal_code":"46258"},{"id":"7205081013","district_id":"7205081","name":"MALINO","postal_code":"94691"},{"id":"7205081014","district_id":"7205081","name":"ONGULARA","postal_code":"94351"},{"id":"7205081015","district_id":"7205081","name":"LUMBULAMA","postal_code":"94351"},{"id":"7205081016","district_id":"7205081","name":"SALUSUMPU","postal_code":"94351"},{"id":"7205081017","district_id":"7205081","name":"SAROMBAYA","postal_code":"94351"},{"id":"7205081018","district_id":"7205081","name":"LEMBASADA","postal_code":"94351"},{"id":"7205081019","district_id":"7205081","name":"TANAHMPULU","postal_code":"69484"}]