[{"id":"7205130001","district_id":"7205130","name":"LOMBONGA","postal_code":"94355"},{"id":"7205130008","district_id":"7205130","name":"LABEAN","postal_code":"94355"},{"id":"7205130009","district_id":"7205130","name":"MELI","postal_code":"92965"},{"id":"7205130010","district_id":"7205130","name":"TAMBU","postal_code":"94355"},{"id":"7205130011","district_id":"7205130","name":"SIWELI","postal_code":"94355"},{"id":"7205130012","district_id":"7205130","name":"SIBUALONG","postal_code":"94355"},{"id":"7205130013","district_id":"7205130","name":"SIBAYU","postal_code":"94355"},{"id":"7205130015","district_id":"7205130","name":"MALINO","postal_code":"94691"},{"id":"7205130016","district_id":"7205130","name":"MAPANE TAMBU","postal_code":"94355"},{"id":"7205130017","district_id":"7205130","name":"TOVIA TAMBU","postal_code":"94355"},{"id":"7205130018","district_id":"7205130","name":"SIMAGAYA","postal_code":"94355"},{"id":"7205130019","district_id":"7205130","name":"SIPURE","postal_code":"94355"},{"id":"7205130020","district_id":"7205130","name":"KAMPUNG BARU SIBAYU","postal_code":"94355"}]