[{"id":"7209070001","district_id":"7209070","name":"KOLOLIO","postal_code":"94683"},{"id":"7209070002","district_id":"7209070","name":"AWO","postal_code":"90993"},{"id":"7209070004","district_id":"7209070","name":"LEBITI","postal_code":"94683"},{"id":"7209070005","district_id":"7209070","name":"PULAU ENAM","postal_code":"94683"},{"id":"7209070006","district_id":"7209070","name":"BUNGAYO","postal_code":"94683"},{"id":"7209070008","district_id":"7209070","name":"BANGKAGI","postal_code":"94683"},{"id":"7209070009","district_id":"7209070","name":"TONGKABO","postal_code":"94683"},{"id":"7209070010","district_id":"7209070","name":"KATUPAT","postal_code":"94683"},{"id":"7209070011","district_id":"7209070","name":"LEMBANATO","postal_code":"94683"},{"id":"7209070012","district_id":"7209070","name":"TOBIL","postal_code":"94683"},{"id":"7209070013","district_id":"7209070","name":"BAULU","postal_code":"94683"},{"id":"7209070014","district_id":"7209070","name":"MATOBIYAI","postal_code":"94683"},{"id":"7209070015","district_id":"7209070","name":"SAMPOBAE","postal_code":"94683"},{"id":"7209070016","district_id":"7209070","name":"TITIRI\u00ed POPOLION","postal_code":"93461"}]