[{"id":"7209020014","district_id":"7209020","name":"LEMORO","postal_code":"94681"},{"id":"7209020015","district_id":"7209020","name":"TAYAWA","postal_code":"94681"},{"id":"7209020016","district_id":"7209020","name":"KORONDODA","postal_code":"94681"},{"id":"7209020017","district_id":"7209020","name":"DATARAN BUGI","postal_code":"94681"},{"id":"7209020018","district_id":"7209020","name":"UEKULI","postal_code":"94681"},{"id":"7209020019","district_id":"7209020","name":"BETAUA","postal_code":"94681"},{"id":"7209020021","district_id":"7209020","name":"SANDADA","postal_code":"94681"},{"id":"7209020022","district_id":"7209020","name":"TOJO","postal_code":"94681"},{"id":"7209020023","district_id":"7209020","name":"PANCUMA","postal_code":"94681"},{"id":"7209020024","district_id":"7209020","name":"TONGKU","postal_code":"94681"},{"id":"7209020025","district_id":"7209020","name":"PODI","postal_code":"94681"},{"id":"7209020027","district_id":"7209020","name":"BAHARI","postal_code":"93793"},{"id":"7209020028","district_id":"7209020","name":"BANANO","postal_code":"94681"},{"id":"7209020030","district_id":"7209020","name":"BUYUNTARIPA","postal_code":"95954"},{"id":"7209020031","district_id":"7209020","name":"KALEMBA","postal_code":"92152"}]