[{"id":"7210140001","district_id":"7210140","name":"PANESIBAJA","postal_code":"53475"},{"id":"7210140002","district_id":"7210140","name":"WIAPORE","postal_code":"94362"},{"id":"7210140003","district_id":"7210140","name":"ONGULERO","postal_code":"94362"},{"id":"7210140004","district_id":"7210140","name":"SOI","postal_code":"94362"},{"id":"7210140005","district_id":"7210140","name":"WAWUGAGA","postal_code":"86413"},{"id":"7210140006","district_id":"7210140","name":"DOMBU","postal_code":"94362"},{"id":"7210140007","district_id":"7210140","name":"TAIPANGGABE","postal_code":"94362"},{"id":"7210140008","district_id":"7210140","name":"WAYU","postal_code":"94362"},{"id":"7210140009","district_id":"7210140","name":"MATANTIMALI","postal_code":"94362"},{"id":"7210140010","district_id":"7210140","name":"LEWARA","postal_code":"94362"},{"id":"7210140011","district_id":"7210140","name":"LEMOSIRANINDI","postal_code":"94681"},{"id":"7210140012","district_id":"7210140","name":"WAWUJAI","postal_code":"86413"}]