[{"id":"7210060001","district_id":"7210060","name":"LEMBAN TONGOA","postal_code":"94364"},{"id":"7210060002","district_id":"7210060","name":"UENUNI","postal_code":"94364"},{"id":"7210060003","district_id":"7210060","name":"TONGOA","postal_code":"94364"},{"id":"7210060004","district_id":"7210060","name":"BAHAGIA","postal_code":"94364"},{"id":"7210060005","district_id":"7210060","name":"RAHMAT","postal_code":"94364"},{"id":"7210060006","district_id":"7210060","name":"SEJAHTERA","postal_code":"21323"},{"id":"7210060007","district_id":"7210060","name":"SINTUWU","postal_code":"94364"},{"id":"7210060008","district_id":"7210060","name":"RANTELEDA","postal_code":"37262"},{"id":"7210060009","district_id":"7210060","name":"TANAH HARAPAN","postal_code":"94364"},{"id":"7210060010","district_id":"7210060","name":"BERDIKARI","postal_code":"94364"},{"id":"7210060011","district_id":"7210060","name":"REJEKI","postal_code":"94364"},{"id":"7210060012","district_id":"7210060","name":"AMPERA","postal_code":"99583"},{"id":"7210060013","district_id":"7210060","name":"MAKMUR","postal_code":"90983"},{"id":"7210060014","district_id":"7210060","name":"PETIMBE","postal_code":"94364"},{"id":"7210060015","district_id":"7210060","name":"KAPIROE","postal_code":"94364"},{"id":"7210060016","district_id":"7210060","name":"BUNGA","postal_code":"23893"},{"id":"7210060017","district_id":"7210060","name":"BOBO","postal_code":"97813"},{"id":"7210060018","district_id":"7210060","name":"BAKU-BAKULU","postal_code":"94364"},{"id":"7210060019","district_id":"7210060","name":"SIGIMPU","postal_code":"94364"},{"id":"7210060020","district_id":"7210060","name":"KARUNIA","postal_code":"87254"},{"id":"7210060021","district_id":"7210060","name":"UE RANI","postal_code":"98312"},{"id":"7210060022","district_id":"7210060","name":"SARUMANA","postal_code":"98254"}]