[{"id":"7212020001","district_id":"7212020","name":"WAWOPADA","postal_code":"94966"},{"id":"7212020002","district_id":"7212020","name":"LEMBOBARU","postal_code":"94966"},{"id":"7212020003","district_id":"7212020","name":"WARA'A","postal_code":"94966"},{"id":"7212020004","district_id":"7212020","name":"TINGKEA'O","postal_code":"94966"},{"id":"7212020005","district_id":"7212020","name":"KOROBONDE","postal_code":"94966"},{"id":"7212020006","district_id":"7212020","name":"MORA","postal_code":"94966"},{"id":"7212020007","district_id":"7212020","name":"ULUANSO","postal_code":"94966"},{"id":"7212020009","district_id":"7212020","name":"TINOMPO","postal_code":"94966"},{"id":"7212020010","district_id":"7212020","name":"KORO WALELO","postal_code":"98171"},{"id":"7212020011","district_id":"7212020","name":"KUMPI","postal_code":"94966"},{"id":"7212020012","district_id":"7212020","name":"KOROMPEELI","postal_code":"92971"},{"id":"7212020013","district_id":"7212020","name":"LEMBOROMA","postal_code":"94966"},{"id":"7212020014","district_id":"7212020","name":"KOROWOU","postal_code":"94966"}]