[{"id":"7301030001","district_id":"7301030","name":"POLASSI","postal_code":"92855"},{"id":"7301030002","district_id":"7301030","name":"TAMBOLONGAN","postal_code":"92855"},{"id":"7301030003","district_id":"7301030","name":"APPATANAH","postal_code":"92855"},{"id":"7301030004","district_id":"7301030","name":"LOWA","postal_code":"90951"},{"id":"7301030005","district_id":"7301030","name":"LANTIMBONGAN","postal_code":"92855"},{"id":"7301030006","district_id":"7301030","name":"BINANGA SOMBAIYA","postal_code":"92855"},{"id":"7301030007","district_id":"7301030","name":"LAIYOLO","postal_code":"92855"},{"id":"7301030008","district_id":"7301030","name":"LAIYOLO BARU","postal_code":"92855"},{"id":"7301030009","district_id":"7301030","name":"HARAPAN","postal_code":"99571"},{"id":"7301030010","district_id":"7301030","name":"PATIKARYA","postal_code":"92855"},{"id":"7301030011","district_id":"7301030","name":"PATILERENG","postal_code":"92855"},{"id":"7301030012","district_id":"7301030","name":"KHUSUS BAHULUANG","postal_code":"92855"}]