[{"id":"7302010001","district_id":"7302010","name":"MARIORENNU","postal_code":"92561"},{"id":"7302010002","district_id":"7302010","name":"JALANJANG","postal_code":"92561"},{"id":"7302010003","district_id":"7302010","name":"MATTEKKO","postal_code":"92561"},{"id":"7302010004","district_id":"7302010","name":"PAENRE LOMPOE","postal_code":"92561"},{"id":"7302010005","district_id":"7302010","name":"BIALO","postal_code":"92561"},{"id":"7302010006","district_id":"7302010","name":"BONTO MACINNA","postal_code":"92561"},{"id":"7302010007","district_id":"7302010","name":"BONTOMASILA","postal_code":"92561"},{"id":"7302010008","district_id":"7302010","name":"PADANG","postal_code":"70852"},{"id":"7302010009","district_id":"7302010","name":"BAROMBONG","postal_code":"90225"},{"id":"7302010010","district_id":"7302010","name":"BONTO SUNGGU","postal_code":"92255"},{"id":"7302010011","district_id":"7302010","name":"POLEWALI","postal_code":"92661"},{"id":"7302010012","district_id":"7302010","name":"PALAMBARAE","postal_code":"92561"},{"id":"7302010013","district_id":"7302010","name":"BUKIT TINGGI","postal_code":"22756"},{"id":"7302010014","district_id":"7302010","name":"BONTONYELENG","postal_code":"92561"},{"id":"7302010015","district_id":"7302010","name":"BUKIT HARAPAN","postal_code":"34767"},{"id":"7302010016","district_id":"7302010","name":"DAMPANG","postal_code":"92561"},{"id":"7302010017","district_id":"7302010","name":"BONTORAJA","postal_code":"92561"},{"id":"7302010018","district_id":"7302010","name":"BENTENG GANTARANG","postal_code":"90561"},{"id":"7302010019","district_id":"7302010","name":"GATTARENG","postal_code":"90862"},{"id":"7302010020","district_id":"7302010","name":"BENTENG MALEWANG","postal_code":"92561"},{"id":"7302010021","district_id":"7302010","name":"TACCORONG","postal_code":"92561"}]