[{"id":"7304030001","district_id":"7304030","name":"BIRINGKASSI","postal_code":"92311"},{"id":"7304030002","district_id":"7304030","name":"PABIRINGA","postal_code":"92316"},{"id":"7304030003","district_id":"7304030","name":"PANAIKANG","postal_code":"92671"},{"id":"7304030004","district_id":"7304030","name":"MONRO-MONRO","postal_code":"92316"},{"id":"7304030005","district_id":"7304030","name":"SIDENRE","postal_code":"92311"},{"id":"7304030006","district_id":"7304030","name":"EMPOANG SELATAN","postal_code":"92311"},{"id":"7304030007","district_id":"7304030","name":"EMPOANG","postal_code":"92311"},{"id":"7304030008","district_id":"7304030","name":"BALANG TOA","postal_code":"92311"},{"id":"7304030009","district_id":"7304030","name":"BALANG","postal_code":"95871"},{"id":"7304030010","district_id":"7304030","name":"BALANG BERU","postal_code":"92316"},{"id":"7304030011","district_id":"7304030","name":"BONTOA","postal_code":"90615"},{"id":"7304030012","district_id":"7304030","name":"SAPANANG","postal_code":"90651"},{"id":"7304030013","district_id":"7304030","name":"EMPOANG UTARA","postal_code":"92316"}]