[{"id":"7304010001","district_id":"7304010","name":"MALLASORO","postal_code":"92352"},{"id":"7304010002","district_id":"7304010","name":"PUNAGAYA","postal_code":"92352"},{"id":"7304010003","district_id":"7304010","name":"BONTORANNU","postal_code":"90126"},{"id":"7304010004","district_id":"7304010","name":"PANTAI BAHARI","postal_code":"92352"},{"id":"7304010005","district_id":"7304010","name":"PALLENGU","postal_code":"92352"},{"id":"7304010006","district_id":"7304010","name":"TOMBO-TOMBOLO","postal_code":"92352"},{"id":"7304010007","district_id":"7304010","name":"JENETALLASA","postal_code":"92314"},{"id":"7304010008","district_id":"7304010","name":"KALIMPORO","postal_code":"92352"},{"id":"7304010015","district_id":"7304010","name":"PALLANTIKANG","postal_code":"92211"},{"id":"7304010016","district_id":"7304010","name":"GUNUNG SILANU","postal_code":"92352"},{"id":"7304010017","district_id":"7304010","name":"KAPITA","postal_code":"92352"},{"id":"7304010018","district_id":"7304010","name":"MARAYOKA","postal_code":"92352"},{"id":"7304010019","district_id":"7304010","name":"BONTOMANAI","postal_code":"92261"}]