[{"id":"7311090001","district_id":"7311090","name":"BALIENG TOA","postal_code":"92781"},{"id":"7311090002","district_id":"7311090","name":"PASAKA","postal_code":"90961"},{"id":"7311090003","district_id":"7311090","name":"BULIE","postal_code":"92781"},{"id":"7311090005","district_id":"7311090","name":"MASSENRENGPULU","postal_code":"92781"},{"id":"7311090006","district_id":"7311090","name":"MABBIRING","postal_code":"92781"},{"id":"7311090007","district_id":"7311090","name":"MALLUSETASI","postal_code":"91111"},{"id":"7311090008","district_id":"7311090","name":"PATTIRO SOMPE","postal_code":"92781"},{"id":"7311090009","district_id":"7311090","name":"PAKKASALO","postal_code":"92753"},{"id":"7311090010","district_id":"7311090","name":"PATTIRO BAJO","postal_code":"92781"},{"id":"7311090011","district_id":"7311090","name":"MAROANGING","postal_code":"92781"},{"id":"7311090012","district_id":"7311090","name":"CINNONG","postal_code":"92762"},{"id":"7311090013","district_id":"7311090","name":"POLEWALI","postal_code":"92661"},{"id":"7311090014","district_id":"7311090","name":"KALIBONG","postal_code":"92781"},{"id":"7311090015","district_id":"7311090","name":"TADANG PALIE","postal_code":"90971"},{"id":"7311090016","district_id":"7311090","name":"AJANG PULU","postal_code":"92781"},{"id":"7311090017","district_id":"7311090","name":"LETTE TANAH","postal_code":"92781"},{"id":"7311090018","district_id":"7311090","name":"PATTIRO RIOLO","postal_code":"92781"},{"id":"7311090019","district_id":"7311090","name":"SUMPANG MINANGAE","postal_code":"91121"},{"id":"7311090020","district_id":"7311090","name":"MANAJENG","postal_code":"92781"}]