[{"id":"7311070001","district_id":"7311070","name":"BARINGENG","postal_code":"90871"},{"id":"7311070002","district_id":"7311070","name":"TOMPOBULU","postal_code":"92654"},{"id":"7311070003","district_id":"7311070","name":"PONRE-PONRE","postal_code":"92766"},{"id":"7311070004","district_id":"7311070","name":"LABURASSENG","postal_code":"76271"},{"id":"7311070005","district_id":"7311070","name":"TAPPALE","postal_code":"92766"},{"id":"7311070006","district_id":"7311070","name":"POLEWALI","postal_code":"92661"},{"id":"7311070007","district_id":"7311070","name":"SUWA","postal_code":"92766"},{"id":"7311070008","district_id":"7311070","name":"PITUMPIDANGE","postal_code":"92766"},{"id":"7311070009","district_id":"7311070","name":"WANUAWARU","postal_code":"92766"},{"id":"7311070010","district_id":"7311070","name":"CEPPAGA","postal_code":"90981"},{"id":"7311070011","district_id":"7311070","name":"MATTIRO WALIE","postal_code":"90671"},{"id":"7311070012","district_id":"7311070","name":"MARIO","postal_code":"90951"},{"id":"7311070013","district_id":"7311070","name":"POLEONRO","postal_code":"90954"},{"id":"7311070014","district_id":"7311070","name":"TANABATUE","postal_code":"92766"},{"id":"7311070015","district_id":"7311070","name":"SWADAYA","postal_code":"78653"},{"id":"7311070016","district_id":"7311070","name":"BINUANG","postal_code":"71183"},{"id":"7311070017","district_id":"7311070","name":"MATTIRO DECENG","postal_code":"91256"},{"id":"7311070019","district_id":"7311070","name":"MALLINRUNG","postal_code":"92766"},{"id":"7311070020","district_id":"7311070","name":"MATTIRO BULU","postal_code":"90671"}]