[{"id":"7311180001","district_id":"7311180","name":"BULUMPAREE","postal_code":"92776"},{"id":"7311180002","district_id":"7311180","name":"CAREBBU","postal_code":"92776"},{"id":"7311180003","district_id":"7311180","name":"ABBANUANG","postal_code":"92776"},{"id":"7311180004","district_id":"7311180","name":"PACCING","postal_code":"92768"},{"id":"7311180005","district_id":"7311180","name":"MACCOPE","postal_code":"92776"},{"id":"7311180006","district_id":"7311180","name":"MALLARI","postal_code":"92776"},{"id":"7311180007","district_id":"7311180","name":"KADING","postal_code":"90225"},{"id":"7311180008","district_id":"7311180","name":"CAKKE BONE","postal_code":"92776"},{"id":"7311180009","district_id":"7311180","name":"LAPPO ASE","postal_code":"92776"},{"id":"7311180010","district_id":"7311180","name":"CUMPIGA","postal_code":"92776"},{"id":"7311180011","district_id":"7311180","name":"AWO LAGADING","postal_code":"92776"},{"id":"7311180012","district_id":"7311180","name":"JALING","postal_code":"92776"},{"id":"7311180013","district_id":"7311180","name":"MAPPALO ULAWENG","postal_code":"92776"},{"id":"7311180014","district_id":"7311180","name":"UNRA","postal_code":"92776"},{"id":"7311180015","district_id":"7311180","name":"KAJUARA","postal_code":"92776"},{"id":"7311180016","district_id":"7311180","name":"CARI GADING","postal_code":"92776"},{"id":"7311180017","district_id":"7311180","name":"MATUJU","postal_code":"92776"},{"id":"7311180018","district_id":"7311180","name":"LATTEKKO","postal_code":"97231"}]