[{"id":"7312010001","district_id":"7312010","name":"GATTARENG","postal_code":"90862"},{"id":"7312010002","district_id":"7312010","name":"MARIO RIAJA","postal_code":"90862"},{"id":"7312010003","district_id":"7312010","name":"WATU","postal_code":"90862"},{"id":"7312010004","district_id":"7312010","name":"MARIO RITTENGNGA","postal_code":"90862"},{"id":"7312010005","district_id":"7312010","name":"GOARIE","postal_code":"90862"},{"id":"7312010006","district_id":"7312010","name":"BARAE","postal_code":"90862"},{"id":"7312010007","district_id":"7312010","name":"MARIO RILAU","postal_code":"90862"},{"id":"7312010008","district_id":"7312010","name":"TETTIKENGRARAE","postal_code":"90862"},{"id":"7312010009","district_id":"7312010","name":"LABESSI","postal_code":"90862"},{"id":"7312010010","district_id":"7312010","name":"CONGKO","postal_code":"90862"},{"id":"7312010011","district_id":"7312010","name":"WATUTOA","postal_code":"90862"},{"id":"7312010012","district_id":"7312010","name":"GATTARENG TOA","postal_code":"90862"},{"id":"7312010013","district_id":"7312010","name":"SOGA","postal_code":"90862"}]