[{"id":"7313070001","district_id":"7313070","name":"TUA","postal_code":"90991"},{"id":"7313070002","district_id":"7313070","name":"TELLU LIMPOE","postal_code":"90991"},{"id":"7313070003","district_id":"7313070","name":"TOSORA","postal_code":"90991"},{"id":"7313070004","district_id":"7313070","name":"TAJO","postal_code":"90991"},{"id":"7313070005","district_id":"7313070","name":"CINNONG TABI","postal_code":"90991"},{"id":"7313070006","district_id":"7313070","name":"WATAN RUMPIA","postal_code":"90991"},{"id":"7313070007","district_id":"7313070","name":"TENGNGA","postal_code":"90991"},{"id":"7313070008","district_id":"7313070","name":"BOTTO TANRE","postal_code":"90991"},{"id":"7313070009","district_id":"7313070","name":"RUMPIA","postal_code":"90991"},{"id":"7313070010","district_id":"7313070","name":"LIMPO MAJANG","postal_code":"90991"},{"id":"7313070011","district_id":"7313070","name":"PARIA","postal_code":"90991"},{"id":"7313070012","district_id":"7313070","name":"URAIANG","postal_code":"90991"},{"id":"7313070013","district_id":"7313070","name":"MACANANG","postal_code":"90991"},{"id":"7313070014","district_id":"7313070","name":"LAERUNG","postal_code":"90991"},{"id":"7313070015","district_id":"7313070","name":"L I U","postal_code":"86271"},{"id":"7313070016","district_id":"7313070","name":"BOTTO BENTENG","postal_code":"90991"},{"id":"7313070017","district_id":"7313070","name":"BOTTO PENNO","postal_code":"90991"},{"id":"7313070018","district_id":"7313070","name":"LAMIKU","postal_code":"90991"}]