[{"id":"7314070001","district_id":"7314070","name":"PONRANGAE","postal_code":"51261"},{"id":"7314070002","district_id":"7314070","name":"LANCIRANG","postal_code":"91683"},{"id":"7314070003","district_id":"7314070","name":"SUMPANG MANGO","postal_code":"90712"},{"id":"7314070004","district_id":"7314070","name":"LASIWALA","postal_code":"91683"},{"id":"7314070005","district_id":"7314070","name":"AJUBISSUE","postal_code":"91683"},{"id":"7314070006","district_id":"7314070","name":"DONGI","postal_code":"91683"},{"id":"7314070007","district_id":"7314070","name":"OTTING","postal_code":"91683"},{"id":"7314070008","district_id":"7314070","name":"ANA BANNA","postal_code":"23891"},{"id":"7314070009","district_id":"7314070","name":"BULU CENRANA","postal_code":"91573"},{"id":"7314070010","district_id":"7314070","name":"BETAO","postal_code":"91683"},{"id":"7314070014","district_id":"7314070","name":"BETAO RIASE","postal_code":"91683"},{"id":"7314070015","district_id":"7314070","name":"KALEMPANG","postal_code":"91683"}]