[{"id":"7317010010","district_id":"7317010","name":"RIWANG","postal_code":"76261"},{"id":"7317010011","district_id":"7317010","name":"RANTE BELU","postal_code":"93956"},{"id":"7317010012","district_id":"7317010","name":"BUNTU MATABBING","postal_code":"91881"},{"id":"7317010013","district_id":"7317010","name":"KOMBA","postal_code":"86572"},{"id":"7317010014","district_id":"7317010","name":"BILANTE","postal_code":"91997"},{"id":"7317010015","district_id":"7317010","name":"BINTURU","postal_code":"71552"},{"id":"7317010016","district_id":"7317010","name":"BUKIT SUTRA","postal_code":"74173"},{"id":"7317010017","district_id":"7317010","name":"RANTE ALANG","postal_code":"91881"},{"id":"7317010018","district_id":"7317010","name":"LUMARING","postal_code":"91997"},{"id":"7317010019","district_id":"7317010","name":"LAROMPONG","postal_code":"91997"},{"id":"7317010020","district_id":"7317010","name":"RIWANG SELATAN","postal_code":"91997"},{"id":"7317010021","district_id":"7317010","name":"BUNTU PASIK","postal_code":"91997"},{"id":"7317010022","district_id":"7317010","name":"KOMBA SELATAN","postal_code":"91997"}]