[{"id":"7318051001","district_id":"7318051","name":"LEMBANG PALI","postal_code":"91371"},{"id":"7318051002","district_id":"7318051","name":"LEMBANG SE'SENG","postal_code":"15540"},{"id":"7318051003","district_id":"7318051","name":"KELURAHAN BITTUANG","postal_code":"50663"},{"id":"7318051004","district_id":"7318051","name":"LEMBANG  TIROAN","postal_code":"91413"},{"id":"7318051005","district_id":"7318051","name":"LEMBANG BAU","postal_code":"92861"},{"id":"7318051006","district_id":"7318051","name":"LEMBANG REMBO REMBO","postal_code":"91371"},{"id":"7318051007","district_id":"7318051","name":"LEMBANG BURASIA","postal_code":"92861"},{"id":"7318051008","district_id":"7318051","name":"LEMBANG BUTTU LIMBONG","postal_code":"92861"},{"id":"7318051009","district_id":"7318051","name":"LEMBANG KOLE PALIAN","postal_code":"92461"},{"id":"7318051010","district_id":"7318051","name":"LEMBANG BALLA","postal_code":"92861"},{"id":"7318051011","district_id":"7318051","name":"LEMBANG PATONGLOAN","postal_code":"91371"},{"id":"7318051012","district_id":"7318051","name":"LEMBANG SASAK","postal_code":"15540"},{"id":"7318051013","district_id":"7318051","name":"LEMBANG LE'TEK","postal_code":"91413"},{"id":"7318051014","district_id":"7318051","name":"LEMBANG SANDANA","postal_code":"91371"},{"id":"7318051015","district_id":"7318051","name":"LEMBANG KANDUA'","postal_code":"92461"}]