[{"id":"7318021001","district_id":"7318021","name":"KELURAHAN BENTENG AMBESO","postal_code":"50663"},{"id":"7318021002","district_id":"7318021","name":"LEMBANG KADUAJA","postal_code":"92461"},{"id":"7318021003","district_id":"7318021","name":"LEMBANG GANDANG BATU","postal_code":"92861"},{"id":"7318021004","district_id":"7318021","name":"LEMBANG GARASSIK","postal_code":"92461"},{"id":"7318021005","district_id":"7318021","name":"KELURAHAN SALUBARANI","postal_code":"50663"},{"id":"7318021006","district_id":"7318021","name":"LEMBANG BANTENG DEATA","postal_code":"92861"},{"id":"7318021007","district_id":"7318021","name":"LEMBANG BUNTU LIMBONG","postal_code":"92861"},{"id":"7318021008","district_id":"7318021","name":"LEMBANG BUNTU TABANG","postal_code":"92861"},{"id":"7318021009","district_id":"7318021","name":"LEMBANG SILLANAN","postal_code":"15540"},{"id":"7318021010","district_id":"7318021","name":"LEMBANG PEMANUKAN","postal_code":"91371"},{"id":"7318021011","district_id":"7318021","name":"LEMBANG PERINDINGAN","postal_code":"91371"},{"id":"7318021012","district_id":"7318021","name":"KELURAHAN MEBALI","postal_code":"50663"}]