[{"id":"7318052001","district_id":"7318052","name":"KELURAHAN TALION","postal_code":"50663"},{"id":"7318052002","district_id":"7318052","name":"LEMBANG LIMBONG","postal_code":"91413"},{"id":"7318052003","district_id":"7318052","name":"LEMBANG SARAPEANG","postal_code":"91371"},{"id":"7318052004","district_id":"7318052","name":"LEMBANG BANGA","postal_code":"92861"},{"id":"7318052005","district_id":"7318052","name":"LEMBANG BURI","postal_code":"92861"},{"id":"7318052006","district_id":"7318052","name":"KELURAHAN  REMBON","postal_code":"50663"},{"id":"7318052007","district_id":"7318052","name":"LEMBANG ULLIN","postal_code":"15540"},{"id":"7318052008","district_id":"7318052","name":"LEMBANG MAROSON","postal_code":"91671"},{"id":"7318052009","district_id":"7318052","name":"LEMBANG PALESAN","postal_code":"91371"},{"id":"7318052010","district_id":"7318052","name":"LEMBANG KAYU OSING","postal_code":"92461"},{"id":"7318052011","district_id":"7318052","name":"LEMBANG BATU SURA","postal_code":"92861"},{"id":"7318052012","district_id":"7318052","name":"LEMBANG TO  PAO","postal_code":"15540"},{"id":"7318052013","district_id":"7318052","name":"LEMBANG BUA TARUNG","postal_code":"92861"}]