[{"id":"7322050001","district_id":"7322050","name":"PONGKO","postal_code":"91966"},{"id":"7322050002","district_id":"7322050","name":"BATANG TONGKA","postal_code":"91966"},{"id":"7322050003","district_id":"7322050","name":"TAMUKU","postal_code":"91966"},{"id":"7322050014","district_id":"7322050","name":"SIDOMUKTI","postal_code":"62363"},{"id":"7322050015","district_id":"7322050","name":"BANYU URIP","postal_code":"35686"},{"id":"7322050016","district_id":"7322050","name":"SUKARAYA","postal_code":"32112"},{"id":"7322050017","district_id":"7322050","name":"MUKTISARI","postal_code":"45467"},{"id":"7322050018","district_id":"7322050","name":"PATOLOAN","postal_code":"91966"},{"id":"7322050019","district_id":"7322050","name":"BONE BONE","postal_code":"93674"},{"id":"7322050020","district_id":"7322050","name":"BANTIMURUNG","postal_code":"90561"},{"id":"7322050021","district_id":"7322050","name":"UPT BANTIMURUNG","postal_code":"96271"},{"id":"7322050022","district_id":"7322050","name":"SADAR","postal_code":"91966"}]