[{"id":"7326200001","district_id":"7326200","name":"LEMBANG PARANDANGAN","postal_code":"91371"},{"id":"7326200002","district_id":"7326200","name":"LEMBANG BUNTU MINANGA","postal_code":"92861"},{"id":"7326200003","district_id":"7326200","name":"LEMBANG SARAMBU","postal_code":"91371"},{"id":"7326200004","district_id":"7326200","name":"KELURAHAN SAPAN","postal_code":"50663"},{"id":"7326200005","district_id":"7326200","name":"LEMBANG RATTE UMA","postal_code":"91371"},{"id":"7326200006","district_id":"7326200","name":"LEMBANG PULU-PULU","postal_code":"91371"},{"id":"7326200007","district_id":"7326200","name":"LEMBANG PENGKAROAN MANUK","postal_code":"91371"},{"id":"7326200008","district_id":"7326200","name":"LEMBANG BATU BUSA","postal_code":"92861"},{"id":"7326200009","district_id":"7326200","name":"LEMBANG ROROAN BARRA'-BARRA'","postal_code":"91371"},{"id":"7326200010","district_id":"7326200","name":"LEMBANG PANGKUNG BATU","postal_code":"91371"},{"id":"7326200011","district_id":"7326200","name":"LEMBANG PONGLU","postal_code":"91371"},{"id":"7326200012","district_id":"7326200","name":"LEMBANG PAONGANAN","postal_code":"91371"},{"id":"7326200013","district_id":"7326200","name":"LEMBANG TALIMBANGAN","postal_code":"15540"}]