[{"id":"7371090001","district_id":"7371090","name":"BUNGA EJA BERU","postal_code":"90211"},{"id":"7371090002","district_id":"7371090","name":"LEMBO","postal_code":"93661"},{"id":"7371090003","district_id":"7371090","name":"KALUKUANG","postal_code":"92255"},{"id":"7371090004","district_id":"7371090","name":"LA'LATANG","postal_code":"97599"},{"id":"7371090005","district_id":"7371090","name":"RAPPOJAWA","postal_code":"90215"},{"id":"7371090006","district_id":"7371090","name":"TAMMUA","postal_code":"90216"},{"id":"7371090007","district_id":"7371090","name":"RAPPOKALLING","postal_code":"90216"},{"id":"7371090008","district_id":"7371090","name":"WALA-WALAYA","postal_code":"90217"},{"id":"7371090009","district_id":"7371090","name":"UJUNG PANDANG BARU","postal_code":"23894"},{"id":"7371090010","district_id":"7371090","name":"SUWANGGA","postal_code":"90211"},{"id":"7371090011","district_id":"7371090","name":"PANNAMPU","postal_code":"90213"},{"id":"7371090012","district_id":"7371090","name":"KALUKU BODOA","postal_code":"90215"},{"id":"7371090013","district_id":"7371090","name":"BULOA","postal_code":"90212"},{"id":"7371090014","district_id":"7371090","name":"TALLO","postal_code":"90212"},{"id":"7371090015","district_id":"7371090","name":"LAKKANG","postal_code":"90211"}]