[{"id":"7401060006","district_id":"7401060","name":"KONDOWA","postal_code":"93754"},{"id":"7401060007","district_id":"7401060","name":"DONGKALA","postal_code":"93754"},{"id":"7401060008","district_id":"7401060","name":"HOLIMOMBO","postal_code":"93754"},{"id":"7401060009","district_id":"7401060","name":"TAKIMPO","postal_code":"93754"},{"id":"7401060010","district_id":"7401060","name":"KOMBELI","postal_code":"93754"},{"id":"7401060011","district_id":"7401060","name":"AWAINULU","postal_code":"93754"},{"id":"7401060012","district_id":"7401060","name":"LABURUNCI","postal_code":"93754"},{"id":"7401060013","district_id":"7401060","name":"BANABUNGI","postal_code":"93752"},{"id":"7401060014","district_id":"7401060","name":"KAMBULA MBULANA","postal_code":"24161"},{"id":"7401060015","district_id":"7401060","name":"PASAR WAJO","postal_code":"20771"},{"id":"7401060016","district_id":"7401060","name":"SARAGI","postal_code":"91951"},{"id":"7401060017","district_id":"7401060","name":"KAONGKEOKEA","postal_code":"71575"},{"id":"7401060018","district_id":"7401060","name":"WAANGU-ANGU","postal_code":"99655"},{"id":"7401060019","district_id":"7401060","name":"WARINTA","postal_code":"93754"},{"id":"7401060020","district_id":"7401060","name":"LAPODI","postal_code":"93754"},{"id":"7401060021","district_id":"7401060","name":"WAKOKO","postal_code":"93657"},{"id":"7401060022","district_id":"7401060","name":"WASAGA","postal_code":"93754"},{"id":"7401060023","district_id":"7401060","name":"KANCINAA","postal_code":"93754"},{"id":"7401060024","district_id":"7401060","name":"WINNING","postal_code":"93754"},{"id":"7401060029","district_id":"7401060","name":"HOLIMOMBO JAYA","postal_code":"93754"},{"id":"7401060030","district_id":"7401060","name":"KABAWOKOLE","postal_code":"39372"},{"id":"7401060031","district_id":"7401060","name":"MANTOWU","postal_code":"93754"}]