[{"id":"7402010006","district_id":"7402010","name":"OENO KANDOLI","postal_code":"85981"},{"id":"7402010007","district_id":"7402010","name":"MATANO OE","postal_code":"93662"},{"id":"7402010008","district_id":"7402010","name":"WALENGKABHOLA","postal_code":"57683"},{"id":"7402010011","district_id":"7402010","name":"LAMORENDE","postal_code":"93662"},{"id":"7402010012","district_id":"7402010","name":"LAANO SANDANA","postal_code":"93672"},{"id":"7402010013","district_id":"7402010","name":"FONGKANIWA","postal_code":"93662"},{"id":"7402010014","district_id":"7402010","name":"TOMBULA","postal_code":"93662"},{"id":"7402010015","district_id":"7402010","name":"DANAGOA","postal_code":"93662"},{"id":"7402010016","district_id":"7402010","name":"LAGHONTOGHE","postal_code":"95862"},{"id":"7402010017","district_id":"7402010","name":"KONTUMOLEPE","postal_code":"93662"},{"id":"7402010018","district_id":"7402010","name":"LAKOLOGOU","postal_code":"93662"},{"id":"7402010019","district_id":"7402010","name":"UP. WUNA","postal_code":"42111"},{"id":"7402010020","district_id":"7402010","name":"LALOYA","postal_code":"93572"},{"id":"7402010021","district_id":"7402010","name":"TONGKUNO","postal_code":"94681"}]