[{"id":"7403180012","district_id":"7403180","name":"KUMAPO","postal_code":"93452"},{"id":"7403180013","district_id":"7403180","name":"WALAY","postal_code":"93452"},{"id":"7403180014","district_id":"7403180","name":"EPEEA","postal_code":"98763"},{"id":"7403180015","district_id":"7403180","name":"UNAASI JAYA","postal_code":"93417"},{"id":"7403180016","district_id":"7403180","name":"SAMBEANI","postal_code":"93452"},{"id":"7403180017","district_id":"7403180","name":"PUNGGALUKU","postal_code":"93881"},{"id":"7403180018","district_id":"7403180","name":"ABUKI","postal_code":"93452"},{"id":"7403180025","district_id":"7403180","name":"ASOLU","postal_code":"93452"},{"id":"7403180035","district_id":"7403180","name":"PADANGGUNI UTAMA","postal_code":"93452"},{"id":"7403180042","district_id":"7403180","name":"ARUBIA","postal_code":"93452"},{"id":"7403180043","district_id":"7403180","name":"KASUWURA","postal_code":"98455"},{"id":"7403180044","district_id":"7403180","name":"ANGGORO","postal_code":"93464"}]