[{"id":"7403103001","district_id":"7403103","name":"LAMENDORA","postal_code":"93354"},{"id":"7403103002","district_id":"7403103","name":"KAPOI ALA","postal_code":"99661"},{"id":"7403103003","district_id":"7403103","name":"SAMBARAASI","postal_code":"93354"},{"id":"7403103004","district_id":"7403103","name":"LABOTOY","postal_code":"93354"},{"id":"7403103005","district_id":"7403103","name":"PEREOA","postal_code":"37255"},{"id":"7403103006","district_id":"7403103","name":"LALIMBUE","postal_code":"93354"},{"id":"7403103007","district_id":"7403103","name":"MUARA SAMPARA","postal_code":"93354"},{"id":"7403103008","district_id":"7403103","name":"ULU LALIMBUE","postal_code":"93354"},{"id":"7403103009","district_id":"7403103","name":"LALIMBUE JAYA","postal_code":"93354"},{"id":"7403103010","district_id":"7403103","name":"TANI INDAH","postal_code":"93354"},{"id":"7403103011","district_id":"7403103","name":"TOMBAWATU","postal_code":"93354"},{"id":"7403103012","district_id":"7403103","name":"KAPOIALA BARU","postal_code":"93354"},{"id":"7403103013","district_id":"7403103","name":"LABOTOY JAYA","postal_code":"93354"},{"id":"7403103014","district_id":"7403103","name":"LALONGGOMUNO","postal_code":"93354"},{"id":"7403103015","district_id":"7403103","name":"LABOTA","postal_code":"94974"}]