[{"id":"7403181001","district_id":"7403181","name":"AMBEKAERI UTAMA","postal_code":"93461"},{"id":"7403181002","district_id":"7403181","name":"LATOMA JAYA","postal_code":"93461"},{"id":"7403181003","district_id":"7403181","name":"WAWORAHA","postal_code":"93352"},{"id":"7403181004","district_id":"7403181","name":"LALOWATA","postal_code":"93461"},{"id":"7403181005","district_id":"7403181","name":"ANDOLUTO","postal_code":"93461"},{"id":"7403181006","district_id":"7403181","name":"WOWALATOMA","postal_code":"93915"},{"id":"7403181007","district_id":"7403181","name":"AMBONIKI","postal_code":"93461"},{"id":"7403181008","district_id":"7403181","name":"PINOLE","postal_code":"93461"},{"id":"7403181009","district_id":"7403181","name":"TITOWA","postal_code":"95113"},{"id":"7403181010","district_id":"7403181","name":"NESOWI","postal_code":"93461"},{"id":"7403181011","district_id":"7403181","name":"ANGONGA","postal_code":"69491"},{"id":"7403181012","district_id":"7403181","name":"AMBESAUA","postal_code":"98171"},{"id":"7403181013","district_id":"7403181","name":"WATUTINAWU","postal_code":"86161"},{"id":"7403181014","district_id":"7403181","name":"PUULEMO","postal_code":"93352"},{"id":"7403181015","district_id":"7403181","name":"NESOWI UTAMA","postal_code":"93461"},{"id":"7403181016","district_id":"7403181","name":"NAPOOHA","postal_code":"69291"}]