[{"id":"7403131001","district_id":"7403131","name":"BARUGA","postal_code":"90561"},{"id":"7403131002","district_id":"7403131","name":"LANGGOMEA","postal_code":"93552"},{"id":"7403131003","district_id":"7403131","name":"MATAHOALU","postal_code":"93464"},{"id":"7403131004","district_id":"7403131","name":"TAWAROTEBOTA","postal_code":"93464"},{"id":"7403131005","district_id":"7403131","name":"TAWAMELEWE","postal_code":"93464"},{"id":"7403131006","district_id":"7403131","name":"UEPAI","postal_code":"93464"},{"id":"7403131007","district_id":"7403131","name":"AMERORO","postal_code":"93464"},{"id":"7403131008","district_id":"7403131","name":"AMAROA","postal_code":"93464"},{"id":"7403131009","district_id":"7403131","name":"R A W U A","postal_code":"34164"},{"id":"7403131010","district_id":"7403131","name":"ANGGOPIU","postal_code":"93464"},{"id":"7403131011","district_id":"7403131","name":"OLO-OLOHO","postal_code":"94479"},{"id":"7403131012","district_id":"7403131","name":"HUMBOTO","postal_code":"95863"},{"id":"7403131013","district_id":"7403131","name":"KASAEDA","postal_code":"93772"},{"id":"7403131014","district_id":"7403131","name":"TANGGONDIPO","postal_code":"93354"},{"id":"7403131015","district_id":"7403131","name":"TAMESANDI","postal_code":"23893"},{"id":"7403131016","district_id":"7403131","name":"MOOREHE","postal_code":"98861"},{"id":"7403131017","district_id":"7403131","name":"ANGGAWO","postal_code":"61258"},{"id":"7403131018","district_id":"7403131","name":"PUURODA JAYA","postal_code":"93561"},{"id":"7403131019","district_id":"7403131","name":"PANGGULAWU","postal_code":"66364"}]