[{"id":"7404011001","district_id":"7404011","name":"TONDOWOLIO","postal_code":"93563"},{"id":"7404011002","district_id":"7404011","name":"POPALIA","postal_code":"93794"},{"id":"7404011003","district_id":"7404011","name":"ANAIWOI","postal_code":"93563"},{"id":"7404011004","district_id":"7404011","name":"TANGGETADA","postal_code":"93563"},{"id":"7404011005","district_id":"7404011","name":"PETUDUA","postal_code":"93563"},{"id":"7404011006","district_id":"7404011","name":"RAHANGGADA","postal_code":"93563"},{"id":"7404011007","district_id":"7404011","name":"PEWISOA JAYA","postal_code":"24452"},{"id":"7404011008","district_id":"7404011","name":"LALONGGOLOSUA","postal_code":"93563"},{"id":"7404011009","district_id":"7404011","name":"LAMEDAI","postal_code":"93563"},{"id":"7404011010","district_id":"7404011","name":"PALEWAI","postal_code":"93563"},{"id":"7404011011","district_id":"7404011","name":"ONEEHA","postal_code":"93563"},{"id":"7404011012","district_id":"7404011","name":"PUUNDAIPA","postal_code":"93563"},{"id":"7404011013","district_id":"7404011","name":"LAMOIKO","postal_code":"93563"},{"id":"7404011014","district_id":"7404011","name":"TINGGO","postal_code":"98915"}]