[{"id":"7405101001","district_id":"7405101","name":"WUURA","postal_code":"93873"},{"id":"7405101002","district_id":"7405101","name":"LAMOLORI","postal_code":"79283"},{"id":"7405101003","district_id":"7405101","name":"RAKAWUTA","postal_code":"93873"},{"id":"7405101004","district_id":"7405101","name":"TOLUWONUA","postal_code":"93873"},{"id":"7405101005","district_id":"7405101","name":"MOWILA","postal_code":"93873"},{"id":"7405101006","district_id":"7405101","name":"PUDAHOA","postal_code":"56196"},{"id":"7405101007","district_id":"7405101","name":"PUWEHUKO","postal_code":"93873"},{"id":"7405101008","district_id":"7405101","name":"KONDOANO","postal_code":"93873"},{"id":"7405101009","district_id":"7405101","name":"MULYA SARI","postal_code":"34683"},{"id":"7405101010","district_id":"7405101","name":"MONAPA","postal_code":"93873"},{"id":"7405101011","district_id":"7405101","name":"RANO MBAYASA","postal_code":"93873"},{"id":"7405101012","district_id":"7405101","name":"PUNGGULAHI","postal_code":"93352"},{"id":"7405101013","district_id":"7405101","name":"RANO AOPA","postal_code":"93873"},{"id":"7405101014","district_id":"7405101","name":"LALOSINGI","postal_code":"93873"},{"id":"7405101015","district_id":"7405101","name":"MATAIWOI","postal_code":"93352"},{"id":"7405101016","district_id":"7405101","name":"WONUA KONGGA","postal_code":"93881"},{"id":"7405101017","district_id":"7405101","name":"LAMEBARA","postal_code":"85763"},{"id":"7405101018","district_id":"7405101","name":"WONUA SARI","postal_code":"93873"},{"id":"7405101019","district_id":"7405101","name":"TETESINGI","postal_code":"93873"},{"id":"7405101020","district_id":"7405101","name":"WONUA MONAPA","postal_code":"93873"}]