[{"id":"7405050001","district_id":"7405050","name":"PUUPI","postal_code":"93352"},{"id":"7405050002","district_id":"7405050","name":"TIRAOSU","postal_code":"93395"},{"id":"7405050003","district_id":"7405050","name":"WAWORANO","postal_code":"93395"},{"id":"7405050004","district_id":"7405050","name":"MATANDAHI","postal_code":"93352"},{"id":"7405050005","district_id":"7405050","name":"MATAIWOI","postal_code":"93352"},{"id":"7405050006","district_id":"7405050","name":"ANDINETE","postal_code":"26255"},{"id":"7405050007","district_id":"7405050","name":"LANGGOWALA","postal_code":"93395"},{"id":"7405050008","district_id":"7405050","name":"WAWOOSU","postal_code":"93395"},{"id":"7405050009","district_id":"7405050","name":"SAWAH","postal_code":"29511"},{"id":"7405050010","district_id":"7405050","name":"KOLONO","postal_code":"94973"},{"id":"7405050011","district_id":"7405050","name":"MONDOE JAYA","postal_code":"93395"},{"id":"7405050012","district_id":"7405050","name":"ULUSENA JAYA","postal_code":"93395"},{"id":"7405050013","district_id":"7405050","name":"LAMOTAU","postal_code":"93395"},{"id":"7405050014","district_id":"7405050","name":"AWUNIO","postal_code":"93395"},{"id":"7405050015","district_id":"7405050","name":"MELETUMBO","postal_code":"54363"},{"id":"7405050016","district_id":"7405050","name":"RODA","postal_code":"93395"},{"id":"7405050017","district_id":"7405050","name":"LAMAPU","postal_code":"93395"},{"id":"7405050028","district_id":"7405050","name":"SILEA","postal_code":"93395"},{"id":"7405050029","district_id":"7405050","name":"ALOSI","postal_code":"93395"},{"id":"7405050030","district_id":"7405050","name":"SARANDUA","postal_code":"93395"},{"id":"7405050031","district_id":"7405050","name":"PUUDONGI","postal_code":"93395"}]