[{"id":"7405100007","district_id":"7405100","name":"ENDANGA","postal_code":"93873"},{"id":"7405100008","district_id":"7405100","name":"AMOTOWO","postal_code":"93873"},{"id":"7405100009","district_id":"7405100","name":"LANDONO","postal_code":"93873"},{"id":"7405100010","district_id":"7405100","name":"ARONGO","postal_code":"93873"},{"id":"7405100011","district_id":"7405100","name":"TRIDANA MULYA","postal_code":"93873"},{"id":"7405100012","district_id":"7405100","name":"LALONGGAPU","postal_code":"93873"},{"id":"7405100013","district_id":"7405100","name":"WATA BENUA","postal_code":"94976"},{"id":"7405100014","district_id":"7405100","name":"ABENGGI","postal_code":"93873"},{"id":"7405100015","district_id":"7405100","name":"LANDONO II","postal_code":"93873"},{"id":"7405100033","district_id":"7405100","name":"WONUA SANGIA","postal_code":"93873"},{"id":"7405100035","district_id":"7405100","name":"MORINI MULYA","postal_code":"93873"},{"id":"7405100036","district_id":"7405100","name":"LAKOMEA","postal_code":"93873"},{"id":"7405100043","district_id":"7405100","name":"UPT ARONGO","postal_code":"96271"}]