[{"id":"7405021001","district_id":"7405021","name":"PELANDIA","postal_code":"93812"},{"id":"7405021002","district_id":"7405021","name":"PUUDARIA JAYA","postal_code":"93812"},{"id":"7405021003","district_id":"7405021","name":"RAHA MENDA JAYA","postal_code":"93819"},{"id":"7405021005","district_id":"7405021","name":"ANDOOLO UTAMA","postal_code":"67165"},{"id":"7405021006","district_id":"7405021","name":"SILEA JAYA","postal_code":"93814"},{"id":"7405021007","district_id":"7405021","name":"TIRTA MARTANI","postal_code":"30962"},{"id":"7405021008","district_id":"7405021","name":"TETENGGOLASA","postal_code":"93814"},{"id":"7405021009","district_id":"7405021","name":"ASEMBU MULYA","postal_code":"93819"},{"id":"7405021010","district_id":"7405021","name":"AWALO","postal_code":"93875"},{"id":"7405021011","district_id":"7405021","name":"ADAKA JAYA","postal_code":"93815"},{"id":"7405021012","district_id":"7405021","name":"ANGGOKOTI","postal_code":"93819"},{"id":"7405021013","district_id":"7405021","name":"UPT ADAYU INDAH","postal_code":"96271"},{"id":"7405021015","district_id":"7405021","name":"WONUA MAROA","postal_code":"93881"},{"id":"7405021016","district_id":"7405021","name":"RANOOHA LESTARI","postal_code":"93814"}]