[{"id":"7405030011","district_id":"7405030","name":"MEKAR SARI","postal_code":"15129"},{"id":"7405030012","district_id":"7405030","name":"WAWOURU","postal_code":"93883"},{"id":"7405030013","district_id":"7405030","name":"WAWORAHA","postal_code":"93352"},{"id":"7405030014","district_id":"7405030","name":"ALAKAYA","postal_code":"93883"},{"id":"7405030015","district_id":"7405030","name":"AOSOLE","postal_code":"93883"},{"id":"7405030016","district_id":"7405030","name":"ANGGONDARA","postal_code":"93883"},{"id":"7405030017","district_id":"7405030","name":"ONEMBUTE","postal_code":"93883"},{"id":"7405030018","district_id":"7405030","name":"EEWA","postal_code":"93883"},{"id":"7405030019","district_id":"7405030","name":"WATUMEREMBE","postal_code":"93883"},{"id":"7405030020","district_id":"7405030","name":"WAWONGGURA","postal_code":"93883"},{"id":"7405030021","district_id":"7405030","name":"KIAEA","postal_code":"93883"},{"id":"7405030022","district_id":"7405030","name":"PALANGGA","postal_code":"93659"},{"id":"7405030030","district_id":"7405030","name":"KAPU JAYA","postal_code":"93883"},{"id":"7405030032","district_id":"7405030","name":"WATUDEMBA","postal_code":"93883"},{"id":"7405030033","district_id":"7405030","name":"SANGGI-SANGGI","postal_code":"23892"},{"id":"7405030034","district_id":"7405030","name":"WONUA MORINI","postal_code":"93354"}]