[{"id":"7405010001","district_id":"7405010","name":"LANOWULU","postal_code":"93885"},{"id":"7405010002","district_id":"7405010","name":"RORAYA","postal_code":"93885"},{"id":"7405010005","district_id":"7405010","name":"TELUTU JAYA","postal_code":"93885"},{"id":"7405010006","district_id":"7405010","name":"LAPOA","postal_code":"93885"},{"id":"7405010007","district_id":"7405010","name":"ASINGI","postal_code":"93885"},{"id":"7405010008","district_id":"7405010","name":"NGAPAAHA","postal_code":"93885"},{"id":"7405010009","district_id":"7405010","name":"TINANGGEA","postal_code":"93885"},{"id":"7405010010","district_id":"7405010","name":"BUNGIN PERMAI","postal_code":"93885"},{"id":"7405010011","district_id":"7405010","name":"TOROKEKU","postal_code":"93885"},{"id":"7405010012","district_id":"7405010","name":"LAPULU","postal_code":"93352"},{"id":"7405010013","district_id":"7405010","name":"WADONGGO","postal_code":"93663"},{"id":"7405010014","district_id":"7405010","name":"WATUMELEWE","postal_code":"93885"},{"id":"7405010015","district_id":"7405010","name":"MOOLO INDAH","postal_code":"93885"},{"id":"7405010016","district_id":"7405010","name":"LALONGGASU","postal_code":"93885"},{"id":"7405010017","district_id":"7405010","name":"PALO TAWO","postal_code":"93885"},{"id":"7405010038","district_id":"7405010","name":"LALOWATU","postal_code":"93461"},{"id":"7405010039","district_id":"7405010","name":"RAPEA","postal_code":"24173"},{"id":"7405010040","district_id":"7405010","name":"TATANGGE","postal_code":"93885"},{"id":"7405010041","district_id":"7405010","name":"BOMBA-BOMBA","postal_code":"93885"},{"id":"7405010042","district_id":"7405010","name":"PONGGOSI","postal_code":"98912"},{"id":"7405010043","district_id":"7405010","name":"MATANDAHI","postal_code":"93352"},{"id":"7405010044","district_id":"7405010","name":"MATAMBAWI","postal_code":"93885"},{"id":"7405010045","district_id":"7405010","name":"AKUNI","postal_code":"93885"},{"id":"7405010046","district_id":"7405010","name":"WUNDUMBOLO","postal_code":"93885"},{"id":"7405010047","district_id":"7405010","name":"LASUAI","postal_code":"93885"}]