[{"id":"7408040003","district_id":"7408040","name":"NGAPA","postal_code":"93958"},{"id":"7408040004","district_id":"7408040","name":"TADOUMERA","postal_code":"91852"},{"id":"7408040005","district_id":"7408040","name":"LAPAI","postal_code":"93958"},{"id":"7408040006","district_id":"7408040","name":"KOREIHA","postal_code":"93958"},{"id":"7408040007","district_id":"7408040","name":"LAWOLATU","postal_code":"93958"},{"id":"7408040011","district_id":"7408040","name":"PUURAU","postal_code":"93393"},{"id":"7408040014","district_id":"7408040","name":"PARUTELLANG","postal_code":"93664"},{"id":"7408040015","district_id":"7408040","name":"WATU MUTAHA","postal_code":"86571"},{"id":"7408040016","district_id":"7408040","name":"BERINGIN","postal_code":"72273"},{"id":"7408040017","district_id":"7408040","name":"PADAELO","postal_code":"90983"},{"id":"7408040018","district_id":"7408040","name":"NIMBUNEHA","postal_code":"93955"},{"id":"7408040019","district_id":"7408040","name":"MATAIWOI","postal_code":"93352"}]