[{"id":"7409100009","district_id":"7409100","name":"BONEGUNU(KIOKO)","postal_code":"93673"},{"id":"7409100010","district_id":"7409100","name":"LAANOIPI","postal_code":"93673"},{"id":"7409100011","district_id":"7409100","name":"WAODE KALOWO","postal_code":"93673"},{"id":"7409100012","district_id":"7409100","name":"BURANGA","postal_code":"93792"},{"id":"7409100013","district_id":"7409100","name":"EEN SUMALA","postal_code":"93673"},{"id":"7409100014","district_id":"7409100","name":"WAODE ANGKALO","postal_code":"93673"},{"id":"7409100015","district_id":"7409100","name":"GUNUNG SARI","postal_code":"34767"},{"id":"7409100016","district_id":"7409100","name":"RONTA","postal_code":"94966"},{"id":"7409100017","district_id":"7409100","name":"KOEPISINO","postal_code":"93673"},{"id":"7409100018","district_id":"7409100","name":"LANGERE","postal_code":"93673"},{"id":"7409100019","district_id":"7409100","name":"KOBORUNO","postal_code":"93673"},{"id":"7409100020","district_id":"7409100","name":"DAMAI LABORONA","postal_code":"93673"},{"id":"7409100021","district_id":"7409100","name":"TOTOMBULI","postal_code":"86472"},{"id":"7409100022","district_id":"7409100","name":"NGAPAEA","postal_code":"94975"},{"id":"7409100023","district_id":"7409100","name":"RANTE GOLA","postal_code":"93673"}]