[{"id":"7410050008","district_id":"7410050","name":"WANGGUDU","postal_code":"93353"},{"id":"7410050009","district_id":"7410050","name":"TANGGULURI","postal_code":"41271"},{"id":"7410050010","district_id":"7410050","name":"WUNDUHAKA","postal_code":"93353"},{"id":"7410050011","district_id":"7410050","name":"WANGGUDU RAYA","postal_code":"93353"},{"id":"7410050012","district_id":"7410050","name":"WALALINDU","postal_code":"93353"},{"id":"7410050013","district_id":"7410050","name":"TAPUWATU","postal_code":"93353"},{"id":"7410050014","district_id":"7410050","name":"WALASOLO","postal_code":"93353"},{"id":"7410050015","district_id":"7410050","name":"A S E R A","postal_code":"90552"},{"id":"7410050016","district_id":"7410050","name":"AMOROME","postal_code":"93353"},{"id":"7410050017","district_id":"7410050","name":"ASEMI NUNULAI","postal_code":"52361"},{"id":"7410050018","district_id":"7410050","name":"WAWOLIMBUE","postal_code":"93353"},{"id":"7410050049","district_id":"7410050","name":"LONGEO UTAMA","postal_code":"71292"},{"id":"7410050050","district_id":"7410050","name":"PUUNGGOMOSI","postal_code":"93353"},{"id":"7410050051","district_id":"7410050","name":"PUUWANGGUDU","postal_code":"93353"},{"id":"7410050052","district_id":"7410050","name":"KOTA MULIA","postal_code":"24186"},{"id":"7410050053","district_id":"7410050","name":"AMOROME UTAMA","postal_code":"93353"},{"id":"7410050054","district_id":"7410050","name":"OHEO TRANS","postal_code":"99582"},{"id":"7410050055","district_id":"7410050","name":"ALA WANGGUDU","postal_code":"72275"},{"id":"7410050056","district_id":"7410050","name":"ANDEDAO","postal_code":"98315"}]