[{"id":"7410060001","district_id":"7410060","name":"SARI MUKTI (UPT.HIALU IV)","postal_code":"93352"},{"id":"7410060002","district_id":"7410060","name":"LANGGI KIMA (UPT.HIALU III)","postal_code":"93353"},{"id":"7410060003","district_id":"7410060","name":"MOLORE","postal_code":"93352"},{"id":"7410060004","district_id":"7410060","name":"LAMERURU","postal_code":"93352"},{"id":"7410060005","district_id":"7410060","name":"UPT.MOROMBO\/TOBIMEITA","postal_code":"39265"},{"id":"7410060006","district_id":"7410060","name":"PARIAMA","postal_code":"93352"},{"id":"7410060007","district_id":"7410060","name":"POLORA INDAH","postal_code":"93352"},{"id":"7410060008","district_id":"7410060","name":"ALENGGO","postal_code":"93352"},{"id":"7410060009","district_id":"7410060","name":"MEKAR JAYA","postal_code":"34683"},{"id":"7410060010","district_id":"7410060","name":"MOLORE PANTAI","postal_code":"93352"},{"id":"7410060011","district_id":"7410060","name":"NGAPAINIA","postal_code":"94975"},{"id":"7410060012","district_id":"7410060","name":"MOROMBO PANTAI","postal_code":"93352"}]