[{"id":"7410052001","district_id":"7410052","name":"LAROONAHA","postal_code":"93353"},{"id":"7410052002","district_id":"7410052","name":"BANDAEHA","postal_code":"93352"},{"id":"7410052003","district_id":"7410052","name":"KOTA MAJU","postal_code":"93353"},{"id":"7410052004","district_id":"7410052","name":"LAMEORU","postal_code":"93353"},{"id":"7410052005","district_id":"7410052","name":"LANDAWE","postal_code":"93353"},{"id":"7410052006","district_id":"7410052","name":"WALANDAWE","postal_code":"93353"},{"id":"7410052007","district_id":"7410052","name":"WIWIRANO","postal_code":"93353"},{"id":"7410052008","district_id":"7410052","name":"MOPUTE","postal_code":"93353"},{"id":"7410052009","district_id":"7410052","name":"TODOLOIYO","postal_code":"97793"},{"id":"7410052010","district_id":"7410052","name":"PUUHIALU","postal_code":"93353"},{"id":"7410052011","district_id":"7410052","name":"LINOMOIYO","postal_code":"93353"},{"id":"7410052012","district_id":"7410052","name":"BENDE WUTA","postal_code":"93561"},{"id":"7410052013","district_id":"7410052","name":"TODOLOIYO TRANS","postal_code":"93353"},{"id":"7410052014","district_id":"7410052","name":"SAMBANDETE","postal_code":"93353"},{"id":"7410052015","district_id":"7410052","name":"PAKA INDAH","postal_code":"93353"},{"id":"7410052016","district_id":"7410052","name":"TINONDO","postal_code":"93353"},{"id":"7410052017","district_id":"7410052","name":"HOROE","postal_code":"93875"}]