[{"id":"7410030027","district_id":"7410030","name":"ABOLA","postal_code":"93352"},{"id":"7410030028","district_id":"7410030","name":"BELALO","postal_code":"93352"},{"id":"7410030029","district_id":"7410030","name":"ANDEO","postal_code":"93352"},{"id":"7410030030","district_id":"7410030","name":"MATAPILA","postal_code":"93352"},{"id":"7410030031","district_id":"7410030","name":"LAMETONO","postal_code":"93352"},{"id":"7410030032","district_id":"7410030","name":"ANDUMOWU","postal_code":"93352"},{"id":"7410030033","district_id":"7410030","name":"BASULE","postal_code":"93352"},{"id":"7410030034","district_id":"7410030","name":"T I N O B U","postal_code":"98161"},{"id":"7410030035","district_id":"7410030","name":"WAWORAHA","postal_code":"93352"},{"id":"7410030036","district_id":"7410030","name":"OTOLE","postal_code":"93352"},{"id":"7410030037","district_id":"7410030","name":"WATUKILA","postal_code":"93352"},{"id":"7410030048","district_id":"7410030","name":"LARODANGGE","postal_code":"93352"},{"id":"7410030053","district_id":"7410030","name":"TETELUPAI","postal_code":"93352"},{"id":"7410030054","district_id":"7410030","name":"LALOWARU","postal_code":"93352"},{"id":"7410030055","district_id":"7410030","name":"MUARA TINOBU","postal_code":"93352"}]