[{"id":"7414020001","district_id":"7414020","name":"WAKAMBANGURA","postal_code":"93762"},{"id":"7414020002","district_id":"7414020","name":"KANCE BUNGI","postal_code":"93762"},{"id":"7414020003","district_id":"7414020","name":"GUMAMANO","postal_code":"93762"},{"id":"7414020006","district_id":"7414020","name":"MATARA","postal_code":"99651"},{"id":"7414020007","district_id":"7414020","name":"WASILOMATA I","postal_code":"93762"},{"id":"7414020008","district_id":"7414020","name":"WASILOMATA II","postal_code":"93762"},{"id":"7414020009","district_id":"7414020","name":"NAPA","postal_code":"22732"},{"id":"7414020010","district_id":"7414020","name":"BALOBONE","postal_code":"93762"},{"id":"7414020011","district_id":"7414020","name":"WATOLO","postal_code":"86682"},{"id":"7414020012","district_id":"7414020","name":"MAWASANGKA","postal_code":"93762"},{"id":"7414020013","district_id":"7414020","name":"OENGKOLAKI","postal_code":"93671"},{"id":"7414020014","district_id":"7414020","name":"BANGA","postal_code":"99578"},{"id":"7414020027","district_id":"7414020","name":"POLINDU","postal_code":"93762"},{"id":"7414020028","district_id":"7414020","name":"TANAILANDU","postal_code":"93762"},{"id":"7414020029","district_id":"7414020","name":"KANAPA NAPA","postal_code":"98611"},{"id":"7414020030","district_id":"7414020","name":"TERAPUNG","postal_code":"93762"},{"id":"7414020031","district_id":"7414020","name":"DAHIANGO","postal_code":"74453"},{"id":"7414020032","district_id":"7414020","name":"WAKAMBANGURA II","postal_code":"93762"},{"id":"7414020033","district_id":"7414020","name":"AIR BAJO","postal_code":"93762"}]