[{"id":"7414050001","district_id":"7414050","name":"MADONGKA","postal_code":"93763"},{"id":"7414050002","district_id":"7414050","name":"WAARA","postal_code":"93763"},{"id":"7414050003","district_id":"7414050","name":"BONEOGE","postal_code":"94351"},{"id":"7414050004","district_id":"7414050","name":"NEPA MEKAR","postal_code":"93763"},{"id":"7414050005","district_id":"7414050","name":"GU TIMUR","postal_code":"68261"},{"id":"7414050006","district_id":"7414050","name":"LAKUDO","postal_code":"93763"},{"id":"7414050007","district_id":"7414050","name":"MATAWINE","postal_code":"93763"},{"id":"7414050008","district_id":"7414050","name":"MONE","postal_code":"93763"},{"id":"7414050009","district_id":"7414050","name":"MOKO","postal_code":"93763"},{"id":"7414050010","district_id":"7414050","name":"WAJOGU","postal_code":"93763"},{"id":"7414050012","district_id":"7414050","name":"LOLIBU","postal_code":"93763"},{"id":"7414050013","district_id":"7414050","name":"WONGKO LAKUDO","postal_code":"93763"},{"id":"7414050014","district_id":"7414050","name":"ONE WAARA","postal_code":"93763"},{"id":"7414050015","district_id":"7414050","name":"TELUK LASONGKO","postal_code":"28662"}]