[{"id":"7415030006","district_id":"7415030","name":"BANGUN","postal_code":"66365"},{"id":"7415030007","district_id":"7415030","name":"WAWOANGI","postal_code":"93753"},{"id":"7415030008","district_id":"7415030","name":"KATILOMBU","postal_code":"93753"},{"id":"7415030009","district_id":"7415030","name":"JAYABAKTI","postal_code":"43358"},{"id":"7415030010","district_id":"7415030","name":"TIRA","postal_code":"93753"},{"id":"7415030011","district_id":"7415030","name":"BAHARI","postal_code":"93793"},{"id":"7415030013","district_id":"7415030","name":"GERAK MAKMUR","postal_code":"93753"},{"id":"7415030020","district_id":"7415030","name":"TODOMBULU","postal_code":"93753"},{"id":"7415030021","district_id":"7415030","name":"SANDANG PANGAN","postal_code":"93753"},{"id":"7415030022","district_id":"7415030","name":"HENDEA","postal_code":"93753"},{"id":"7415030023","district_id":"7415030","name":"LIPUMANGAU","postal_code":"93753"},{"id":"7415030024","district_id":"7415030","name":"WATIGINANDA","postal_code":"93753"},{"id":"7415030025","district_id":"7415030","name":"BAHARI II","postal_code":"93753"},{"id":"7415030026","district_id":"7415030","name":"BAHARI III","postal_code":"93753"},{"id":"7415030027","district_id":"7415030","name":"WINDU MAKMUR","postal_code":"93753"}]