[{"id":"7415040009","district_id":"7415040","name":"POGALAMPA","postal_code":"99556"},{"id":"7415040010","district_id":"7415040","name":"BOLA","postal_code":"90984"},{"id":"7415040011","district_id":"7415040","name":"MAJAPAHIT","postal_code":"92862"},{"id":"7415040012","district_id":"7415040","name":"MASIRI","postal_code":"93752"},{"id":"7415040013","district_id":"7415040","name":"LAOMPO","postal_code":"93752"},{"id":"7415040014","district_id":"7415040","name":"BUSOA","postal_code":"93752"},{"id":"7415040015","district_id":"7415040","name":"LAWELA","postal_code":"93752"},{"id":"7415040016","district_id":"7415040","name":"LAMPANAIRI","postal_code":"23363"},{"id":"7415040017","district_id":"7415040","name":"LAWELA SELATAN","postal_code":"93752"},{"id":"7415040018","district_id":"7415040","name":"LAKAMBAU","postal_code":"93752"},{"id":"7415040019","district_id":"7415040","name":"MOLAGINA","postal_code":"93752"},{"id":"7415040020","district_id":"7415040","name":"BANDAR BATAUGA","postal_code":"93752"}]