[{"id":"7502021001","district_id":"7502021","name":"MOLANIHU","postal_code":"96271"},{"id":"7502021002","district_id":"7502021","name":"BATULAYAR","postal_code":"96271"},{"id":"7502021003","district_id":"7502021","name":"MOLAS","postal_code":"95231"},{"id":"7502021004","district_id":"7502021","name":"TOHUPO","postal_code":"96271"},{"id":"7502021005","district_id":"7502021","name":"MOLOPATODU","postal_code":"96271"},{"id":"7502021006","district_id":"7502021","name":"UPOMELA","postal_code":"96271"},{"id":"7502021007","district_id":"7502021","name":"DULAMAYO","postal_code":"96128"},{"id":"7502021014","district_id":"7502021","name":"OTOPADE","postal_code":"96271"},{"id":"7502021015","district_id":"7502021","name":"BATU LORENG","postal_code":"96271"},{"id":"7502021016","district_id":"7502021","name":"BONGOHULAWA","postal_code":"96214"},{"id":"7502021017","district_id":"7502021","name":"HUNTULOHULAWA","postal_code":"95763"},{"id":"7502021020","district_id":"7502021","name":"LIYODU","postal_code":"96271"},{"id":"7502021021","district_id":"7502021","name":"KAYUMERAH","postal_code":"96214"},{"id":"7502021022","district_id":"7502021","name":"OWALANGA","postal_code":"96271"},{"id":"7502021025","district_id":"7502021","name":"LIYOTO","postal_code":"96271"}]