[{"id":"7505020008","district_id":"7505020","name":"PONTOLO","postal_code":"96252"},{"id":"7505020009","district_id":"7505020","name":"MOLINGKAPOTO","postal_code":"99584"},{"id":"7505020010","district_id":"7505020","name":"MOOTINELO","postal_code":"96252"},{"id":"7505020011","district_id":"7505020","name":"LEBOTO","postal_code":"96252"},{"id":"7505020012","district_id":"7505020","name":"BUALEMO","postal_code":"96252"},{"id":"7505020013","district_id":"7505020","name":"POSSO","postal_code":"96252"},{"id":"7505020014","district_id":"7505020","name":"BULALO","postal_code":"96252"},{"id":"7505020015","district_id":"7505020","name":"TITIDU","postal_code":"96252"},{"id":"7505020016","district_id":"7505020","name":"MOLUO","postal_code":"96252"},{"id":"7505020021","district_id":"7505020","name":"OMBULODATA","postal_code":"96252"},{"id":"7505020022","district_id":"7505020","name":"PONTOLO ATAS","postal_code":"96252"},{"id":"7505020023","district_id":"7505020","name":"BOTUWOMBATO","postal_code":"96252"},{"id":"7505020024","district_id":"7505020","name":"MOLINGKAPOTO SELATAN","postal_code":"96252"},{"id":"7505020025","district_id":"7505020","name":"BOTUNGOBUNGO","postal_code":"96252"},{"id":"7505020026","district_id":"7505020","name":"ALATA KARYA","postal_code":"96252"},{"id":"7505020027","district_id":"7505020","name":"MASURU","postal_code":"96252"},{"id":"7505020028","district_id":"7505020","name":"CISADANE","postal_code":"96252"},{"id":"7505020029","district_id":"7505020","name":"KATIALADA","postal_code":"96252"}]