[{"id":"7601030001","district_id":"7601030","name":"MOSSO DUA","postal_code":"91452"},{"id":"7601030002","district_id":"7601030","name":"MOSSO","postal_code":"91354"},{"id":"7601030003","district_id":"7601030","name":"PUTTADA","postal_code":"91452"},{"id":"7601030004","district_id":"7601030","name":"SENDANA","postal_code":"91959"},{"id":"7601030005","district_id":"7601030","name":"TALLUM BANUA","postal_code":"91452"},{"id":"7601030011","district_id":"7601030","name":"PUNDAU","postal_code":"91452"},{"id":"7601030012","district_id":"7601030","name":"BUKIT SAMANG","postal_code":"91452"},{"id":"7601030013","district_id":"7601030","name":"LIMBUA","postal_code":"91452"},{"id":"7601030014","district_id":"7601030","name":"LALATEDONG","postal_code":"97599"},{"id":"7601030015","district_id":"7601030","name":"PAMINGGALAN","postal_code":"91452"},{"id":"7601030016","district_id":"7601030","name":"TOTOLISI SENDANA","postal_code":"91415"},{"id":"7601030017","district_id":"7601030","name":"BANUA SENDANA","postal_code":"91452"},{"id":"7601030018","district_id":"7601030","name":"TALLU BANUA UTARA","postal_code":"91711"},{"id":"7601030019","district_id":"7601030","name":"LIMBORO RAMBU-RAMBU","postal_code":"91452"},{"id":"7601030020","district_id":"7601030","name":"LEPPANGAN","postal_code":"91861"},{"id":"7601030021","district_id":"7601030","name":"BINANGA","postal_code":"24786"}]