[{"id":"7602020006","district_id":"7602020","name":"TARAMANU","postal_code":"91355"},{"id":"7602020007","district_id":"7602020","name":"AMBOPADANG","postal_code":"93461"},{"id":"7602020008","district_id":"7602020","name":"TUBBI","postal_code":"91355"},{"id":"7602020009","district_id":"7602020","name":"RATTE","postal_code":"91854"},{"id":"7602020010","district_id":"7602020","name":"BESOANGIN","postal_code":"91355"},{"id":"7602020011","district_id":"7602020","name":"PIRIANG TAPIKO","postal_code":"91355"},{"id":"7602020012","district_id":"7602020","name":"POLLEWANI","postal_code":"91355"},{"id":"7602020013","district_id":"7602020","name":"PODA","postal_code":"91355"},{"id":"7602020014","district_id":"7602020","name":"BESOANGIN UTARA","postal_code":"91355"},{"id":"7602020015","district_id":"7602020","name":"ARABUA","postal_code":"91355"},{"id":"7602020016","district_id":"7602020","name":"TARAMANU TUA","postal_code":"91355"},{"id":"7602020017","district_id":"7602020","name":"TALOBA","postal_code":"91355"}]