[{"id":"7603050001","district_id":"7603050","name":"MAMASA","postal_code":"91362"},{"id":"7603050002","district_id":"7603050","name":"OSANGO","postal_code":"91362"},{"id":"7603050003","district_id":"7603050","name":"RAMBU SARATU","postal_code":"93354"},{"id":"7603050004","district_id":"7603050","name":"LAMBANAN","postal_code":"91354"},{"id":"7603050005","district_id":"7603050","name":"LEMBANGNA SALULO","postal_code":"92574"},{"id":"7603050006","district_id":"7603050","name":"TAUPE","postal_code":"91362"},{"id":"7603050007","district_id":"7603050","name":"BUNTUBUDA","postal_code":"92955"},{"id":"7603050008","district_id":"7603050","name":"TONDOK BAKARU","postal_code":"91362"},{"id":"7603050009","district_id":"7603050","name":"PEBASSIAN","postal_code":"91362"},{"id":"7603050010","district_id":"7603050","name":"MAMBULILLING","postal_code":"91362"},{"id":"7603050011","district_id":"7603050","name":"BOMBONG LAMBE","postal_code":"91362"},{"id":"7603050012","district_id":"7603050","name":"BUBUN BATU","postal_code":"20853"}]