[{"id":"7603090001","district_id":"7603090","name":"ARALLE","postal_code":"91373"},{"id":"7603090003","district_id":"7603090","name":"RALLEANAK","postal_code":"91373"},{"id":"7603090004","district_id":"7603090","name":"PANETEAN","postal_code":"91373"},{"id":"7603090005","district_id":"7603090","name":"UHAILANU","postal_code":"91373"},{"id":"7603090007","district_id":"7603090","name":"ARALLE UTARA","postal_code":"91373"},{"id":"7603090009","district_id":"7603090","name":"UHAIDAO","postal_code":"91373"},{"id":"7603090010","district_id":"7603090","name":"BARURU","postal_code":"91373"},{"id":"7603090015","district_id":"7603090","name":"RALLEANAK UTARA","postal_code":"91373"},{"id":"7603090016","district_id":"7603090","name":"PAMMOSEANG PANGGA","postal_code":"91256"},{"id":"7603090017","district_id":"7603090","name":"ARALLE SELATAN","postal_code":"91373"},{"id":"7603090018","district_id":"7603090","name":"HAHANGAN","postal_code":"98454"},{"id":"7603090019","district_id":"7603090","name":"KALABE","postal_code":"92211"}]