[{"id":"7603060001","district_id":"7603060","name":"MESAKADA","postal_code":"91366"},{"id":"7603060002","district_id":"7603060","name":"TAMALANTIK","postal_code":"91366"},{"id":"7603060003","district_id":"7603060","name":"BALA BATU","postal_code":"91512"},{"id":"7603060004","district_id":"7603060","name":"MALABO","postal_code":"91366"},{"id":"7603060005","district_id":"7603060","name":"MINAKE","postal_code":"91366"},{"id":"7603060006","district_id":"7603060","name":"MANNABABA","postal_code":"91366"},{"id":"7603060007","district_id":"7603060","name":"PARONDO BULAWAN","postal_code":"63253"},{"id":"7603060008","district_id":"7603060","name":"SINDAGAMANIK","postal_code":"91366"},{"id":"7603060009","district_id":"7603060","name":"KANAN","postal_code":"74873"},{"id":"7603060010","district_id":"7603060","name":"PAMBE","postal_code":"94965"},{"id":"7603060011","district_id":"7603060","name":"SALURANO","postal_code":"95858"},{"id":"7603060012","district_id":"7603060","name":"TALIMBUNG","postal_code":"22172"}]