[{"id":"7603080001","district_id":"7603080","name":"MAMBI","postal_code":"91371"},{"id":"7603080002","district_id":"7603080","name":"TALIPPUKI","postal_code":"91861"},{"id":"7603080004","district_id":"7603080","name":"RANTEBULAHAN","postal_code":"91853"},{"id":"7603080006","district_id":"7603080","name":"SONDONG LAJUK","postal_code":"91561"},{"id":"7603080010","district_id":"7603080","name":"SALUBANUA","postal_code":"91371"},{"id":"7603080011","district_id":"7603080","name":"TAPALINNA","postal_code":"91371"},{"id":"7603080012","district_id":"7603080","name":"PAMMOSEANG","postal_code":"91256"},{"id":"7603080013","district_id":"7603080","name":"SALUMAKAK","postal_code":"94479"},{"id":"7603080014","district_id":"7603080","name":"BUJUNGMANURUNG","postal_code":"34613"},{"id":"7603080016","district_id":"7603080","name":"SENDANA","postal_code":"91959"},{"id":"7603080027","district_id":"7603080","name":"INDO BANUA","postal_code":"98453"},{"id":"7603080028","district_id":"7603080","name":"SALUALO'","postal_code":"91881"},{"id":"7603080029","district_id":"7603080","name":"SALUDURIAN","postal_code":"93954"}]