[{"id":"7603081001","district_id":"7603081","name":"BAMBANG","postal_code":"34877"},{"id":"7603081002","district_id":"7603081","name":"BAMBANG TIMUR","postal_code":"91371"},{"id":"7603081003","district_id":"7603081","name":"RANTELEMO","postal_code":"91371"},{"id":"7603081004","district_id":"7603081","name":"ULUMAMBI","postal_code":"91371"},{"id":"7603081005","district_id":"7603081","name":"SALUDENGEN","postal_code":"91562"},{"id":"7603081006","district_id":"7603081","name":"MINANGA","postal_code":"95997"},{"id":"7603081007","district_id":"7603081","name":"SIKAMASE","postal_code":"91371"},{"id":"7603081008","district_id":"7603081","name":"LEMBANGMOKALLANG","postal_code":"92574"},{"id":"7603081009","district_id":"7603081","name":"MASOSO","postal_code":"91371"},{"id":"7603081010","district_id":"7603081","name":"SALUASSING","postal_code":"91371"},{"id":"7603081011","district_id":"7603081","name":"SALUBULO","postal_code":"91371"},{"id":"7603081012","district_id":"7603081","name":"SALUKADI","postal_code":"91371"},{"id":"7603081013","district_id":"7603081","name":"SALUKEPOPO","postal_code":"91563"},{"id":"7603081014","district_id":"7603081","name":"ULUMAMBI BARAT","postal_code":"91371"},{"id":"7603081015","district_id":"7603081","name":"LIMBADEBATA","postal_code":"91371"},{"id":"7603081016","district_id":"7603081","name":"TANETE TOMBA","postal_code":"91371"},{"id":"7603081017","district_id":"7603081","name":"SALUTABANG","postal_code":"97761"},{"id":"7603081018","district_id":"7603081","name":"SALURURU","postal_code":"91373"},{"id":"7603081019","district_id":"7603081","name":"RANTETARIMA","postal_code":"54381"},{"id":"7603081020","district_id":"7603081","name":"BALATANA","postal_code":"97665"}]