[{"id":"8102023001","district_id":"8102023","name":"WEER OHOINAM","postal_code":"97661"},{"id":"8102023002","district_id":"8102023","name":"WEER OHOIKER","postal_code":"97661"},{"id":"8102023003","district_id":"8102023","name":"WEER FRAWAV","postal_code":"97661"},{"id":"8102023004","district_id":"8102023","name":"FAA","postal_code":"97661"},{"id":"8102023005","district_id":"8102023","name":"DANGARAT","postal_code":"97661"},{"id":"8102023006","district_id":"8102023","name":"OHOITUF","postal_code":"97661"},{"id":"8102023007","district_id":"8102023","name":"HANGUR","postal_code":"97661"},{"id":"8102023008","district_id":"8102023","name":"NGURWALEK","postal_code":"97661"},{"id":"8102023009","district_id":"8102023","name":"UWAT","postal_code":"97661"},{"id":"8102023010","district_id":"8102023","name":"UWAT WEAR","postal_code":"97661"},{"id":"8102023011","district_id":"8102023","name":"UWAT REYAAN","postal_code":"97661"},{"id":"8102023012","district_id":"8102023","name":"MUN OHOITADIUM","postal_code":"97661"},{"id":"8102023013","district_id":"8102023","name":"MUN WERFAN","postal_code":"97661"},{"id":"8102023014","district_id":"8102023","name":"MUN OHOIIR","postal_code":"97661"},{"id":"8102023015","district_id":"8102023","name":"MUN ESOY","postal_code":"93463"},{"id":"8102023016","district_id":"8102023","name":"MUN KAHAR","postal_code":"97661"},{"id":"8102023017","district_id":"8102023","name":"MUN NGURDITWAIN","postal_code":"97661"},{"id":"8102023018","district_id":"8102023","name":"AD WEARAUR","postal_code":"97661"},{"id":"8102023019","district_id":"8102023","name":"AD NGURWUL","postal_code":"97661"},{"id":"8102023020","district_id":"8102023","name":"AD OHOIWAF","postal_code":"97661"},{"id":"8102023021","district_id":"8102023","name":"LAR","postal_code":"93352"},{"id":"8102023022","district_id":"8102023","name":"HOOR ISLAM","postal_code":"97661"},{"id":"8102023023","district_id":"8102023","name":"HOOR KRISTEN","postal_code":"97661"},{"id":"8102023024","district_id":"8102023","name":"WAER","postal_code":"97661"},{"id":"8102023025","district_id":"8102023","name":"WAERAT","postal_code":"97661"}]