[{"id":"8103060001","district_id":"8103060","name":"USLIAPAN","postal_code":"97558"},{"id":"8103060002","district_id":"8103060","name":"KURALELE","postal_code":"97558"},{"id":"8103060003","district_id":"8103060","name":"KOKROMAN","postal_code":"97558"},{"id":"8103060004","district_id":"8103060","name":"MESSA","postal_code":"97853"},{"id":"8103060005","district_id":"8103060","name":"AMETH","postal_code":"97511"},{"id":"8103060007","district_id":"8103060","name":"SIFLURU","postal_code":"22874"},{"id":"8103060008","district_id":"8103060","name":"WOTAY","postal_code":"97558"},{"id":"8103060009","district_id":"8103060","name":"ISSU","postal_code":"91853"},{"id":"8103060010","district_id":"8103060","name":"WATLUDAN","postal_code":"97558"},{"id":"8103060011","district_id":"8103060","name":"TRANA","postal_code":"97558"},{"id":"8103060012","district_id":"8103060","name":"JERILI","postal_code":"97558"},{"id":"8103060014","district_id":"8103060","name":"LAYENI","postal_code":"97558"},{"id":"8103060015","district_id":"8103060","name":"UPT TONETANAH","postal_code":"39265"},{"id":"8103060016","district_id":"8103060","name":"WARU","postal_code":"57694"},{"id":"8103060017","district_id":"8103060","name":"NAKUPIA","postal_code":"97558"}]