[{"id":"8103143001","district_id":"8103143","name":"TIHUANA","postal_code":"96585"},{"id":"8103143002","district_id":"8103143","name":"KOBISONTA","postal_code":"97557"},{"id":"8103143003","district_id":"8103143","name":"SETI","postal_code":"97557"},{"id":"8103143004","district_id":"8103143","name":"WAILOPING","postal_code":"97557"},{"id":"8103143005","district_id":"8103143","name":"WAITILA","postal_code":"97557"},{"id":"8103143006","district_id":"8103143","name":"WAIPUTIH","postal_code":"97557"},{"id":"8103143007","district_id":"8103143","name":"AKETERNATE","postal_code":"97557"},{"id":"8103143008","district_id":"8103143","name":"TANAH MERAH","postal_code":"98363"},{"id":"8103143009","district_id":"8103143","name":"NAMTO","postal_code":"97557"},{"id":"8103143010","district_id":"8103143","name":"WAIMUSAL","postal_code":"97557"},{"id":"8103143011","district_id":"8103143","name":"LOPING MULYO","postal_code":"22654"},{"id":"8103143012","district_id":"8103143","name":"WONOSARI","postal_code":"56318"}]