[{"id":"8103142001","district_id":"8103142","name":"KOBI","postal_code":"97557"},{"id":"8103142002","district_id":"8103142","name":"KOBIMUKTI","postal_code":"97557"},{"id":"8103142003","district_id":"8103142","name":"MANEO RENDAH","postal_code":"97557"},{"id":"8103142004","district_id":"8103142","name":"LEAWAY","postal_code":"91881"},{"id":"8103142005","district_id":"8103142","name":"SAMAL","postal_code":"24394"},{"id":"8103142006","district_id":"8103142","name":"WAITONIPA","postal_code":"97557"},{"id":"8103142007","district_id":"8103142","name":"MOROKAI","postal_code":"59552"},{"id":"8103142008","district_id":"8103142","name":"WAIMUSI","postal_code":"97557"},{"id":"8103142009","district_id":"8103142","name":"WAI ASIH","postal_code":"55663"},{"id":"8103142010","district_id":"8103142","name":"MARASAHUA","postal_code":"97557"},{"id":"8103142011","district_id":"8103142","name":"SARIPUTIH","postal_code":"97557"},{"id":"8103142012","district_id":"8103142","name":"KABAUHARI","postal_code":"97795"}]