[{"id":"8103141001","district_id":"8103141","name":"WARASIWA","postal_code":"97557"},{"id":"8103141002","district_id":"8103141","name":"RUMAHWEY","postal_code":"97557"},{"id":"8103141003","district_id":"8103141","name":"LISABATA TIMUR","postal_code":"97557"},{"id":"8103141004","district_id":"8103141","name":"LATEA","postal_code":"97557"},{"id":"8103141005","district_id":"8103141","name":"GALE-GALE","postal_code":"97557"},{"id":"8103141006","district_id":"8103141","name":"LABUAN","postal_code":"94683"},{"id":"8103141007","district_id":"8103141","name":"PASANEA","postal_code":"97557"},{"id":"8103141008","district_id":"8103141","name":"KARLUTUKARA","postal_code":"97595"},{"id":"8103141009","district_id":"8103141","name":"PAA","postal_code":"97557"},{"id":"8103141010","district_id":"8103141","name":"WAILULU","postal_code":"97862"},{"id":"8103141011","district_id":"8103141","name":"HORALE","postal_code":"97557"},{"id":"8103141012","district_id":"8103141","name":"SALEMAN","postal_code":"97557"},{"id":"8103141013","district_id":"8103141","name":"HERLAU PAUNI","postal_code":"99582"}]