[{"id":"8105030073","district_id":"8105030","name":"NAPAR","postal_code":"26218"},{"id":"8105030074","district_id":"8105030","name":"KOBRAUR","postal_code":"97662"},{"id":"8105030075","district_id":"8105030","name":"LAU LAU","postal_code":"22163"},{"id":"8105030089","district_id":"8105030","name":"TUNGUWATU","postal_code":"97662"},{"id":"8105030090","district_id":"8105030","name":"JABULENGA","postal_code":"97662"},{"id":"8105030092","district_id":"8105030","name":"GORAR","postal_code":"97662"},{"id":"8105030093","district_id":"8105030","name":"KARANGGULI","postal_code":"97662"},{"id":"8105030094","district_id":"8105030","name":"DURJELA","postal_code":"97662"},{"id":"8105030095","district_id":"8105030","name":"WANGEL","postal_code":"97662"},{"id":"8105030096","district_id":"8105030","name":"GALAY DUBU","postal_code":"79363"},{"id":"8105030097","district_id":"8105030","name":"SIWALIMA","postal_code":"97662"},{"id":"8105030098","district_id":"8105030","name":"WOKAM","postal_code":"97662"},{"id":"8105030099","district_id":"8105030","name":"SAMANG","postal_code":"97662"},{"id":"8105030100","district_id":"8105030","name":"UJIR","postal_code":"97662"}]