[{"id":"8105031001","district_id":"8105031","name":"WARIALAU","postal_code":"97662"},{"id":"8105031014","district_id":"8105031","name":"SELMONA","postal_code":"97662"},{"id":"8105031015","district_id":"8105031","name":"MASIDANG","postal_code":"96585"},{"id":"8105031016","district_id":"8105031","name":"KOLAMAR","postal_code":"97662"},{"id":"8105031017","district_id":"8105031","name":"MARLASI","postal_code":"97662"},{"id":"8105031018","district_id":"8105031","name":"FOKET","postal_code":"97662"},{"id":"8105031020","district_id":"8105031","name":"WAHAYUM","postal_code":"75655"},{"id":"8105031021","district_id":"8105031","name":"JERWATU","postal_code":"97662"},{"id":"8105031023","district_id":"8105031","name":"WAHANGULANGULA","postal_code":"97662"},{"id":"8105031024","district_id":"8105031","name":"KAIBOLAFIN","postal_code":"97662"},{"id":"8105031025","district_id":"8105031","name":"TASINWAHA","postal_code":"85661"},{"id":"8105031026","district_id":"8105031","name":"KABUFIN","postal_code":"97662"}]