[{"id":"8106040001","district_id":"8106040","name":"RUMAHSOAL","postal_code":"97561"},{"id":"8106040002","district_id":"8106040","name":"LOHIA SAPALEWA","postal_code":"97561"},{"id":"8106040003","district_id":"8106040","name":"LATURAKE","postal_code":"97561"},{"id":"8106040004","district_id":"8106040","name":"BURIA","postal_code":"97561"},{"id":"8106040005","district_id":"8106040","name":"RIRING","postal_code":"97561"},{"id":"8106040006","district_id":"8106040","name":"NINIARI","postal_code":"97561"},{"id":"8106040007","district_id":"8106040","name":"MORNATEN","postal_code":"69163"},{"id":"8106040008","district_id":"8106040","name":"NIKULUKAN","postal_code":"97561"},{"id":"8106040009","district_id":"8106040","name":"NIWELEHU","postal_code":"97561"},{"id":"8106040010","district_id":"8106040","name":"NUNIALI","postal_code":"97561"},{"id":"8106040011","district_id":"8106040","name":"LISABATA","postal_code":"99582"},{"id":"8106040012","district_id":"8106040","name":"WAKOLO","postal_code":"97561"},{"id":"8106040013","district_id":"8106040","name":"PATAHUWE","postal_code":"97561"},{"id":"8106040014","district_id":"8106040","name":"TANIWEL","postal_code":"97561"},{"id":"8106040017","district_id":"8106040","name":"KASIE","postal_code":"71571"},{"id":"8106040018","district_id":"8106040","name":"NUKUHAY","postal_code":"97561"},{"id":"8106040019","district_id":"8106040","name":"PASINALO","postal_code":"97561"}]