[{"id":"8107020021","district_id":"8107020","name":"KILTAI","postal_code":"94711"},{"id":"8107020022","district_id":"8107020","name":"KILWARU","postal_code":"97594"},{"id":"8107020025","district_id":"8107020","name":"KEFFING","postal_code":"97594"},{"id":"8107020040","district_id":"8107020","name":"KILFURA","postal_code":"97594"},{"id":"8107020041","district_id":"8107020","name":"KWAMOR BESAR WITAU","postal_code":"98652"},{"id":"8107020042","district_id":"8107020","name":"KWAMOR BESAR ENA","postal_code":"98652"},{"id":"8107020043","district_id":"8107020","name":"KWAMOR KECIL MATA WAWA","postal_code":"98652"},{"id":"8107020044","district_id":"8107020","name":"KWAMOR KECIL MATA ATA","postal_code":"98652"},{"id":"8107020045","district_id":"8107020","name":"GULI-GULI","postal_code":"97595"},{"id":"8107020046","district_id":"8107020","name":"MANGGIS","postal_code":"56362"},{"id":"8107020047","district_id":"8107020","name":"AINENA","postal_code":"93955"},{"id":"8107020048","district_id":"8107020","name":"MUGUSINIS","postal_code":"23681"},{"id":"8107020049","district_id":"8107020","name":"AKAT FADEDO","postal_code":"99779"}]