[{"id":"8109010001","district_id":"8109010","name":"WALBELE","postal_code":"97572"},{"id":"8109010002","district_id":"8109010","name":"WAEPANDAN","postal_code":"97572"},{"id":"8109010003","district_id":"8109010","name":"FOGI","postal_code":"97795"},{"id":"8109010004","district_id":"8109010","name":"PASIR PUTIH","postal_code":"90984"},{"id":"8109010005","district_id":"8109010","name":"BILORO","postal_code":"97572"},{"id":"8109010006","district_id":"8109010","name":"NANALI","postal_code":"97572"},{"id":"8109010007","district_id":"8109010","name":"WAEKEKA","postal_code":"97572"},{"id":"8109010008","district_id":"8109010","name":"BALPETU","postal_code":"97572"},{"id":"8109010009","district_id":"8109010","name":"SEKAT","postal_code":"97572"},{"id":"8109010010","district_id":"8109010","name":"AIR TERNATE","postal_code":"97572"},{"id":"8109010011","district_id":"8109010","name":"BATU LAYAR","postal_code":"83355"},{"id":"8109010012","district_id":"8109010","name":"SIOPOT","postal_code":"97572"},{"id":"8109010014","district_id":"8109010","name":"BALA BALA","postal_code":"91354"},{"id":"8109010015","district_id":"8109010","name":"WAEHA","postal_code":"97572"},{"id":"8109010016","district_id":"8109010","name":"WAEHOTONG","postal_code":"97574"}]