[{"id":"8171010001","district_id":"8171010","name":"LATUHALAT","postal_code":"97118"},{"id":"8171010002","district_id":"8171010","name":"SEILALE","postal_code":"97118"},{"id":"8171010003","district_id":"8171010","name":"NUSANIWE","postal_code":"97117"},{"id":"8171010004","district_id":"8171010","name":"AMAHUSU","postal_code":"97117"},{"id":"8171010005","district_id":"8171010","name":"KEL NUSANIWE","postal_code":"24562"},{"id":"8171010007","district_id":"8171010","name":"KEL WAINITU","postal_code":"24562"},{"id":"8171010008","district_id":"8171010","name":"KEL KUDAMATI","postal_code":"24562"},{"id":"8171010009","district_id":"8171010","name":"URIMESING","postal_code":"22262"},{"id":"8171010010","district_id":"8171010","name":"KEL MANGGA DUA","postal_code":"24562"},{"id":"8171010011","district_id":"8171010","name":"KEL URIMESING","postal_code":"24562"},{"id":"8171010012","district_id":"8171010","name":"KEL WAIHAONG","postal_code":"24562"},{"id":"8171010013","district_id":"8171010","name":"KEL SILALE","postal_code":"24562"}]