[{"id":"8204090006","district_id":"8204090","name":"WOSI","postal_code":"98312"},{"id":"8204090007","district_id":"8204090","name":"SAKETA","postal_code":"97782"},{"id":"8204090008","district_id":"8204090","name":"AKELAMO","postal_code":"97852"},{"id":"8204090009","district_id":"8204090","name":"BUKIT INDAH","postal_code":"36554"},{"id":"8204090010","district_id":"8204090","name":"RAWA JAYA","postal_code":"37354"},{"id":"8204090011","district_id":"8204090","name":"SUKA MAJU","postal_code":"37553"},{"id":"8204090012","district_id":"8204090","name":"BUKIT RAYA","postal_code":"79674"},{"id":"8204090013","district_id":"8204090","name":"SUMBER MAKMUR","postal_code":"34682"},{"id":"8204090014","district_id":"8204090","name":"LALUBI","postal_code":"97783"},{"id":"8204090015","district_id":"8204090","name":"MAFFA","postal_code":"97783"},{"id":"8204090016","district_id":"8204090","name":"FOYA","postal_code":"97783"},{"id":"8204090017","district_id":"8204090","name":"TOBARU","postal_code":"91921"},{"id":"8204090018","district_id":"8204090","name":"FOYA TOBARU","postal_code":"97783"},{"id":"8204090019","district_id":"8204090","name":"WAIMILI","postal_code":"85871"},{"id":"8204090020","district_id":"8204090","name":"TANJUNG JERE","postal_code":"97783"},{"id":"8204090021","district_id":"8204090","name":"KEBUN RAJA","postal_code":"97783"},{"id":"8204090022","district_id":"8204090","name":"KOTA LOOW","postal_code":"24475"},{"id":"8204090024","district_id":"8204090","name":"CINTA DAMAI","postal_code":"22383"}]