[{"id":"8204070004","district_id":"8204070","name":"WAILOA","postal_code":"97756"},{"id":"8204070005","district_id":"8204070","name":"GURUA","postal_code":"97794"},{"id":"8204070006","district_id":"8204070","name":"DAURI","postal_code":"80652"},{"id":"8204070007","district_id":"8204070","name":"PLOILI","postal_code":"56362"},{"id":"8204070008","district_id":"8204070","name":"SAMSUMA","postal_code":"97764"},{"id":"8204070009","district_id":"8204070","name":"MATANGTENGIN","postal_code":"91352"},{"id":"8204070010","district_id":"8204070","name":"KYOWOR","postal_code":"86271"},{"id":"8204070011","district_id":"8204070","name":"RABUTDAIO","postal_code":"86319"},{"id":"8204070012","district_id":"8204070","name":"WAIGITANG","postal_code":"97795"},{"id":"8204070017","district_id":"8204070","name":"SANGAPATI","postal_code":"97756"},{"id":"8204070018","district_id":"8204070","name":"GITANG","postal_code":"97756"},{"id":"8204070019","district_id":"8204070","name":"DALAM","postal_code":"84455"},{"id":"8204070020","district_id":"8204070","name":"WALO","postal_code":"97756"},{"id":"8204070021","district_id":"8204070","name":"GORUP","postal_code":"97756"},{"id":"8204070022","district_id":"8204070","name":"KOTA","postal_code":"85575"}]