[{"id":"8205011001","district_id":"8205011","name":"PASIR PUTIH","postal_code":"90984"},{"id":"8205011002","district_id":"8205011","name":"BOBANEIGO","postal_code":"97752"},{"id":"8205011003","district_id":"8205011","name":"TETEWANG","postal_code":"97752"},{"id":"8205011004","district_id":"8205011","name":"AKELAMO KAO","postal_code":"97852"},{"id":"8205011005","district_id":"8205011","name":"GAMSUNGI","postal_code":"97752"},{"id":"8205011007","district_id":"8205011","name":"TIOWOR","postal_code":"97764"},{"id":"8205011008","district_id":"8205011","name":"TABANOMA","postal_code":"70861"},{"id":"8205011009","district_id":"8205011","name":"KUNTUM MEKAR","postal_code":"97764"},{"id":"8205011010","district_id":"8205011","name":"BARUMADEHE","postal_code":"97764"},{"id":"8205011011","district_id":"8205011","name":"MAKAELING","postal_code":"97764"},{"id":"8205011012","district_id":"8205011","name":"TOIGO","postal_code":"94752"},{"id":"8205011013","district_id":"8205011","name":"AKELAMO KAO CIBOK","postal_code":"97852"}]