[{"id":"8205010009","district_id":"8205010","name":"TAHANE","postal_code":"97764"},{"id":"8205010011","district_id":"8205010","name":"MATSA","postal_code":"97764"},{"id":"8205010013","district_id":"8205010","name":"NGOFAKIAHA","postal_code":"97764"},{"id":"8205010014","district_id":"8205010","name":"SAMSUMA","postal_code":"97764"},{"id":"8205010015","district_id":"8205010","name":"NGOFAGITA","postal_code":"97764"},{"id":"8205010016","district_id":"8205010","name":"PELERI","postal_code":"97764"},{"id":"8205010019","district_id":"8205010","name":"MALAPA","postal_code":"97764"},{"id":"8205010020","district_id":"8205010","name":"MAILOA","postal_code":"97764"},{"id":"8205010021","district_id":"8205010","name":"NGOFABOBAWA","postal_code":"97764"},{"id":"8205010022","district_id":"8205010","name":"SOMA","postal_code":"97764"},{"id":"8205010023","district_id":"8205010","name":"TAGONO","postal_code":"97764"},{"id":"8205010024","district_id":"8205010","name":"BOBAWA","postal_code":"97764"},{"id":"8205010025","district_id":"8205010","name":"TAFASOHO","postal_code":"97764"},{"id":"8205010026","district_id":"8205010","name":"TALAPAO","postal_code":"97764"},{"id":"8205010027","district_id":"8205010","name":"SABALE","postal_code":"90673"},{"id":"8205010028","district_id":"8205010","name":"TABOBO","postal_code":"99562"},{"id":"8205010029","district_id":"8205010","name":"BALISOSANG","postal_code":"97764"},{"id":"8205010030","district_id":"8205010","name":"SOSOL","postal_code":"97764"},{"id":"8205010031","district_id":"8205010","name":"GAYOK","postal_code":"97764"},{"id":"8205010032","district_id":"8205010","name":"WANGEOTAK","postal_code":"62292"},{"id":"8205010033","district_id":"8205010","name":"BUKIT TINGGI","postal_code":"22756"},{"id":"8205010034","district_id":"8205010","name":"TERPADU","postal_code":"97764"}]