[{"id":"8205060001","district_id":"8205060","name":"APULEA","postal_code":"97755"},{"id":"8205060002","district_id":"8205060","name":"ASIMIRO","postal_code":"97581"},{"id":"8205060003","district_id":"8205060","name":"DOTIA","postal_code":"99587"},{"id":"8205060004","district_id":"8205060","name":"NGAJAM","postal_code":"97755"},{"id":"8205060005","district_id":"8205060","name":"DORUME","postal_code":"97755"},{"id":"8205060006","district_id":"8205060","name":"KAILUPA","postal_code":"97755"},{"id":"8205060007","district_id":"8205060","name":"GISIK","postal_code":"97755"},{"id":"8205060008","district_id":"8205060","name":"KAPA KAPA","postal_code":"97755"},{"id":"8205060009","district_id":"8205060","name":"POCAO","postal_code":"97755"},{"id":"8205060010","district_id":"8205060","name":"TATE","postal_code":"97755"},{"id":"8205060012","district_id":"8205060","name":"POSI POSI","postal_code":"97755"},{"id":"8205060013","district_id":"8205060","name":"MOMOJIU","postal_code":"97771"},{"id":"8205060014","district_id":"8205060","name":"WORIMOI","postal_code":"97755"},{"id":"8205060015","district_id":"8205060","name":"GALAO","postal_code":"97755"},{"id":"8205060017","district_id":"8205060","name":"PODOL","postal_code":"97755"},{"id":"8205060018","district_id":"8205060","name":"IGO","postal_code":"97755"}]