[{"id":"8206042001","district_id":"8206042","name":"SOSOLAT","postal_code":"97862"},{"id":"8206042002","district_id":"8206042","name":"LOLASITA","postal_code":"97862"},{"id":"8206042003","district_id":"8206042","name":"DOROSAGO","postal_code":"51191"},{"id":"8206042004","district_id":"8206042","name":"WASILEO","postal_code":"97862"},{"id":"8206042005","district_id":"8206042","name":"PATLIAN","postal_code":"97862"},{"id":"8206042006","district_id":"8206042","name":"PUMLANGA","postal_code":"97862"},{"id":"8206042007","district_id":"8206042","name":"JARA JARA","postal_code":"29875"},{"id":"8206042008","district_id":"8206042","name":"UPT PATLIAN SP I","postal_code":"39262"},{"id":"8206042009","district_id":"8206042","name":"UPT PATLIAN SP II","postal_code":"39262"},{"id":"8206042010","district_id":"8206042","name":"LILI","postal_code":"97862"},{"id":"8206042011","district_id":"8206042","name":"DOROMOI","postal_code":"97862"},{"id":"8206042012","district_id":"8206042","name":"PATLEAN JAYA","postal_code":"97862"}]