[{"id":"8206041001","district_id":"8206041","name":"BERINGIN LAMO","postal_code":"35356"},{"id":"8206041002","district_id":"8206041","name":"BEBSILI","postal_code":"97862"},{"id":"8206041004","district_id":"8206041","name":"WAYAMLI","postal_code":"97791"},{"id":"8206041006","district_id":"8206041","name":"MIAF","postal_code":"97862"},{"id":"8206041007","district_id":"8206041","name":"MARATANA JAYA","postal_code":"97862"},{"id":"8206041008","district_id":"8206041","name":"DOROLAMO JAYA","postal_code":"97862"},{"id":"8206041009","district_id":"8206041","name":"BANGUL","postal_code":"97862"},{"id":"8206041010","district_id":"8206041","name":"MARASIPNO","postal_code":"97862"},{"id":"8206041011","district_id":"8206041","name":"BABASARAM","postal_code":"97862"},{"id":"8206041012","district_id":"8206041","name":"YAWANLI","postal_code":"97862"},{"id":"8206041013","district_id":"8206041","name":"TATANGAPU","postal_code":"97862"},{"id":"8206041014","district_id":"8206041","name":"GAIFOLI","postal_code":"97862"}]