[{"id":"8207020001","district_id":"8207020","name":"SAMBIKI","postal_code":"97771"},{"id":"8207020002","district_id":"8207020","name":"SAMBIKI BARU","postal_code":"97771"},{"id":"8207020003","district_id":"8207020","name":"SANGOWO","postal_code":"97771"},{"id":"8207020004","district_id":"8207020","name":"MIRA","postal_code":"97772"},{"id":"8207020005","district_id":"8207020","name":"RAHMAT","postal_code":"94364"},{"id":"8207020006","district_id":"8207020","name":"WEWEMO","postal_code":"97772"},{"id":"8207020007","district_id":"8207020","name":"BUHO BUHO","postal_code":"97772"},{"id":"8207020008","district_id":"8207020","name":"LIFAO","postal_code":"97772"},{"id":"8207020009","district_id":"8207020","name":"GAMLAMO","postal_code":"97776"},{"id":"8207020010","district_id":"8207020","name":"SANGOWO BARAT","postal_code":"97771"},{"id":"8207020011","district_id":"8207020","name":"SANGOWO TIMUR","postal_code":"97771"},{"id":"8207020012","district_id":"8207020","name":"DOKU MIRA","postal_code":"97777"},{"id":"8207020013","district_id":"8207020","name":"GOSOMA MALUKU","postal_code":"97775"},{"id":"8207020014","district_id":"8207020","name":"HINO","postal_code":"97774"},{"id":"8207020015","district_id":"8207020","name":"SESELI JAYA","postal_code":"97773"}]