[{"id":"8207040001","district_id":"8207040","name":"LIBANO","postal_code":"97772"},{"id":"8207040002","district_id":"8207040","name":"HAPO","postal_code":"97772"},{"id":"8207040003","district_id":"8207040","name":"TITIGOGOLI","postal_code":"97772"},{"id":"8207040004","district_id":"8207040","name":"BERE BERE KECIL","postal_code":"97772"},{"id":"8207040005","district_id":"8207040","name":"SOPI","postal_code":"97772"},{"id":"8207040006","district_id":"8207040","name":"CENDANA","postal_code":"94691"},{"id":"8207040007","district_id":"8207040","name":"ARU","postal_code":"97772"},{"id":"8207040008","district_id":"8207040","name":"PANGEO","postal_code":"97772"},{"id":"8207040009","district_id":"8207040","name":"TOWARA","postal_code":"97772"},{"id":"8207040010","district_id":"8207040","name":"CEMPAKA","postal_code":"52466"},{"id":"8207040011","district_id":"8207040","name":"PODIMOR PADANGE","postal_code":"97772"},{"id":"8207040012","district_id":"8207040","name":"SOPI MAJIKO","postal_code":"97772"},{"id":"8207040013","district_id":"8207040","name":"LOLEO","postal_code":"97772"},{"id":"8207040014","district_id":"8207040","name":"GORUGO","postal_code":"97772"}]