[{"id":"8271020001","district_id":"8271020","name":"SASA","postal_code":"97719"},{"id":"8271020002","district_id":"8271020","name":"GAMBESI","postal_code":"97719"},{"id":"8271020003","district_id":"8271020","name":"FITU","postal_code":"97718"},{"id":"8271020004","district_id":"8271020","name":"KALUMATA","postal_code":"97718"},{"id":"8271020005","district_id":"8271020","name":"KAYU MERAH","postal_code":"97751"},{"id":"8271020006","district_id":"8271020","name":"BASTIONG TALANGAME","postal_code":"97716"},{"id":"8271020007","district_id":"8271020","name":"UBO-UBO","postal_code":"97717"},{"id":"8271020008","district_id":"8271020","name":"MANGGA DUA","postal_code":"97751"},{"id":"8271020009","district_id":"8271020","name":"JATI","postal_code":"62372"},{"id":"8271020010","district_id":"8271020","name":"TOBOKO","postal_code":"97715"},{"id":"8271020011","district_id":"8271020","name":"TANAH TINGGI","postal_code":"97715"},{"id":"8271020020","district_id":"8271020","name":"NGADE","postal_code":"97713"},{"id":"8271020021","district_id":"8271020","name":"BASTIONG KARANCE","postal_code":"97713"},{"id":"8271020022","district_id":"8271020","name":"TABONA","postal_code":"97794"},{"id":"8271020023","district_id":"8271020","name":"JATI PERUMNAS","postal_code":"97713"},{"id":"8271020024","district_id":"8271020","name":"MANGGA DUA UTARA","postal_code":"97713"},{"id":"8271020025","district_id":"8271020","name":"TANAH TINGGI BARAT","postal_code":"97713"}]