[{"id":"8272040003","district_id":"8272040","name":"KUSU SINOPA","postal_code":"97852"},{"id":"8272040004","district_id":"8272040","name":"PAYAHE","postal_code":"97852"},{"id":"8272040005","district_id":"8272040","name":"TOSEHO","postal_code":"97852"},{"id":"8272040006","district_id":"8272040","name":"GITA RAJA","postal_code":"97852"},{"id":"8272040008","district_id":"8272040","name":"WODA","postal_code":"97852"},{"id":"8272040009","district_id":"8272040","name":"KOSA","postal_code":"97852"},{"id":"8272040010","district_id":"8272040","name":"KOLI","postal_code":"99562"},{"id":"8272040011","district_id":"8272040","name":"BALE","postal_code":"97852"},{"id":"8272040012","district_id":"8272040","name":"TULUI","postal_code":"99582"},{"id":"8272040013","district_id":"8272040","name":"SIGELA YEF","postal_code":"56259"},{"id":"8272040014","district_id":"8272040","name":"TODAPA","postal_code":"93755"},{"id":"8272040015","district_id":"8272040","name":"TALASI","postal_code":"84153"},{"id":"8272040016","district_id":"8272040","name":"TALAGAMORI","postal_code":"45463"},{"id":"8272040017","district_id":"8272040","name":"UPT KOLI","postal_code":"96271"}]