[{"id":"8272030007","district_id":"8272030","name":"SELI","postal_code":"97813"},{"id":"8272030008","district_id":"8272030","name":"SOADARA","postal_code":"97813"},{"id":"8272030009","district_id":"8272030","name":"TOPO","postal_code":"97813"},{"id":"8272030010","district_id":"8272030","name":"SOA SIO","postal_code":"97811"},{"id":"8272030011","district_id":"8272030","name":"GAMTUFKANGE","postal_code":"97812"},{"id":"8272030012","district_id":"8272030","name":"GURA-BUNGA","postal_code":"97813"},{"id":"8272030013","district_id":"8272030","name":"INDONESIANA","postal_code":"97813"},{"id":"8272030017","district_id":"8272030","name":"TOPO TIGA","postal_code":"97813"},{"id":"8272030018","district_id":"8272030","name":"TOMAGOBA","postal_code":"97813"},{"id":"8272030019","district_id":"8272030","name":"FOLARORA","postal_code":"97813"},{"id":"8272030020","district_id":"8272030","name":"GOTO","postal_code":"97813"},{"id":"8272030021","district_id":"8272030","name":"TAMBULA","postal_code":"69463"},{"id":"8272030022","district_id":"8272030","name":"TUGUWAJI","postal_code":"98766"}]