[{"id":"9102021001","district_id":"9102021","name":"WANOMA","postal_code":"98653"},{"id":"9102021002","district_id":"9102021","name":"I N A R I","postal_code":"99571"},{"id":"9102021003","district_id":"9102021","name":"U R I S A","postal_code":"24165"},{"id":"9102021004","district_id":"9102021","name":"TANUSAN","postal_code":"98653"},{"id":"9102021005","district_id":"9102021","name":"RUARA","postal_code":"98152"},{"id":"9102021006","district_id":"9102021","name":"KUFURIAI","postal_code":"85765"},{"id":"9102021007","district_id":"9102021","name":"MANGGERA","postal_code":"98653"},{"id":"9102021008","district_id":"9102021","name":"WARMENU","postal_code":"98315"},{"id":"9102021009","district_id":"9102021","name":"AGERWARA","postal_code":"68372"},{"id":"9102021010","district_id":"9102021","name":"JAWERA","postal_code":"98653"},{"id":"9102021011","district_id":"9102021","name":"WAROMI","postal_code":"98653"},{"id":"9102021012","district_id":"9102021","name":"UKIARA","postal_code":"98653"},{"id":"9102021014","district_id":"9102021","name":"SERARAN","postal_code":"98653"},{"id":"9102021015","district_id":"9102021","name":"NAGURA","postal_code":"98653"}]