[{"id":"9104092001","district_id":"9104092","name":"MASYETA","postal_code":"98373"},{"id":"9104092002","district_id":"9104092","name":"MESTOFU","postal_code":"91361"},{"id":"9104092003","district_id":"9104092","name":"KALIBIRU","postal_code":"98373"},{"id":"9104092004","district_id":"9104092","name":"MESOMDA","postal_code":"98373"},{"id":"9104092005","district_id":"9104092","name":"MESUSUGA","postal_code":"30681"},{"id":"9104092006","district_id":"9104092","name":"MEYGERA","postal_code":"98373"},{"id":"9104092007","district_id":"9104092","name":"MEYOSA","postal_code":"98373"},{"id":"9104092009","district_id":"9104092","name":"MEYAR","postal_code":"97463"},{"id":"9104092010","district_id":"9104092","name":"ONOM","postal_code":"22812"},{"id":"9104092011","district_id":"9104092","name":"MAYEFEB","postal_code":"94752"},{"id":"9104092012","district_id":"9104092","name":"ESNAM","postal_code":"99778"},{"id":"9104092013","district_id":"9104092","name":"MAKWAFEB","postal_code":"73991"},{"id":"9104092014","district_id":"9104092","name":"MAKIRA","postal_code":"85772"},{"id":"9104092015","district_id":"9104092","name":"IMUJ","postal_code":"98463"}]