[{"id":"9104052001","district_id":"9104052","name":"TUHIBA","postal_code":"98364"},{"id":"9104052002","district_id":"9104052","name":"TISAIDA","postal_code":"98364"},{"id":"9104052003","district_id":"9104052","name":"KUCIR","postal_code":"98364"},{"id":"9104052004","district_id":"9104052","name":"SIBENA RAYA","postal_code":"98364"},{"id":"9104052005","district_id":"9104052","name":"SIBENA PERMAI","postal_code":"94362"},{"id":"9104052006","district_id":"9104052","name":"MINCIMA","postal_code":"90554"},{"id":"9104052007","district_id":"9104052","name":"AGOMEDA","postal_code":"35551"},{"id":"9104052008","district_id":"9104052","name":"INYESTA","postal_code":"98357"},{"id":"9104052009","district_id":"9104052","name":"DUHUMENAU","postal_code":"98359"},{"id":"9104052011","district_id":"9104052","name":"WASSOWI","postal_code":"97572"},{"id":"9104052012","district_id":"9104052","name":"USEMEBIJ \/ KUCIR 2","postal_code":"97771"},{"id":"9104052013","district_id":"9104052","name":"KALI BIRU","postal_code":"70853"},{"id":"9104052014","district_id":"9104052","name":"TITKAI","postal_code":"95113"}]