[{"id":"9104091001","district_id":"9104091","name":"JAHABRA","postal_code":"98373"},{"id":"9104091002","district_id":"9104091","name":"IBORI","postal_code":"98373"},{"id":"9104091004","district_id":"9104091","name":"MEYORGA","postal_code":"98373"},{"id":"9104091005","district_id":"9104091","name":"LAUDOHO","postal_code":"98373"},{"id":"9104091006","district_id":"9104091","name":"ENIBA","postal_code":"98373"},{"id":"9104091007","district_id":"9104091","name":"MOWTIKA","postal_code":"98373"},{"id":"9104091008","district_id":"9104091","name":"BISCOOP","postal_code":"85661"},{"id":"9104091009","district_id":"9104091","name":"DHIJA","postal_code":"86462"},{"id":"9104091010","district_id":"9104091","name":"TOMOU","postal_code":"97791"},{"id":"9104091011","district_id":"9104091","name":"MENDESBA","postal_code":"58383"},{"id":"9104091012","district_id":"9104091","name":"MEYAD \/ MEYOIJ","postal_code":"98918"},{"id":"9104091013","district_id":"9104091","name":"IJOM","postal_code":"83615"},{"id":"9104091014","district_id":"9104091","name":"MEMINJEM","postal_code":"99853"}]