[{"id":"9104090007","district_id":"9104090","name":"MOROMBUY","postal_code":"98373"},{"id":"9104090012","district_id":"9104090","name":"MEYOM","postal_code":"98373"},{"id":"9104090017","district_id":"9104090","name":"ANEJERO","postal_code":"99554"},{"id":"9104090018","district_id":"9104090","name":"MEKIESEFEP","postal_code":"98373"},{"id":"9104090019","district_id":"9104090","name":"MOGROMUS\/MOGMEN","postal_code":"98373"},{"id":"9104090020","district_id":"9104090","name":"MEYEJGA","postal_code":"97463"},{"id":"9104090021","district_id":"9104090","name":"MENGGERBA","postal_code":"98373"},{"id":"9104090022","district_id":"9104090","name":"MEYOKUS","postal_code":"98357"},{"id":"9104090023","district_id":"9104090","name":"BOMER","postal_code":"99578"},{"id":"9104090024","district_id":"9104090","name":"MOJUI","postal_code":"61175"},{"id":"9104090025","district_id":"9104090","name":"KEWISINI","postal_code":"99554"},{"id":"9104090026","district_id":"9104090","name":"MERIRAOG","postal_code":"31461"},{"id":"9104090027","district_id":"9104090","name":"MEYEWAH","postal_code":"98373"},{"id":"9104090028","district_id":"9104090","name":"TAUGO","postal_code":"94772"},{"id":"9104090029","district_id":"9104090","name":"MOSOIMA","postal_code":"93955"},{"id":"9104090030","district_id":"9104090","name":"ENEYINEFA","postal_code":"95815"},{"id":"9104090031","district_id":"9104090","name":"MOSODEVEW","postal_code":"93955"},{"id":"9104090033","district_id":"9104090","name":"MAKMI","postal_code":"98152"},{"id":"9104090034","district_id":"9104090","name":"MERENUSGA","postal_code":"52354"},{"id":"9104090035","district_id":"9104090","name":"MEAR","postal_code":"99552"},{"id":"9104090036","district_id":"9104090","name":"MASSY","postal_code":"92861"},{"id":"9104090037","district_id":"9104090","name":"MERIFEM","postal_code":"24581"},{"id":"9104090038","district_id":"9104090","name":"MARMEY","postal_code":"97752"}]