[{"id":"9104050001","district_id":"9104050","name":"BINTUNI BARAT","postal_code":"98364"},{"id":"9104050002","district_id":"9104050","name":"WESIRI","postal_code":"98364"},{"id":"9104050003","district_id":"9104050","name":"BINTUNI TIMUR","postal_code":"98364"},{"id":"9104050004","district_id":"9104050","name":"MASINA","postal_code":"98364"},{"id":"9104050005","district_id":"9104050","name":"SP V MANIMERY\/ ARGO SIGEMERAY","postal_code":"32191"},{"id":"9104050006","district_id":"9104050","name":"TUASAI","postal_code":"98364"},{"id":"9104050007","district_id":"9104050","name":"IGURIJI","postal_code":"98364"},{"id":"9104050008","district_id":"9104050","name":"BEIMES","postal_code":"98364"},{"id":"9104050009","district_id":"9104050","name":"DIDGUIJ","postal_code":"99562"},{"id":"9104050010","district_id":"9104050","name":"CUTIBO","postal_code":"24373"},{"id":"9104050011","district_id":"9104050","name":"TRIMOROI","postal_code":"35356"},{"id":"9104050012","district_id":"9104050","name":"ASOUW","postal_code":"99511"},{"id":"9104050013","district_id":"9104050","name":"KOLAK \/ TOLAK","postal_code":"94883"},{"id":"9104050014","district_id":"9104050","name":"KOHOIN","postal_code":"98454"},{"id":"9104050015","district_id":"9104050","name":"TUBI","postal_code":"98359"},{"id":"9104050016","district_id":"9104050","name":"KAMPUNG LAMA","postal_code":"20859"},{"id":"9104050017","district_id":"9104050","name":"DIREB","postal_code":"98912"},{"id":"9104050018","district_id":"9104050","name":"MISSIN","postal_code":"99568"},{"id":"9104050020","district_id":"9104050","name":"IGURIJI II","postal_code":"98364"},{"id":"9104050021","district_id":"9104050","name":"HOKUT","postal_code":"97752"},{"id":"9104050022","district_id":"9104050","name":"ROSIB","postal_code":"69174"},{"id":"9104050023","district_id":"9104050","name":"AUABA","postal_code":"26566"},{"id":"9104050024","district_id":"9104050","name":"IMBRIJ","postal_code":"98358"},{"id":"9104050025","district_id":"9104050","name":"DACNA","postal_code":"69152"}]