[{"id":"9104051001","district_id":"9104051","name":"BUMI SANIARI (SP III)","postal_code":"98364"},{"id":"9104051002","district_id":"9104051","name":"BANJAR AUSOY (SP IV)","postal_code":"98364"},{"id":"9104051003","district_id":"9104051","name":"WARAITAMA (SPI)","postal_code":"98364"},{"id":"9104051004","district_id":"9104051","name":"ATIBO \/ MANIMERY","postal_code":"97554"},{"id":"9104051005","district_id":"9104051","name":"PASAMAI","postal_code":"98364"},{"id":"9104051006","district_id":"9104051","name":"KORANO JAYA (SP II)","postal_code":"98364"},{"id":"9104051007","district_id":"9104051","name":"HORNA BARU","postal_code":"98364"},{"id":"9104051008","district_id":"9104051","name":"TINANTERI \/ MANADO","postal_code":"94885"},{"id":"9104051009","district_id":"9104051","name":"IDUT","postal_code":"95775"},{"id":"9104051010","district_id":"9104051","name":"MUTURI","postal_code":"87181"},{"id":"9104051011","district_id":"9104051","name":"TIHIBO","postal_code":"96252"},{"id":"9104051012","district_id":"9104051","name":"TIRASAI","postal_code":"93395"},{"id":"9104051013","district_id":"9104051","name":"BOTAI","postal_code":"25392"},{"id":"9104051014","district_id":"9104051","name":"RUBOBO","postal_code":"86181"}]