[{"id":"9104080001","district_id":"9104080","name":"JAGIRO","postal_code":"98365"},{"id":"9104080002","district_id":"9104080","name":"INGGOF","postal_code":"98365"},{"id":"9104080003","district_id":"9104080","name":"RAWARA","postal_code":"98365"},{"id":"9104080004","district_id":"9104080","name":"MEYENDA","postal_code":"98365"},{"id":"9104080008","district_id":"9104080","name":"BARMA BARAT","postal_code":"98365"},{"id":"9104080009","district_id":"9104080","name":"MESIH","postal_code":"38653"},{"id":"9104080010","district_id":"9104080","name":"MOSUSNA","postal_code":"98463"},{"id":"9104080011","district_id":"9104080","name":"MERIDEY","postal_code":"37382"},{"id":"9104080012","district_id":"9104080","name":"THIMOFRO","postal_code":"97464"},{"id":"9104080013","district_id":"9104080","name":"YAHTIWA","postal_code":"99582"},{"id":"9104080014","district_id":"9104080","name":"MEYODO","postal_code":"98373"},{"id":"9104080015","district_id":"9104080","name":"IRAHIMA","postal_code":"74161"},{"id":"9104080016","district_id":"9104080","name":"OROCOMNA","postal_code":"67152"},{"id":"9104080017","district_id":"9104080","name":"MOMIYEFEW","postal_code":"94891"},{"id":"9104080018","district_id":"9104080","name":"OTWAJD","postal_code":"85851"}]