[{"id":"9104082001","district_id":"9104082","name":"MEYERGA","postal_code":"98365"},{"id":"9104082002","district_id":"9104082","name":"MACOK","postal_code":"98365"},{"id":"9104082003","district_id":"9104082","name":"ISTIKEM","postal_code":"91853"},{"id":"9104082004","district_id":"9104082","name":"MAJNIK","postal_code":"91611"},{"id":"9104082005","district_id":"9104082","name":"MEYOHDA","postal_code":"98357"},{"id":"9104082006","district_id":"9104082","name":"INOKRA","postal_code":"96585"},{"id":"9104082007","district_id":"9104082","name":"IGEMI","postal_code":"99562"},{"id":"9104082008","district_id":"9104082","name":"MEROK","postal_code":"24571"},{"id":"9104082009","district_id":"9104082","name":"MAHTI","postal_code":"98461"},{"id":"9104082010","district_id":"9104082","name":"MESERKIR","postal_code":"31628"},{"id":"9104082011","district_id":"9104082","name":"MOFICKIN","postal_code":"37382"},{"id":"9104082012","district_id":"9104082","name":"MERENEITEJ","postal_code":"78691"},{"id":"9104082013","district_id":"9104082","name":"MEYAH","postal_code":"98365"},{"id":"9104082014","district_id":"9104082","name":"MASEFA","postal_code":"86153"}]