[{"id":"9105170004","district_id":"9105170","name":"IGOR","postal_code":"98357"},{"id":"9105170005","district_id":"9105170","name":"MEMBOWI","postal_code":"98357"},{"id":"9105170006","district_id":"9105170","name":"MAKWAN","postal_code":"98357"},{"id":"9105170007","district_id":"9105170","name":"MACUAN\/SP V","postal_code":"98357"},{"id":"9105170008","district_id":"9105170","name":"PRAFI BARAT","postal_code":"98357"},{"id":"9105170009","district_id":"9105170","name":"MEIFORGA","postal_code":"98357"},{"id":"9105170010","district_id":"9105170","name":"KALI MERAH","postal_code":"98357"},{"id":"9105170011","district_id":"9105170","name":"MUARA PRAFI\/PRAFI TIMUR","postal_code":"98357"},{"id":"9105170012","district_id":"9105170","name":"BOWI SUBUR\/SP VI","postal_code":"98357"},{"id":"9105170013","district_id":"9105170","name":"SEMBAB","postal_code":"98357"},{"id":"9105170014","district_id":"9105170","name":"SUMBER BOGA\/SP VII","postal_code":"39153"},{"id":"9105170015","district_id":"9105170","name":"WARIORI","postal_code":"98357"},{"id":"9105170016","district_id":"9105170","name":"AURMIOS","postal_code":"98357"},{"id":"9105170023","district_id":"9105170","name":"MANSABURI\/SMARYAM","postal_code":"98357"},{"id":"9105170024","district_id":"9105170","name":"MASNI","postal_code":"98357"},{"id":"9105170026","district_id":"9105170","name":"SIBUNI","postal_code":"98357"},{"id":"9105170033","district_id":"9105170","name":"WAM BOLA","postal_code":"54383"},{"id":"9105170034","district_id":"9105170","name":"WARIORI INDAH","postal_code":"98357"},{"id":"9105170035","district_id":"9105170","name":"RIRINFOS","postal_code":"98357"},{"id":"9105170036","district_id":"9105170","name":"MOBJA","postal_code":"98916"},{"id":"9105170038","district_id":"9105170","name":"JOWEN","postal_code":"98357"},{"id":"9105170039","district_id":"9105170","name":"ASKA","postal_code":"92661"},{"id":"9105170040","district_id":"9105170","name":"MANTEDI","postal_code":"98357"},{"id":"9105170041","district_id":"9105170","name":"KOYANI","postal_code":"98863"},{"id":"9105170042","district_id":"9105170","name":"MUARA WARIORI","postal_code":"98357"},{"id":"9105170043","district_id":"9105170","name":"UNDI","postal_code":"99568"},{"id":"9105170044","district_id":"9105170","name":"YEN SORIBO","postal_code":"98158"},{"id":"9105170047","district_id":"9105170","name":"MEYOF II","postal_code":"98357"}]