[{"id":"9105110001","district_id":"9105110","name":"NIMBAY","postal_code":"98352"},{"id":"9105110002","district_id":"9105110","name":"PRAFI KAMPUNG \/ INDISE","postal_code":"98357"},{"id":"9105110003","district_id":"9105110","name":"SUBSAY","postal_code":"98352"},{"id":"9105110004","district_id":"9105110","name":"MENIY","postal_code":"83355"},{"id":"9105110005","district_id":"9105110","name":"MADRAT","postal_code":"98352"},{"id":"9105110006","district_id":"9105110","name":"DINDEY","postal_code":"98352"},{"id":"9105110008","district_id":"9105110","name":"WARMARE","postal_code":"98352"},{"id":"9105110009","district_id":"9105110","name":"TANAH MERAH","postal_code":"98363"},{"id":"9105110010","district_id":"9105110","name":"HINGK","postal_code":"98352"},{"id":"9105110012","district_id":"9105110","name":"SNAIMBOY","postal_code":"98352"},{"id":"9105110013","district_id":"9105110","name":"IBUWAU","postal_code":"98352"},{"id":"9105110014","district_id":"9105110","name":"CENING\/SOTEA","postal_code":"98352"},{"id":"9105110015","district_id":"9105110","name":"DUWIN UMSINI","postal_code":"98352"},{"id":"9105110016","district_id":"9105110","name":"GUEINTUY","postal_code":"23352"},{"id":"9105110017","district_id":"9105110","name":"IMBOISRATI","postal_code":"98315"},{"id":"9105110018","district_id":"9105110","name":"SRAINDABEY","postal_code":"63453"},{"id":"9105110019","district_id":"9105110","name":"MINOGBEY \/ MINBEY","postal_code":"99569"},{"id":"9105110020","district_id":"9105110","name":"KWAU","postal_code":"98358"},{"id":"9105110021","district_id":"9105110","name":"INDOBEY","postal_code":"98315"},{"id":"9105110022","district_id":"9105110","name":"FIGOUD","postal_code":"98315"},{"id":"9105110023","district_id":"9105110","name":"SYOU","postal_code":"98171"},{"id":"9105110024","district_id":"9105110","name":"MINGGRE","postal_code":"98357"},{"id":"9105110025","district_id":"9105110","name":"DUEIBEI","postal_code":"54265"},{"id":"9105110026","district_id":"9105110","name":"ASARBEY","postal_code":"93461"},{"id":"9105110027","district_id":"9105110","name":"KIPOUW","postal_code":"99568"},{"id":"9105110028","district_id":"9105110","name":"MOKWAM","postal_code":"98358"},{"id":"9105110029","district_id":"9105110","name":"AMBER","postal_code":"98358"},{"id":"9105110030","district_id":"9105110","name":"BAHAMYENTI","postal_code":"98358"},{"id":"9105110031","district_id":"9105110","name":"AYWOU","postal_code":"71154"}]