[{"id":"9105146002","district_id":"9105146","name":"MISABUGOID","postal_code":"98315"},{"id":"9105146003","district_id":"9105146","name":"MBATA","postal_code":"24651"},{"id":"9105146004","district_id":"9105146","name":"HANGHOW","postal_code":"98315"},{"id":"9105146005","district_id":"9105146","name":"NINGDIP","postal_code":"98315"},{"id":"9105146006","district_id":"9105146","name":"RUAMBEI \/ URWAMBEI","postal_code":"98261"},{"id":"9105146007","district_id":"9105146","name":"IMBOITI","postal_code":"98315"},{"id":"9105146008","district_id":"9105146","name":"WARIARI","postal_code":"98315"},{"id":"9105146014","district_id":"9105146","name":"WARAMI","postal_code":"98315"},{"id":"9105146015","district_id":"9105146","name":"IMHASUMA","postal_code":"98315"},{"id":"9105146016","district_id":"9105146","name":"IMBAISIKA I","postal_code":"98354"},{"id":"9105146017","district_id":"9105146","name":"IMBAISIKA II\/IMBOYSIKA","postal_code":"98354"},{"id":"9105146019","district_id":"9105146","name":"UNGKOPTI","postal_code":"94971"},{"id":"9105146020","district_id":"9105146","name":"WARKAPI","postal_code":"98315"},{"id":"9105146021","district_id":"9105146","name":"MIRONI","postal_code":"98315"},{"id":"9105146022","district_id":"9105146","name":"AYAWI","postal_code":"98315"},{"id":"9105146023","district_id":"9105146","name":"INDIBO","postal_code":"98315"},{"id":"9105146024","district_id":"9105146","name":"WARMARWAY","postal_code":"98352"},{"id":"9105146030","district_id":"9105146","name":"WEDONI","postal_code":"98315"},{"id":"9105146031","district_id":"9105146","name":"WAMIGTI","postal_code":"98353"},{"id":"9105146032","district_id":"9105146","name":"UKEMBOUSI","postal_code":"98315"},{"id":"9105146033","district_id":"9105146","name":"MEINYUMFOKU","postal_code":"98315"}]