[{"id":"9105171001","district_id":"9105171","name":"KAIRONI","postal_code":"98357"},{"id":"9105171002","district_id":"9105171","name":"WARAMUI","postal_code":"98315"},{"id":"9105171003","district_id":"9105171","name":"SIDEY JAYA","postal_code":"98357"},{"id":"9105171004","district_id":"9105171","name":"SARAY","postal_code":"98357"},{"id":"9105171005","district_id":"9105171","name":"SIDEY MAKMUR","postal_code":"98357"},{"id":"9105171006","district_id":"9105171","name":"KASI","postal_code":"42182"},{"id":"9105171007","district_id":"9105171","name":"SIDEY","postal_code":"98357"},{"id":"9105171008","district_id":"9105171","name":"SIDEY BARU","postal_code":"98357"},{"id":"9105171009","district_id":"9105171","name":"WAMNOWI","postal_code":"99563"},{"id":"9105171010","district_id":"9105171","name":"WARIKI","postal_code":"98357"},{"id":"9105171011","district_id":"9105171","name":"MEYOF I","postal_code":"98357"},{"id":"9105171012","district_id":"9105171","name":"MANGGUPI","postal_code":"98357"}]