[{"id":"9105120002","district_id":"9105120","name":"WASEKI INDAH","postal_code":"98356"},{"id":"9105120003","district_id":"9105120","name":"WASEKI","postal_code":"98356"},{"id":"9105120004","district_id":"9105120","name":"AIMASI\/SP III AIMASI","postal_code":"98356"},{"id":"9105120005","district_id":"9105120","name":"UDAPI HILIR","postal_code":"50229"},{"id":"9105120006","district_id":"9105120","name":"DESAY","postal_code":"98356"},{"id":"9105120007","district_id":"9105120","name":"PRAFI MULIA","postal_code":"98357"},{"id":"9105120008","district_id":"9105120","name":"INGKWOISI","postal_code":"78714"},{"id":"9105120009","district_id":"9105120","name":"UMBUI","postal_code":"22852"},{"id":"9105120010","district_id":"9105120","name":"BOGOR","postal_code":"98356"},{"id":"9105120011","district_id":"9105120","name":"KALI AMIN","postal_code":"98356"},{"id":"9105120012","district_id":"9105120","name":"OYEHEK BRIK","postal_code":"98816"},{"id":"9105120013","district_id":"9105120","name":"KRENUI","postal_code":"98356"},{"id":"9105120014","district_id":"9105120","name":"SOMI","postal_code":"22871"},{"id":"9105120015","district_id":"9105120","name":"MATOA","postal_code":"25216"},{"id":"9105120016","district_id":"9105120","name":"LISMAUNGU","postal_code":"86111"},{"id":"9105120017","district_id":"9105120","name":"JOUBEN","postal_code":"97771"}]