[{"id":"9107110004","district_id":"9107110","name":"WANURIAN","postal_code":"98453"},{"id":"9107110015","district_id":"9107110","name":"KLABRA","postal_code":"98453"},{"id":"9107110016","district_id":"9107110","name":"KAAS","postal_code":"98453"},{"id":"9107110017","district_id":"9107110","name":"KLARION","postal_code":"98453"},{"id":"9107110019","district_id":"9107110","name":"MUMPI","postal_code":"98453"},{"id":"9107110020","district_id":"9107110","name":"WENSI","postal_code":"98453"},{"id":"9107110021","district_id":"9107110","name":"SERSELION","postal_code":"15311"},{"id":"9107110022","district_id":"9107110","name":"KLAWOM","postal_code":"98411"},{"id":"9107110023","district_id":"9107110","name":"KLAMAK","postal_code":"98456"},{"id":"9107110024","district_id":"9107110","name":"KMAFO","postal_code":"67173"},{"id":"9107110025","district_id":"9107110","name":"MIDLAL","postal_code":"24264"},{"id":"9107110026","district_id":"9107110","name":"SORAIN","postal_code":"98262"},{"id":"9107110027","district_id":"9107110","name":"ARMOIN","postal_code":"99373"}]