[{"id":"9109071001","district_id":"9109071","name":"INAMBUARI","postal_code":"98372"},{"id":"9109071002","district_id":"9109071","name":"KEBAR TIMUR \/ JANDURAU","postal_code":"54393"},{"id":"9109071003","district_id":"9109071","name":"INAM","postal_code":"98372"},{"id":"9109071004","district_id":"9109071","name":"ARUMI","postal_code":"97791"},{"id":"9109071005","district_id":"9109071","name":"KASI INOM","postal_code":"98357"},{"id":"9109071006","district_id":"9109071","name":"IREJI","postal_code":"98354"},{"id":"9109071007","district_id":"9109071","name":"MEY COCFORGA","postal_code":"98918"},{"id":"9109071008","district_id":"9109071","name":"UNTOREY","postal_code":"90241"},{"id":"9109071009","district_id":"9109071","name":"KARAWI","postal_code":"98252"},{"id":"9109071010","district_id":"9109071","name":"SITORI","postal_code":"22382"},{"id":"9109071011","district_id":"9109071","name":"NABISAI","postal_code":"86413"},{"id":"9109071012","district_id":"9109071","name":"ARAMPAK","postal_code":"22866"},{"id":"9109071013","district_id":"9109071","name":"WASABITI","postal_code":"98161"}]