[{"id":"9111060001","district_id":"9111060","name":"WARKWANDI","postal_code":"98353"},{"id":"9111060002","district_id":"9111060","name":"MUARI","postal_code":"98353"},{"id":"9111060003","district_id":"9111060","name":"ORANSBARI","postal_code":"98353"},{"id":"9111060004","district_id":"9111060","name":"MARGOMULYO","postal_code":"62356"},{"id":"9111060005","district_id":"9111060","name":"MARGORUKUN","postal_code":"98353"},{"id":"9111060006","district_id":"9111060","name":"AKEJU","postal_code":"98353"},{"id":"9111060007","district_id":"9111060","name":"SINDANG JAYA","postal_code":"15560"},{"id":"9111060008","district_id":"9111060","name":"WAROSER","postal_code":"98353"},{"id":"9111060009","district_id":"9111060","name":"WARBIADI","postal_code":"98353"},{"id":"9111060010","district_id":"9111060","name":"WATARIRI","postal_code":"98353"},{"id":"9111060011","district_id":"9111060","name":"SIDOMULYO","postal_code":"66262"},{"id":"9111060012","district_id":"9111060","name":"WANDOKI","postal_code":"98353"},{"id":"9111060013","district_id":"9111060","name":"MASABUI 2","postal_code":"78856"},{"id":"9111060014","district_id":"9111060","name":"MASABUI","postal_code":"78856"}]