[{"id":"9111050001","district_id":"9111050","name":"HAMAWI","postal_code":"98355"},{"id":"9111050002","district_id":"9111050","name":"BAMAHA","postal_code":"98355"},{"id":"9111050003","district_id":"9111050","name":"ABRESSO","postal_code":"99572"},{"id":"9111050004","district_id":"9111050","name":"RANSIKI KOTA","postal_code":"98355"},{"id":"9111050005","district_id":"9111050","name":"TOBOUW","postal_code":"97764"},{"id":"9111050006","district_id":"9111050","name":"SABRI","postal_code":"98355"},{"id":"9111050007","district_id":"9111050","name":"KOBREY","postal_code":"98359"},{"id":"9111050008","district_id":"9111050","name":"HAMOR","postal_code":"98355"},{"id":"9111050009","district_id":"9111050","name":"SWER\/WAMCEI","postal_code":"98355"},{"id":"9111050010","district_id":"9111050","name":"MAMBREMA","postal_code":"98355"},{"id":"9111050011","district_id":"9111050","name":"YAMBOY","postal_code":"98911"},{"id":"9111050012","district_id":"9111050","name":"NUHUEI","postal_code":"92983"},{"id":"9111050013","district_id":"9111050","name":"SUSMOROF","postal_code":"98355"}]