[{"id":"9112100001","district_id":"9112100","name":"MORUMFEYI","postal_code":"98315"},{"id":"9112100002","district_id":"9112100","name":"IBA","postal_code":"98315"},{"id":"9112100003","district_id":"9112100","name":"MEKSI","postal_code":"98315"},{"id":"9112100004","district_id":"9112100","name":"MEIGEHENAWU","postal_code":"98315"},{"id":"9112100005","district_id":"9112100","name":"MOFOUKEDA","postal_code":"98315"},{"id":"9112100006","district_id":"9112100","name":"MEIDOGDA","postal_code":"98315"},{"id":"9112100007","district_id":"9112100","name":"ASAY II","postal_code":"98154"},{"id":"9112100009","district_id":"9112100","name":"MENJUGIJI","postal_code":"57794"},{"id":"9112100010","district_id":"9112100","name":"MEIFEKENI","postal_code":"98315"},{"id":"9112100011","district_id":"9112100","name":"SAMEN HON","postal_code":"98463"},{"id":"9112100012","district_id":"9112100","name":"TESTEGA","postal_code":"98315"},{"id":"9112100013","district_id":"9112100","name":"ISHOM","postal_code":"98362"},{"id":"9112100014","district_id":"9112100","name":"JIJGA","postal_code":"74173"},{"id":"9112100015","district_id":"9112100","name":"DEMOURA","postal_code":"37162"}]