[{"id":"9112080001","district_id":"9112080","name":"MBINGMA","postal_code":"22272"},{"id":"9112080002","district_id":"9112080","name":"INGGRAHIM","postal_code":"98365"},{"id":"9112080003","district_id":"9112080","name":"IMBREKTI","postal_code":"98358"},{"id":"9112080004","district_id":"9112080","name":"MEMANGKER","postal_code":"75779"},{"id":"9112080005","district_id":"9112080","name":"IMBONGGUN","postal_code":"98358"},{"id":"9112080006","district_id":"9112080","name":"BINGWOYUD","postal_code":"98358"},{"id":"9112080007","district_id":"9112080","name":"MISADWER\/MICADIWOR","postal_code":"98358"},{"id":"9112080009","district_id":"9112080","name":"DEMAISI","postal_code":"98358"},{"id":"9112080011","district_id":"9112080","name":"COISI","postal_code":"98358"},{"id":"9112080012","district_id":"9112080","name":"MICOMTI","postal_code":"92761"},{"id":"9112080013","district_id":"9112080","name":"UNGGA","postal_code":"98358"},{"id":"9112080014","district_id":"9112080","name":"NIMBIAU","postal_code":"98358"},{"id":"9112080015","district_id":"9112080","name":"SINAYTOISI","postal_code":"22881"},{"id":"9112080016","district_id":"9112080","name":"SIGIM","postal_code":"98358"},{"id":"9112080017","district_id":"9112080","name":"SMAINGEI","postal_code":"20351"},{"id":"9112080018","district_id":"9112080","name":"SIMERBEI","postal_code":"98358"},{"id":"9112080019","district_id":"9112080","name":"APUI","postal_code":"98358"},{"id":"9112080020","district_id":"9112080","name":"AWIBEHEY","postal_code":"98463"},{"id":"9112080021","district_id":"9112080","name":"ADUER","postal_code":"98358"},{"id":"9112080022","district_id":"9112080","name":"ANGGRA","postal_code":"98358"},{"id":"9112080023","district_id":"9112080","name":"AYAU","postal_code":"98358"},{"id":"9112080024","district_id":"9112080","name":"IMBENTI","postal_code":"98358"},{"id":"9112080025","district_id":"9112080","name":"MITIEDE","postal_code":"98358"},{"id":"9112080026","district_id":"9112080","name":"MENYAMBOUW","postal_code":"81171"},{"id":"9112080027","district_id":"9112080","name":"IPINGOISI","postal_code":"96253"},{"id":"9112080028","district_id":"9112080","name":"PIYAUSI","postal_code":"98916"},{"id":"9112080029","district_id":"9112080","name":"MAINDA","postal_code":"98358"},{"id":"9112080030","district_id":"9112080","name":"HANDUK","postal_code":"98358"},{"id":"9112080031","district_id":"9112080","name":"INDABRI","postal_code":"98358"},{"id":"9112080032","district_id":"9112080","name":"NINSIMOI","postal_code":"98358"},{"id":"9112080035","district_id":"9112080","name":"MISAPNGOISI","postal_code":"98315"},{"id":"9112080036","district_id":"9112080","name":"ANDANG","postal_code":"98358"},{"id":"9112080040","district_id":"9112080","name":"WAMINDA","postal_code":"99569"},{"id":"9112080043","district_id":"9112080","name":"DRIYE","postal_code":"98358"},{"id":"9112080049","district_id":"9112080","name":"NJUAR","postal_code":"98358"}]