[{"id":"9112070001","district_id":"9112070","name":"MINGGOT","postal_code":"66171"},{"id":"9112070002","district_id":"9112070","name":"PENIBUT","postal_code":"98357"},{"id":"9112070003","district_id":"9112070","name":"MONUT","postal_code":"98357"},{"id":"9112070004","district_id":"9112070","name":"SOPNYAI","postal_code":"98357"},{"id":"9112070005","district_id":"9112070","name":"NUNGKIMOR","postal_code":"98357"},{"id":"9112070006","district_id":"9112070","name":"NGIMOUBRE","postal_code":"56253"},{"id":"9112070007","district_id":"9112070","name":"KISAP","postal_code":"98357"},{"id":"9112070008","district_id":"9112070","name":"LEIHEAK","postal_code":"95858"},{"id":"9112070009","district_id":"9112070","name":"MBEGAU","postal_code":"98357"},{"id":"9112070010","district_id":"9112070","name":"MINYEIMEMUT","postal_code":"59181"},{"id":"9112070011","district_id":"9112070","name":"DEMUNTI","postal_code":"98357"},{"id":"9112070012","district_id":"9112070","name":"CANGOISI","postal_code":"98357"},{"id":"9112070014","district_id":"9112070","name":"TUMBEIBEHEI","postal_code":"98357"},{"id":"9112070015","district_id":"9112070","name":"TINGKWOIKIU","postal_code":"98357"},{"id":"9112070016","district_id":"9112070","name":"MBRANDE \/ MBRAMDEGA","postal_code":"98357"},{"id":"9112070017","district_id":"9112070","name":"GUEIUTI","postal_code":"98352"},{"id":"9112070018","district_id":"9112070","name":"HUMEYSI","postal_code":"22861"},{"id":"9112070019","district_id":"9112070","name":"KWAIYEHEP","postal_code":"98357"},{"id":"9112070020","district_id":"9112070","name":"IKIMABOW","postal_code":"99566"},{"id":"9112070021","district_id":"9112070","name":"NTAP","postal_code":"98357"},{"id":"9112070022","district_id":"9112070","name":"HEATIE BOUW","postal_code":"99511"},{"id":"9112070023","district_id":"9112070","name":"ARION","postal_code":"30128"},{"id":"9112070025","district_id":"9112070","name":"KWOK I","postal_code":"98357"},{"id":"9112070026","district_id":"9112070","name":"KWOKWISNGUNG\/KWOK II","postal_code":"98357"},{"id":"9112070027","district_id":"9112070","name":"TIGAU COMTI","postal_code":"98357"},{"id":"9112070028","district_id":"9112070","name":"GWEIPINGBAI","postal_code":"99569"},{"id":"9112070029","district_id":"9112070","name":"URWONG","postal_code":"98357"}]