[{"id":"9401050004","district_id":"9401050","name":"WAAN","postal_code":"97582"},{"id":"9401050005","district_id":"9401050","name":"SELAUW","postal_code":"99652"},{"id":"9401050006","district_id":"9401050","name":"KOLAM","postal_code":"73961"},{"id":"9401050007","district_id":"9401050","name":"BOHA","postal_code":"99652"},{"id":"9401050008","district_id":"9401050","name":"PACHAS","postal_code":"99652"},{"id":"9401050009","district_id":"9401050","name":"MUTING","postal_code":"99652"},{"id":"9401050010","district_id":"9401050","name":"WAN WAI BOB","postal_code":"99652"},{"id":"9401050011","district_id":"9401050","name":"AFKAB MAKMUR","postal_code":"22853"},{"id":"9401050012","district_id":"9401050","name":"ANDAITO","postal_code":"99652"},{"id":"9401050013","district_id":"9401050","name":"ELANGGOL JAYA","postal_code":"92511"},{"id":"9401050014","district_id":"9401050","name":"SIGABEL","postal_code":"97464"},{"id":"9401050015","district_id":"9401050","name":"SED AGUNG","postal_code":"20857"}]