[{"id":"9401040006","district_id":"9401040","name":"NASEM","postal_code":"99616"},{"id":"9401040007","district_id":"9401040","name":"RIMBA JAYA","postal_code":"28556"},{"id":"9401040008","district_id":"9401040","name":"WASUR","postal_code":"99611"},{"id":"9401040014","district_id":"9401040","name":"KELAPA LIMA","postal_code":"96467"},{"id":"9401040015","district_id":"9401040","name":"MARO","postal_code":"99613"},{"id":"9401040016","district_id":"9401040","name":"MANDALA","postal_code":"69456"},{"id":"9401040017","district_id":"9401040","name":"SAMKAI","postal_code":"99582"},{"id":"9401040018","district_id":"9401040","name":"KARANG INDAH","postal_code":"72275"},{"id":"9401040056","district_id":"9401040","name":"BAMBU PEMALI","postal_code":"99616"},{"id":"9401040057","district_id":"9401040","name":"SERINGGU JAYA","postal_code":"90853"},{"id":"9401040058","district_id":"9401040","name":"NGGOLAR","postal_code":"85972"},{"id":"9401040059","district_id":"9401040","name":"BOKEM","postal_code":"84182"}]