[{"id":"9402121007","district_id":"9402121","name":"HEATNEM","postal_code":"99566"},{"id":"9402121008","district_id":"9402121","name":"WILILIMO","postal_code":"99566"},{"id":"9402121009","district_id":"9402121","name":"YABEM","postal_code":"99566"},{"id":"9402121010","district_id":"9402121","name":"NUKAHILAPOK","postal_code":"98253"},{"id":"9402121011","district_id":"9402121","name":"WANGGERI","postal_code":"99664"},{"id":"9402121019","district_id":"9402121","name":"YOMAN WEYA","postal_code":"99566"},{"id":"9402121020","district_id":"9402121","name":"ALEAK","postal_code":"99566"},{"id":"9402121021","district_id":"9402121","name":"INANEKELOK","postal_code":"99566"},{"id":"9402121022","district_id":"9402121","name":"FILIA","postal_code":"99566"},{"id":"9402121023","district_id":"9402121","name":"ISUGUNIK","postal_code":"99566"},{"id":"9402121024","district_id":"9402121","name":"WITALAK","postal_code":"99566"},{"id":"9402121025","district_id":"9402121","name":"MULUKMO","postal_code":"99566"},{"id":"9402121026","district_id":"9402121","name":"LANDIA","postal_code":"99566"},{"id":"9402121027","district_id":"9402121","name":"DUABALEK","postal_code":"99566"}]