[{"id":"9408070007","district_id":"9408070","name":"WEBI","postal_code":"98362"},{"id":"9408070008","district_id":"9408070","name":"WARABORI","postal_code":"98253"},{"id":"9408070009","district_id":"9408070","name":"WIMONI","postal_code":"98253"},{"id":"9408070010","district_id":"9408070","name":"ANSUS","postal_code":"98253"},{"id":"9408070011","district_id":"9408070","name":"NATABUI","postal_code":"98253"},{"id":"9408070012","district_id":"9408070","name":"PAPUMA","postal_code":"96524"},{"id":"9408070013","district_id":"9408070","name":"KAIRAWI","postal_code":"98253"},{"id":"9408070014","district_id":"9408070","name":"SASAWA","postal_code":"98253"},{"id":"9408070015","district_id":"9408070","name":"YENUSI MARAU","postal_code":"98253"},{"id":"9408070016","district_id":"9408070","name":"MARAU","postal_code":"98253"},{"id":"9408070017","district_id":"9408070","name":"INOWA","postal_code":"98253"},{"id":"9408070018","district_id":"9408070","name":"MANIRI","postal_code":"98253"},{"id":"9408070020","district_id":"9408070","name":"YARORI","postal_code":"98253"},{"id":"9408070021","district_id":"9408070","name":"TOWETA","postal_code":"98253"},{"id":"9408070022","district_id":"9408070","name":"MOIWANI","postal_code":"97752"},{"id":"9408070023","district_id":"9408070","name":"NUWIORA","postal_code":"98912"},{"id":"9408070024","district_id":"9408070","name":"NAREI","postal_code":"98253"}]