[{"id":"9409090004","district_id":"9409090","name":"MARUR","postal_code":"98157"},{"id":"9409090005","district_id":"9409090","name":"DIANO","postal_code":"98157"},{"id":"9409090006","district_id":"9409090","name":"SAWAY","postal_code":"98157"},{"id":"9409090007","district_id":"9409090","name":"AMAN","postal_code":"98157"},{"id":"9409090008","district_id":"9409090","name":"YERUBOY","postal_code":"98157"},{"id":"9409090009","district_id":"9409090","name":"AMMOY","postal_code":"98157"},{"id":"9409090010","district_id":"9409090","name":"INSWANBESI","postal_code":"98157"},{"id":"9409090011","district_id":"9409090","name":"KOYOMI","postal_code":"98157"},{"id":"9409090012","district_id":"9409090","name":"WASANI","postal_code":"98157"},{"id":"9409090017","district_id":"9409090","name":"KARUIBERIK","postal_code":"98157"},{"id":"9409090018","district_id":"9409090","name":"KOMBOY","postal_code":"98157"},{"id":"9409090020","district_id":"9409090","name":"INSWANBESI SUP","postal_code":"98157"},{"id":"9409090021","district_id":"9409090","name":"INYOBI","postal_code":"98157"},{"id":"9409090022","district_id":"9409090","name":"WARAWAF","postal_code":"98157"},{"id":"9409090023","district_id":"9409090","name":"WIR INSOS","postal_code":"98157"},{"id":"9409090024","district_id":"9409090","name":"BIAWER","postal_code":"98157"},{"id":"9409090025","district_id":"9409090","name":"WANIRI","postal_code":"91672"},{"id":"9409090026","district_id":"9409090","name":"IMBARI","postal_code":"98157"},{"id":"9409090027","district_id":"9409090","name":"MANBEORI","postal_code":"98157"},{"id":"9409090028","district_id":"9409090","name":"MAMFIAS","postal_code":"98157"}]