[{"id":"9409070001","district_id":"9409070","name":"WAROI","postal_code":"99587"},{"id":"9409070002","district_id":"9409070","name":"SAMBER","postal_code":"98155"},{"id":"9409070003","district_id":"9409070","name":"SUNYAR","postal_code":"98155"},{"id":"9409070005","district_id":"9409070","name":"ADOKI","postal_code":"98155"},{"id":"9409070006","district_id":"9409070","name":"YENDIDORI","postal_code":"98155"},{"id":"9409070007","district_id":"9409070","name":"MOIBAKEN","postal_code":"98155"},{"id":"9409070008","district_id":"9409070","name":"WIRMAKER","postal_code":"98155"},{"id":"9409070009","district_id":"9409070","name":"SYABES","postal_code":"98362"},{"id":"9409070010","district_id":"9409070","name":"SAMBER SUP","postal_code":"98155"},{"id":"9409070011","district_id":"9409070","name":"KABIDON","postal_code":"98155"},{"id":"9409070012","district_id":"9409070","name":"RARMPIMBO","postal_code":"95694"},{"id":"9409070013","district_id":"9409070","name":"PADWA","postal_code":"98155"},{"id":"9409070014","district_id":"9409070","name":"SUNERI","postal_code":"98155"},{"id":"9409070015","district_id":"9409070","name":"BINYERI","postal_code":"98155"},{"id":"9409070016","district_id":"9409070","name":"AMYABENRAM","postal_code":"98155"},{"id":"9409070017","district_id":"9409070","name":"INPENDI","postal_code":"98155"},{"id":"9409070018","district_id":"9409070","name":"BIRUBI","postal_code":"98155"},{"id":"9409070019","district_id":"9409070","name":"PADWA PANTAI","postal_code":"98155"}]