[{"id":"9409101001","district_id":"9409101","name":"FARUSI","postal_code":"98154"},{"id":"9409101002","district_id":"9409101","name":"MANDENDERI","postal_code":"98154"},{"id":"9409101003","district_id":"9409101","name":"MARDORI","postal_code":"98154"},{"id":"9409101004","district_id":"9409101","name":"SWAIPAK","postal_code":"98154"},{"id":"9409101005","district_id":"9409101","name":"KANDI BUNDI\/AMPUNBUKOR","postal_code":"51261"},{"id":"9409101006","district_id":"9409101","name":"SARWA","postal_code":"98154"},{"id":"9409101007","district_id":"9409101","name":"NAPDORI","postal_code":"98154"},{"id":"9409101008","district_id":"9409101","name":"RAMDORI","postal_code":"98154"},{"id":"9409101009","district_id":"9409101","name":"WOMBRISAUW","postal_code":"98154"},{"id":"9409101010","district_id":"9409101","name":"SWAINOBER","postal_code":"98154"},{"id":"9409101011","district_id":"9409101","name":"YENBEPIOPER","postal_code":"98172"},{"id":"9409101012","district_id":"9409101","name":"BUSDORI","postal_code":"98154"},{"id":"9409101013","district_id":"9409101","name":"INSUSBARI","postal_code":"98154"},{"id":"9409101014","district_id":"9409101","name":"ANDOINA","postal_code":"98154"},{"id":"9409101015","district_id":"9409101","name":"ORKDORI","postal_code":"98154"},{"id":"9409101016","district_id":"9409101","name":"SASWARBO","postal_code":"98154"}]