[{"id":"9409041001","district_id":"9409041","name":"OPIAREF","postal_code":"98152"},{"id":"9409041002","district_id":"9409041","name":"BAKRIBO","postal_code":"98152"},{"id":"9409041003","district_id":"9409041","name":"MARAO","postal_code":"22867"},{"id":"9409041004","district_id":"9409041","name":"SAWA","postal_code":"93352"},{"id":"9409041005","district_id":"9409041","name":"WADIBU","postal_code":"98152"},{"id":"9409041006","district_id":"9409041","name":"ANGGOPI","postal_code":"98152"},{"id":"9409041007","district_id":"9409041","name":"ANGGADUBER","postal_code":"98152"},{"id":"9409041008","district_id":"9409041","name":"ANIMI","postal_code":"98152"},{"id":"9409041009","district_id":"9409041","name":"KAKUR","postal_code":"98152"},{"id":"9409041010","district_id":"9409041","name":"TANJUNG BARARI","postal_code":"98152"},{"id":"9409041011","district_id":"9409041","name":"SAWADORI","postal_code":"98152"},{"id":"9409041012","district_id":"9409041","name":"SAURI","postal_code":"98152"},{"id":"9409041013","district_id":"9409041","name":"MAKMAKERBO","postal_code":"98152"},{"id":"9409041014","district_id":"9409041","name":"YENSAMA","postal_code":"98152"}]