[{"id":"9410030001","district_id":"9410030","name":"UMBUTU \/ UYUBUTU \/ UWIBUTU","postal_code":"22873"},{"id":"9410030003","district_id":"9410030","name":"ENAROTALI","postal_code":"98719"},{"id":"9410030009","district_id":"9410030","name":"KOPO","postal_code":"42178"},{"id":"9410030012","district_id":"9410030","name":"PAPATO","postal_code":"98711"},{"id":"9410030013","district_id":"9410030","name":"MADI","postal_code":"98714"},{"id":"9410030015","district_id":"9410030","name":"IPAKIJE","postal_code":"98473"},{"id":"9410030018","district_id":"9410030","name":"TIMIDA","postal_code":"98713"},{"id":"9410030019","district_id":"9410030","name":"AIKAI","postal_code":"98711"},{"id":"9410030025","district_id":"9410030","name":"AWABUTU","postal_code":"98713"},{"id":"9410030026","district_id":"9410030","name":"AMOUGI BUTU","postal_code":"93873"},{"id":"9410030027","district_id":"9410030","name":"WOUYEBUTU","postal_code":"99766"},{"id":"9410030028","district_id":"9410030","name":"EKEITADI","postal_code":"92572"},{"id":"9410030029","district_id":"9410030","name":"PUDOTADI","postal_code":"93352"}]