[{"id":"9411064001","district_id":"9411064","name":"AMBIT-MBIT","postal_code":"98916"},{"id":"9411064002","district_id":"9411064","name":"AGOBAGA","postal_code":"54265"},{"id":"9411064003","district_id":"9411064","name":"ALUKME","postal_code":"24661"},{"id":"9411064004","district_id":"9411064","name":"ANGGITARI","postal_code":"93111"},{"id":"9411064005","district_id":"9411064","name":"JIBINGGAME","postal_code":"98912"},{"id":"9411064006","district_id":"9411064","name":"NAKOGWE","postal_code":"99654"},{"id":"9411064007","district_id":"9411064","name":"GINILOME","postal_code":"98912"},{"id":"9411064008","district_id":"9411064","name":"YALIBATE","postal_code":"98912"},{"id":"9411064009","district_id":"9411064","name":"WURUNIKIME","postal_code":"98912"},{"id":"9411064010","district_id":"9411064","name":"LERAWERA","postal_code":"98912"},{"id":"9411064011","district_id":"9411064","name":"ANDIRON","postal_code":"98916"},{"id":"9411064012","district_id":"9411064","name":"TENOMANGGEN","postal_code":"98916"},{"id":"9411064013","district_id":"9411064","name":"TIRIGOI","postal_code":"98916"},{"id":"9411064014","district_id":"9411064","name":"MONDOGONERI","postal_code":"98912"},{"id":"9411064015","district_id":"9411064","name":"TOWOLUK","postal_code":"98912"},{"id":"9411064016","district_id":"9411064","name":"TENOLOK","postal_code":"98911"},{"id":"9411064017","district_id":"9411064","name":"ORILUK","postal_code":"98912"},{"id":"9411064018","district_id":"9411064","name":"PAGARUGOM","postal_code":"98912"},{"id":"9411064019","district_id":"9411064","name":"JIOGOBAK","postal_code":"99562"}]