[{"id":"9411071001","district_id":"9411071","name":"TORAGE","postal_code":"98912"},{"id":"9411071002","district_id":"9411071","name":"PALUMAGI","postal_code":"98912"},{"id":"9411071003","district_id":"9411071","name":"JIRAMOK","postal_code":"98912"},{"id":"9411071004","district_id":"9411071","name":"YANENGGAWI","postal_code":"98912"},{"id":"9411071005","district_id":"9411071","name":"WURABUME","postal_code":"98912"},{"id":"9411071006","district_id":"9411071","name":"BINGGELUME","postal_code":"98912"},{"id":"9411071007","district_id":"9411071","name":"KAYOGEBUR","postal_code":"98912"},{"id":"9411071008","district_id":"9411071","name":"KALOME","postal_code":"98912"},{"id":"9411071009","district_id":"9411071","name":"AGAPE","postal_code":"98912"},{"id":"9411071010","district_id":"9411071","name":"CILOME","postal_code":"98912"},{"id":"9411071011","district_id":"9411071","name":"LONGGAWI","postal_code":"98912"},{"id":"9411071012","district_id":"9411071","name":"WUNDINI","postal_code":"98912"},{"id":"9411071014","district_id":"9411071","name":"DIRALUK","postal_code":"98912"},{"id":"9411071015","district_id":"9411071","name":"PILIBUR","postal_code":"98912"},{"id":"9411071016","district_id":"9411071","name":"JINGGWI","postal_code":"98912"}]