[{"id":"9411063001","district_id":"9411063","name":"YAMONERI","postal_code":"98916"},{"id":"9411063002","district_id":"9411063","name":"GUMAWI","postal_code":"98916"},{"id":"9411063003","district_id":"9411063","name":"DIGOLOME","postal_code":"99582"},{"id":"9411063004","district_id":"9411063","name":"NGGINIGUM","postal_code":"98916"},{"id":"9411063006","district_id":"9411063","name":"JIMBENERI","postal_code":"63492"},{"id":"9411063007","district_id":"9411063","name":"ABERIAMBUT","postal_code":"98916"},{"id":"9411063008","district_id":"9411063","name":"KOBARAK","postal_code":"98916"},{"id":"9411063009","district_id":"9411063","name":"WUGIWAGI","postal_code":"98916"},{"id":"9411063010","district_id":"9411063","name":"YAGALUK","postal_code":"98916"},{"id":"9411063011","district_id":"9411063","name":"MOULO","postal_code":"98911"},{"id":"9411063012","district_id":"9411063","name":"JIMBANIME","postal_code":"98916"},{"id":"9411063013","district_id":"9411063","name":"JIGOLOK","postal_code":"98912"},{"id":"9411063014","district_id":"9411063","name":"JIGELO","postal_code":"98916"},{"id":"9411063015","district_id":"9411063","name":"PIYAPIGI","postal_code":"98916"}]