[{"id":"9411067001","district_id":"9411067","name":"KUMIGI","postal_code":"51273"},{"id":"9411067003","district_id":"9411067","name":"APELOME","postal_code":"98915"},{"id":"9411067004","district_id":"9411067","name":"MONDU","postal_code":"87153"},{"id":"9411067005","district_id":"9411067","name":"GUBUNERI","postal_code":"98915"},{"id":"9411067006","district_id":"9411067","name":"KENENDAGA","postal_code":"98915"},{"id":"9411067007","district_id":"9411067","name":"TIMORAMO","postal_code":"99568"},{"id":"9411067008","district_id":"9411067","name":"MENGGEGENIKIME","postal_code":"99562"},{"id":"9411067009","district_id":"9411067","name":"TINGGERAGE","postal_code":"94362"},{"id":"9411067010","district_id":"9411067","name":"WUNGGANI","postal_code":"87153"},{"id":"9411067011","district_id":"9411067","name":"MILINERI","postal_code":"99562"},{"id":"9411067012","district_id":"9411067","name":"MELELA","postal_code":"98915"},{"id":"9411067013","district_id":"9411067","name":"NOBA-NOBA","postal_code":"78655"},{"id":"9411067014","district_id":"9411067","name":"NOGI","postal_code":"98915"},{"id":"9411067015","district_id":"9411067","name":"JINGGI","postal_code":"98915"},{"id":"9411067016","district_id":"9411067","name":"GINILUME","postal_code":"98915"},{"id":"9411067017","district_id":"9411067","name":"LINGGUNI","postal_code":"99872"}]