[{"id":"9414031001","district_id":"9414031","name":"RIMBA JAYA \/ GAYU","postal_code":"99871"},{"id":"9414031002","district_id":"9414031","name":"KAIME","postal_code":"99871"},{"id":"9414031003","district_id":"9414031","name":"T A I M\/PASUE","postal_code":"98161"},{"id":"9414031004","district_id":"9414031","name":"KOTIAK","postal_code":"99871"},{"id":"9414031005","district_id":"9414031","name":"N O H O N","postal_code":"21451"},{"id":"9414031006","district_id":"9414031","name":"KOTUP \/ XOTUP","postal_code":"99871"},{"id":"9414031007","district_id":"9414031","name":"TOKOMPATU","postal_code":"99871"},{"id":"9414031008","district_id":"9414031","name":"MENYA","postal_code":"99871"},{"id":"9414031009","district_id":"9414031","name":"BAGARAM","postal_code":"99871"},{"id":"9414031010","district_id":"9414031","name":"SEPOH","postal_code":"99871"},{"id":"9414031011","district_id":"9414031","name":"BAITATE","postal_code":"99871"},{"id":"9414031012","district_id":"9414031","name":"AFOGOMA","postal_code":"99871"}]