[{"id":"9414010001","district_id":"9414010","name":"WAGIN","postal_code":"99872"},{"id":"9414010003","district_id":"9414010","name":"LINGGUA","postal_code":"99872"},{"id":"9414010004","district_id":"9414010","name":"YATAN","postal_code":"99872"},{"id":"9414010005","district_id":"9414010","name":"KATAN","postal_code":"93752"},{"id":"9414010006","district_id":"9414010","name":"MONANA","postal_code":"99872"},{"id":"9414010007","district_id":"9414010","name":"WAMAN","postal_code":"99872"},{"id":"9414010008","district_id":"9414010","name":"KOBA","postal_code":"33681"},{"id":"9414010009","district_id":"9414010","name":"KOGOYAMAN","postal_code":"99872"},{"id":"9414010010","district_id":"9414010","name":"IMA","postal_code":"99872"},{"id":"9414010011","district_id":"9414010","name":"AGHAM","postal_code":"68372"},{"id":"9414010013","district_id":"9414010","name":"MAGABAK","postal_code":"99872"},{"id":"9414010014","district_id":"9414010","name":"GHANU","postal_code":"99872"},{"id":"9414010015","district_id":"9414010","name":"WARUME","postal_code":"51152"}]