[{"id":"9415041001","district_id":"9415041","name":"BINAMZAIN","postal_code":"99766"},{"id":"9415041002","district_id":"9415041","name":"PIRABANAK","postal_code":"99766"},{"id":"9415041003","district_id":"9415041","name":"WOUTU BRAZA","postal_code":"99766"},{"id":"9415041004","district_id":"9415041","name":"PATIPPI","postal_code":"98661"},{"id":"9415041005","district_id":"9415041","name":"WOUTU KOLOF","postal_code":"99766"},{"id":"9415041006","district_id":"9415041","name":"SIPANAP","postal_code":"22616"},{"id":"9415041007","district_id":"9415041","name":"PEPERA","postal_code":"99583"},{"id":"9415041008","district_id":"9415041","name":"ULAKIN","postal_code":"99766"},{"id":"9415041009","district_id":"9415041","name":"WAIJENS","postal_code":"99766"},{"id":"9415041010","district_id":"9415041","name":"BUTUKATNAU","postal_code":"99766"},{"id":"9415041011","district_id":"9415041","name":"AUBAN","postal_code":"99766"},{"id":"9415041019","district_id":"9415041","name":"KAPAYAP I","postal_code":"99766"},{"id":"9415041020","district_id":"9415041","name":"KAPAYAP II","postal_code":"99766"}]