[{"id":"9416016001","district_id":"9416016","name":"AMUMA","postal_code":"99571"},{"id":"9416016002","district_id":"9416016","name":"TOLIKAPURA","postal_code":"93883"},{"id":"9416016003","district_id":"9416016","name":"SARMUGE","postal_code":"99571"},{"id":"9416016004","district_id":"9416016","name":"WISIKMA","postal_code":"99571"},{"id":"9416016005","district_id":"9416016","name":"BALUM ERANG","postal_code":"99571"},{"id":"9416016006","district_id":"9416016","name":"GOLOWEN","postal_code":"99571"},{"id":"9416016007","district_id":"9416016","name":"ORUGAI","postal_code":"99571"},{"id":"9416016008","district_id":"9416016","name":"SAGASAL","postal_code":"99571"},{"id":"9416016009","district_id":"9416016","name":"SILORIN","postal_code":"99571"},{"id":"9416016010","district_id":"9416016","name":"WAEKLEK","postal_code":"99571"},{"id":"9416016011","district_id":"9416016","name":"PLAU","postal_code":"99571"},{"id":"9416016012","district_id":"9416016","name":"HARAPAN","postal_code":"99571"},{"id":"9416016013","district_id":"9416016","name":"KINIKA","postal_code":"99571"}]