[{"id":"9416051004","district_id":"9416051","name":"WESAGALEP","postal_code":"99571"},{"id":"9416051005","district_id":"9416051","name":"WESAMA","postal_code":"99571"},{"id":"9416051006","district_id":"9416051","name":"WEASI","postal_code":"97611"},{"id":"9416051007","district_id":"9416051","name":"HONOASUOK","postal_code":"99574"},{"id":"9416051008","district_id":"9416051","name":"WERIAPUT","postal_code":"99571"},{"id":"9416051009","district_id":"9416051","name":"SUESI","postal_code":"99571"},{"id":"9416051011","district_id":"9416051","name":"ESEMA HUSAGE","postal_code":"99571"},{"id":"9416051012","district_id":"9416051","name":"LIBUK","postal_code":"99571"},{"id":"9416051013","district_id":"9416051","name":"HEPIA","postal_code":"99571"},{"id":"9416051014","district_id":"9416051","name":"HAGAWEN","postal_code":"99571"},{"id":"9416051015","district_id":"9416051","name":"WERIMA","postal_code":"99571"},{"id":"9416051016","district_id":"9416051","name":"LUARIMA","postal_code":"99571"},{"id":"9416051017","district_id":"9416051","name":"LOKON","postal_code":"99571"}]