[{"id":"9416044002","district_id":"9416044","name":"SEIMA","postal_code":"99571"},{"id":"9416044003","district_id":"9416044","name":"YUARIMA","postal_code":"99571"},{"id":"9416044004","district_id":"9416044","name":"KOSIHUN","postal_code":"99571"},{"id":"9416044005","district_id":"9416044","name":"HUNENIMA","postal_code":"99571"},{"id":"9416044006","district_id":"9416044","name":"TOGOLUK","postal_code":"99571"},{"id":"9416044007","district_id":"9416044","name":"HENDANG","postal_code":"99571"},{"id":"9416044008","district_id":"9416044","name":"HERWAE","postal_code":"97452"},{"id":"9416044010","district_id":"9416044","name":"WUSAGASEM","postal_code":"99571"},{"id":"9416044011","district_id":"9416044","name":"ITLAY WOPI","postal_code":"99571"},{"id":"9416044012","district_id":"9416044","name":"ILOKOMO","postal_code":"99571"},{"id":"9416044013","district_id":"9416044","name":"HULESI","postal_code":"99571"},{"id":"9416044014","district_id":"9416044","name":"WANESI","postal_code":"99571"},{"id":"9416044015","district_id":"9416044","name":"PANYOKE","postal_code":"99571"},{"id":"9416044016","district_id":"9416044","name":"NYIKINEN","postal_code":"99571"},{"id":"9416044017","district_id":"9416044","name":"WESANGMA","postal_code":"99571"},{"id":"9416044018","district_id":"9416044","name":"OLOMISANG","postal_code":"99571"},{"id":"9416044019","district_id":"9416044","name":"WEMASILI","postal_code":"99571"}]