[{"id":"9416031001","district_id":"9416031","name":"PONTENIKMA","postal_code":"99582"},{"id":"9416031002","district_id":"9416031","name":"KUNI","postal_code":"99582"},{"id":"9416031003","district_id":"9416031","name":"PANGGEMA","postal_code":"99582"},{"id":"9416031004","district_id":"9416031","name":"HOMTONGGO","postal_code":"98652"},{"id":"9416031005","district_id":"9416031","name":"TUKAM","postal_code":"99582"},{"id":"9416031006","district_id":"9416031","name":"YANGKALI","postal_code":"99582"},{"id":"9416031007","district_id":"9416031","name":"WERESILI","postal_code":"99582"},{"id":"9416031009","district_id":"9416031","name":"KOLU","postal_code":"99582"},{"id":"9416031010","district_id":"9416031","name":"BINTELUK","postal_code":"95763"},{"id":"9416031011","district_id":"9416031","name":"KEMUMANGGEN","postal_code":"99582"},{"id":"9416031012","district_id":"9416031","name":"TONGGOI","postal_code":"99582"},{"id":"9416031013","district_id":"9416031","name":"MASAHAN","postal_code":"99582"}]