[{"id":"9416034001","district_id":"9416034","name":"SARUK","postal_code":"99582"},{"id":"9416034002","district_id":"9416034","name":"UBAHAK","postal_code":"99582"},{"id":"9416034003","district_id":"9416034","name":"SOSOMIKMA","postal_code":"94882"},{"id":"9416034004","district_id":"9416034","name":"PINI","postal_code":"99582"},{"id":"9416034006","district_id":"9416034","name":"MABIEN","postal_code":"99582"},{"id":"9416034008","district_id":"9416034","name":"SILONG","postal_code":"99582"},{"id":"9416034009","district_id":"9416034","name":"NURAP","postal_code":"99582"},{"id":"9416034010","district_id":"9416034","name":"WAMUHUK","postal_code":"93611"},{"id":"9416034011","district_id":"9416034","name":"WELILE","postal_code":"99582"},{"id":"9416034012","district_id":"9416034","name":"KIBIANGGEN","postal_code":"99582"},{"id":"9416034014","district_id":"9416034","name":"TOLOMPING","postal_code":"95995"},{"id":"9416034015","district_id":"9416034","name":"OBLIN","postal_code":"99582"},{"id":"9416034016","district_id":"9416034","name":"KOLUONG","postal_code":"99582"},{"id":"9416034018","district_id":"9416034","name":"BISIFAK","postal_code":"99582"}]