[{"id":"9416010025","district_id":"9416010","name":"IBIROMA","postal_code":"99571"},{"id":"9416010026","district_id":"9416010","name":"WANEM","postal_code":"99571"},{"id":"9416010027","district_id":"9416010","name":"ANJELMA","postal_code":"99571"},{"id":"9416010028","district_id":"9416010","name":"OBOLMA","postal_code":"99571"},{"id":"9416010029","district_id":"9416010","name":"HIHUNDES","postal_code":"99571"},{"id":"9416010038","district_id":"9416010","name":"KILISE","postal_code":"99571"},{"id":"9416010039","district_id":"9416010","name":"KIMA","postal_code":"99571"},{"id":"9416010040","district_id":"9416010","name":"LUHULEMA","postal_code":"97454"},{"id":"9416010041","district_id":"9416010","name":"YAGARELO","postal_code":"99571"},{"id":"9416010042","district_id":"9416010","name":"WULIK PUNUA","postal_code":"99571"},{"id":"9416010043","district_id":"9416010","name":"ESALIEN","postal_code":"99571"},{"id":"9416010044","district_id":"9416010","name":"TUKUAREK","postal_code":"99571"},{"id":"9416010045","district_id":"9416010","name":"LOTIA\/HUGLOT","postal_code":"85574"},{"id":"9416010046","district_id":"9416010","name":"PUSUAGA","postal_code":"99571"},{"id":"9416010047","district_id":"9416010","name":"SOROH","postal_code":"99571"},{"id":"9416010048","district_id":"9416010","name":"EROMA","postal_code":"99571"},{"id":"9416010049","district_id":"9416010","name":"AIR GARAM","postal_code":"99571"},{"id":"9416010050","district_id":"9416010","name":"WULUAGAIMA","postal_code":"93781"},{"id":"9416010052","district_id":"9416010","name":"HUGUMA","postal_code":"99571"},{"id":"9416010053","district_id":"9416010","name":"PARELA","postal_code":"99571"},{"id":"9416010054","district_id":"9416010","name":"HESMAT","postal_code":"99584"}]