[{"id":"9416026001","district_id":"9416026","name":"YALISOMON","postal_code":"99578"},{"id":"9416026002","district_id":"9416026","name":"YABI","postal_code":"99553"},{"id":"9416026003","district_id":"9416026","name":"HAMIK","postal_code":"99578"},{"id":"9416026004","district_id":"9416026","name":"KULAHAIK","postal_code":"99578"},{"id":"9416026005","district_id":"9416026","name":"SOBAHAM","postal_code":"99578"},{"id":"9416026006","district_id":"9416026","name":"BALINGGAMA","postal_code":"99578"},{"id":"9416026007","district_id":"9416026","name":"DOHONG","postal_code":"99578"},{"id":"9416026008","district_id":"9416026","name":"SIMBUK","postal_code":"99578"},{"id":"9416026009","district_id":"9416026","name":"PUAHUN","postal_code":"31214"},{"id":"9416026010","district_id":"9416026","name":"SILAK PAHABOL","postal_code":"99578"},{"id":"9416026012","district_id":"9416026","name":"BENEMBIA","postal_code":"99578"},{"id":"9416026013","district_id":"9416026","name":"HUBIK","postal_code":"99578"}]