[{"id":"9417022003","district_id":"9417022","name":"ALEMSOM","postal_code":"99573"},{"id":"9417022004","district_id":"9417022","name":"ERADUMAN","postal_code":"99573"},{"id":"9417022005","district_id":"9417022","name":"TAPASIK","postal_code":"99578"},{"id":"9417022006","district_id":"9417022","name":"BAKWALIM YUB","postal_code":"93891"},{"id":"9417022007","district_id":"9417022","name":"IMIRIYI","postal_code":"99573"},{"id":"9417022008","district_id":"9417022","name":"SUNTAMON","postal_code":"99578"},{"id":"9417022009","district_id":"9417022","name":"BONDIK","postal_code":"99573"},{"id":"9417022010","district_id":"9417022","name":"MIRUMAN","postal_code":"23373"},{"id":"9417022011","district_id":"9417022","name":"BUNALKON","postal_code":"95246"},{"id":"9417022012","district_id":"9417022","name":"TIMBAL","postal_code":"26217"},{"id":"9417022013","district_id":"9417022","name":"PAYOL MASUMKON","postal_code":"99573"},{"id":"9417022014","district_id":"9417022","name":"TAPOK","postal_code":"86681"}]