[{"id":"9418025001","district_id":"9418025","name":"MENGGEBA","postal_code":"99562"},{"id":"9418025002","district_id":"9418025","name":"ALOPUR","postal_code":"99562"},{"id":"9418025003","district_id":"9418025","name":"KUARI","postal_code":"99571"},{"id":"9418025005","district_id":"9418025","name":"WANGGUGUP","postal_code":"99562"},{"id":"9418025006","district_id":"9418025","name":"BALIMINGGI","postal_code":"99562"},{"id":"9418025007","district_id":"9418025","name":"ABEPUR","postal_code":"99562"},{"id":"9418025008","district_id":"9418025","name":"MARKAR","postal_code":"99562"},{"id":"9418025009","district_id":"9418025","name":"UMAGA","postal_code":"99561"},{"id":"9418025010","district_id":"9418025","name":"KURIK","postal_code":"99562"},{"id":"9418025012","district_id":"9418025","name":"MENGGENAGAME","postal_code":"99562"},{"id":"9418025013","district_id":"9418025","name":"LUANGGI","postal_code":"99562"},{"id":"9418025014","district_id":"9418025","name":"KONDEGUN","postal_code":"99562"},{"id":"9418025015","district_id":"9418025","name":"JINULIRA","postal_code":"99562"},{"id":"9418025016","district_id":"9418025","name":"GUBAGI","postal_code":"99562"},{"id":"9418025017","district_id":"9418025","name":"TEBENALO","postal_code":"99562"},{"id":"9418025018","district_id":"9418025","name":"KIBUR","postal_code":"99562"}]