[{"id":"9418031001","district_id":"9418031","name":"BOKONERI","postal_code":"99561"},{"id":"9418031002","district_id":"9418031","name":"DONGGEM","postal_code":"99561"},{"id":"9418031003","district_id":"9418031","name":"MUNAGAME","postal_code":"99561"},{"id":"9418031004","district_id":"9418031","name":"ABIMBAK","postal_code":"99561"},{"id":"9418031006","district_id":"9418031","name":"KANEWUNUK","postal_code":"99561"},{"id":"9418031007","district_id":"9418031","name":"NANGGURILIME","postal_code":"99561"},{"id":"9418031008","district_id":"9418031","name":"OMUK","postal_code":"99561"},{"id":"9418031009","district_id":"9418031","name":"DURIMA","postal_code":"99561"},{"id":"9418031011","district_id":"9418031","name":"BOLLY","postal_code":"99561"},{"id":"9418031012","district_id":"9418031","name":"NUNGGALO","postal_code":"99561"},{"id":"9418031013","district_id":"9418031","name":"WERI","postal_code":"99582"},{"id":"9418031014","district_id":"9418031","name":"TANABUME","postal_code":"99561"},{"id":"9418031015","district_id":"9418031","name":"KANERE","postal_code":"99561"},{"id":"9418031016","district_id":"9418031","name":"WONAGA","postal_code":"99561"},{"id":"9418031017","district_id":"9418031","name":"WARINGGA","postal_code":"99561"}]