[{"id":"9418048001","district_id":"9418048","name":"WARI","postal_code":"99374"},{"id":"9418048002","district_id":"9418048","name":"PAPEDARI","postal_code":"99569"},{"id":"9418048003","district_id":"9418048","name":"DOTORI","postal_code":"99569"},{"id":"9418048004","district_id":"9418048","name":"TIMOGA","postal_code":"99568"},{"id":"9418048005","district_id":"9418048","name":"KOWARI","postal_code":"99569"},{"id":"9418048006","district_id":"9418048","name":"WIKI","postal_code":"99569"},{"id":"9418048008","district_id":"9418048","name":"FRIJI","postal_code":"99569"},{"id":"9418048009","district_id":"9418048","name":"DORERA","postal_code":"99569"},{"id":"9418048010","district_id":"9418048","name":"YANORA","postal_code":"99569"},{"id":"9418048011","district_id":"9418048","name":"MUNA","postal_code":"99569"},{"id":"9418048012","district_id":"9418048","name":"BELEISE","postal_code":"99569"},{"id":"9418048013","district_id":"9418048","name":"KALIBU","postal_code":"99569"},{"id":"9418048014","district_id":"9418048","name":"YAMIRIKO","postal_code":"99582"},{"id":"9418048015","district_id":"9418048","name":"NINGGAME","postal_code":"98315"},{"id":"9418048016","district_id":"9418048","name":"LANILOMA","postal_code":"99569"},{"id":"9418048017","district_id":"9418048","name":"WAKUMEDER","postal_code":"93755"}]