[{"id":"9420050001","district_id":"9420050","name":"SKAMTO","postal_code":"66275"},{"id":"9420050002","district_id":"9420050","name":"UPT ARSO XIII \/ NARAMBEN","postal_code":"96271"},{"id":"9420050003","district_id":"9420050","name":"UPT ARSO XIV \/ WULUKUBUN","postal_code":"96271"},{"id":"9420050004","district_id":"9420050","name":"UPT ARSO V \/ WIYANTRI","postal_code":"96271"},{"id":"9420050005","district_id":"9420050","name":"UPT ARSO IV \/ ARSOPURA","postal_code":"96271"},{"id":"9420050006","district_id":"9420050","name":"UPT ARSO III \/ JAIFURI","postal_code":"96271"},{"id":"9420050007","district_id":"9420050","name":"UPT ARSO IX \/ INTAIMILYAN","postal_code":"96271"},{"id":"9420050008","district_id":"9420050","name":"UPT ARSO XII \/ TRAIMILYAN","postal_code":"96271"},{"id":"9420050009","district_id":"9420050","name":"WALMA","postal_code":"99582"},{"id":"9420050010","district_id":"9420050","name":"GUDANG GARAM","postal_code":"20984"},{"id":"9420050011","district_id":"9420050","name":"SAEFEN 4.2","postal_code":"77453"},{"id":"9420050012","district_id":"9420050","name":"ALANG-ALANG RAYA","postal_code":"30154"}]