[{"id":"9426030001","district_id":"9426030","name":"MATADI","postal_code":"98862"},{"id":"9426030002","district_id":"9426030","name":"DIMBA","postal_code":"99567"},{"id":"9426030003","district_id":"9426030","name":"MPOMINATADI","postal_code":"94684"},{"id":"9426030004","district_id":"9426030","name":"MAIYAPO","postal_code":"91854"},{"id":"9426030005","district_id":"9426030","name":"OYETADI","postal_code":"99361"},{"id":"9426030006","district_id":"9426030","name":"MAOLAGI","postal_code":"94761"},{"id":"9426030007","district_id":"9426030","name":"MBAINDOTADI","postal_code":"98652"},{"id":"9426030008","district_id":"9426030","name":"NABUYA","postal_code":"85764"},{"id":"9426030009","district_id":"9426030","name":"DAPIYAGA","postal_code":"85871"},{"id":"9426030010","district_id":"9426030","name":"WALAMPA BUTU","postal_code":"93663"},{"id":"9426030011","district_id":"9426030","name":"DIDIWOI","postal_code":"94663"},{"id":"9426030013","district_id":"9426030","name":"MALEWOYA","postal_code":"91998"},{"id":"9426030014","district_id":"9426030","name":"TUNGGAMBA","postal_code":"54394"},{"id":"9426030015","district_id":"9426030","name":"EBAWAIDA","postal_code":"85661"},{"id":"9426030016","district_id":"9426030","name":"DABOTO","postal_code":"78384"}]