[{"id":"9429050018","district_id":"9429050","name":"DONDOKLAME","postal_code":"94753"},{"id":"9429050019","district_id":"9429050","name":"DOBOPEM","postal_code":"99564"},{"id":"9429050020","district_id":"9429050","name":"PARU","postal_code":"27553"},{"id":"9429050022","district_id":"9429050","name":"KEMAMBURU","postal_code":"99564"},{"id":"9429050023","district_id":"9429050","name":"WOMSIT","postal_code":"99564"},{"id":"9429050025","district_id":"9429050","name":"KEREP ANGGOMA","postal_code":"59254"},{"id":"9429050026","district_id":"9429050","name":"MANEP","postal_code":"97557"},{"id":"9429050028","district_id":"9429050","name":"YALSENGGE","postal_code":"99562"},{"id":"9429050034","district_id":"9429050","name":"SARIT","postal_code":"99564"},{"id":"9429050037","district_id":"9429050","name":"SAMBUA","postal_code":"99564"},{"id":"9429050038","district_id":"9429050","name":"GISAROK","postal_code":"99564"},{"id":"9429050039","district_id":"9429050","name":"ISIKLAK","postal_code":"99564"}]