[{"id":"9430010017","district_id":"9430010","name":"MAMIRI","postal_code":"99555"},{"id":"9430010018","district_id":"9430010","name":"JIWIKELANNY","postal_code":"63161"},{"id":"9430010019","district_id":"9430010","name":"NISIMOK","postal_code":"86262"},{"id":"9430010021","district_id":"9430010","name":"PINAME","postal_code":"95954"},{"id":"9430010022","district_id":"9430010","name":"LONDU","postal_code":"36371"},{"id":"9430010023","district_id":"9430010","name":"KAGALUWI","postal_code":"99652"},{"id":"9430010024","district_id":"9430010","name":"KOTORAMBUR","postal_code":"99562"},{"id":"9430010025","district_id":"9430010","name":"YORENIME","postal_code":"99557"},{"id":"9430010026","district_id":"9430010","name":"WAGANENGA","postal_code":"99584"},{"id":"9430010027","district_id":"9430010","name":"GEMBILANI","postal_code":"29255"},{"id":"9430010028","district_id":"9430010","name":"NAMBUME","postal_code":"99567"},{"id":"9430010029","district_id":"9430010","name":"TENGENAWI","postal_code":"69453"}]