[{"id":"9431040001","district_id":"9431040","name":"MOGONIK","postal_code":"99553"},{"id":"9431040002","district_id":"9431040","name":"KINO","postal_code":"98156"},{"id":"9431040003","district_id":"9431040","name":"AYEKI","postal_code":"99553"},{"id":"9431040004","district_id":"9431040","name":"MOLOGI","postal_code":"99465"},{"id":"9431040005","district_id":"9431040","name":"YABENDILI","postal_code":"99553"},{"id":"9431040006","district_id":"9431040","name":"WINIMA","postal_code":"99553"},{"id":"9431040007","district_id":"9431040","name":"ARSBOL","postal_code":"99553"},{"id":"9431040008","district_id":"9431040","name":"WANILOK\/YELAM","postal_code":"99553"},{"id":"9431040009","district_id":"9431040","name":"PAGALE","postal_code":"99553"},{"id":"9431040010","district_id":"9431040","name":"ENGGAIMA","postal_code":"78571"},{"id":"9431040011","district_id":"9431040","name":"ENGGAMA","postal_code":"99553"},{"id":"9431040012","district_id":"9431040","name":"WINAM","postal_code":"99553"},{"id":"9431040013","district_id":"9431040","name":"KUGAP","postal_code":"99553"},{"id":"9431040014","district_id":"9431040","name":"ERAGEAM","postal_code":"99569"}]