[{"id":"9431030001","district_id":"9431030","name":"TONGRIK\/YINAGA","postal_code":"99553"},{"id":"9431030002","district_id":"9431030","name":"YAGABUR","postal_code":"99553"},{"id":"9431030003","district_id":"9431030","name":"TARI","postal_code":"99561"},{"id":"9431030004","district_id":"9431030","name":"GELORA","postal_code":"28992"},{"id":"9431030005","district_id":"9431030","name":"UGANDA","postal_code":"99553"},{"id":"9431030007","district_id":"9431030","name":"TIKAPURA","postal_code":"99553"},{"id":"9431030008","district_id":"9431030","name":"TIMERIA","postal_code":"99553"},{"id":"9431030009","district_id":"9431030","name":"ONGGOBALO\/GWIPU","postal_code":"99553"},{"id":"9431030010","district_id":"9431030","name":"MABUNA","postal_code":"99563"},{"id":"9431030012","district_id":"9431030","name":"KELILA","postal_code":"99553"},{"id":"9431030013","district_id":"9431030","name":"KAMBO","postal_code":"91925"},{"id":"9431030014","district_id":"9431030","name":"DOGOBAK","postal_code":"99553"},{"id":"9431030015","district_id":"9431030","name":"PELANME","postal_code":"62262"},{"id":"9431030016","district_id":"9431030","name":"KINDOK","postal_code":"71372"},{"id":"9431030017","district_id":"9431030","name":"YALONGGOLO","postal_code":"99562"},{"id":"9431030019","district_id":"9431030","name":"APALO","postal_code":"99553"}]