[{"id":"9432010001","district_id":"9432010","name":"SALY","postal_code":"99585"},{"id":"9432010002","district_id":"9432010","name":"MABUALEM","postal_code":"99585"},{"id":"9432010004","district_id":"9432010","name":"WELAREK","postal_code":"99585"},{"id":"9432010005","district_id":"9432010","name":"PISANGGO","postal_code":"99585"},{"id":"9432010006","district_id":"9432010","name":"SALEMA","postal_code":"99585"},{"id":"9432010008","district_id":"9432010","name":"LANGAM","postal_code":"99585"},{"id":"9432010009","district_id":"9432010","name":"PAMI","postal_code":"99585"},{"id":"9432010010","district_id":"9432010","name":"PIRANG","postal_code":"99585"},{"id":"9432010011","district_id":"9432010","name":"POHOLANGGEN","postal_code":"99585"},{"id":"9432010012","district_id":"9432010","name":"WANGKULAMSAFIANG","postal_code":"99585"},{"id":"9432010013","district_id":"9432010","name":"IRAREK","postal_code":"99585"},{"id":"9432010014","district_id":"9432010","name":"APOLONGSILI","postal_code":"38387"},{"id":"9432010015","district_id":"9432010","name":"SUNTAM","postal_code":"99585"},{"id":"9432010017","district_id":"9432010","name":"KAYO","postal_code":"99585"},{"id":"9432010018","district_id":"9432010","name":"PANAL","postal_code":"99585"},{"id":"9432010019","district_id":"9432010","name":"HILARIKI","postal_code":"99585"},{"id":"9432010021","district_id":"9432010","name":"HELEBOL","postal_code":"99585"},{"id":"9432010022","district_id":"9432010","name":"SILFAL","postal_code":"99585"},{"id":"9432010023","district_id":"9432010","name":"SUKALIMI","postal_code":"99585"},{"id":"9432010024","district_id":"9432010","name":"NOHONIL","postal_code":"99585"},{"id":"9432010025","district_id":"9432010","name":"LASIK","postal_code":"99585"},{"id":"9432010026","district_id":"9432010","name":"PANALULUN","postal_code":"99585"},{"id":"9432010027","district_id":"9432010","name":"WASUPAHIK","postal_code":"99585"},{"id":"9432010028","district_id":"9432010","name":"FOLONGSILI","postal_code":"99585"},{"id":"9432010029","district_id":"9432010","name":"AMULUK","postal_code":"99585"},{"id":"9432010030","district_id":"9432010","name":"YAHAMER","postal_code":"99585"}]