[{"id":"9432020002","district_id":"9432020","name":"YAREMA","postal_code":"99586"},{"id":"9432020003","district_id":"9432020","name":"APALAPSILI","postal_code":"99586"},{"id":"9432020005","district_id":"9432020","name":"ASILIKMA","postal_code":"99586"},{"id":"9432020006","district_id":"9432020","name":"TIKANO","postal_code":"99586"},{"id":"9432020007","district_id":"9432020","name":"NASINENA","postal_code":"99586"},{"id":"9432020008","district_id":"9432020","name":"EAL","postal_code":"99586"},{"id":"9432020009","district_id":"9432020","name":"HUKALOPUNU","postal_code":"99586"},{"id":"9432020010","district_id":"9432020","name":"ALIMULUK","postal_code":"70674"},{"id":"9432020011","district_id":"9432020","name":"PONG","postal_code":"99586"},{"id":"9432020012","district_id":"9432020","name":"MOLIYINGGI","postal_code":"99586"},{"id":"9432020013","district_id":"9432020","name":"SOBIKAMBUT","postal_code":"99586"},{"id":"9432020014","district_id":"9432020","name":"WIRALESI","postal_code":"34697"},{"id":"9432020015","district_id":"9432020","name":"HOUAOGALMA","postal_code":"22876"},{"id":"9432020016","district_id":"9432020","name":"FALUKWALILO","postal_code":"99586"},{"id":"9432020017","district_id":"9432020","name":"BENYAM","postal_code":"99586"},{"id":"9432020019","district_id":"9432020","name":"SABUALO","postal_code":"99586"},{"id":"9432020020","district_id":"9432020","name":"NANAHORUK","postal_code":"99586"},{"id":"9432020024","district_id":"9432020","name":"HUMALEN","postal_code":"99586"},{"id":"9432020026","district_id":"9432020","name":"MAKRIG","postal_code":"99586"},{"id":"9432020027","district_id":"9432020","name":"YAREMA SATU","postal_code":"99586"},{"id":"9432020029","district_id":"9432020","name":"SOMOHI","postal_code":"56365"}]