[{"id":"9433020003","district_id":"9433020","name":"UPAGA","postal_code":"98972"},{"id":"9433020004","district_id":"9433020","name":"MISIMAGA","postal_code":"98972"},{"id":"9433020005","district_id":"9433020","name":"GOME","postal_code":"98972"},{"id":"9433020006","district_id":"9433020","name":"MUNDIDOK","postal_code":"98972"},{"id":"9433020007","district_id":"9433020","name":"TUWANGGI","postal_code":"59582"},{"id":"9433020008","district_id":"9433020","name":"YAIKIMAKI","postal_code":"98972"},{"id":"9433020009","district_id":"9433020","name":"AGIYOME","postal_code":"98972"},{"id":"9433020010","district_id":"9433020","name":"YANGGERENOK","postal_code":"99557"},{"id":"9433020012","district_id":"9433020","name":"WAKO","postal_code":"98972"},{"id":"9433020013","district_id":"9433020","name":"TEGELOBAK","postal_code":"50664"},{"id":"9433020014","district_id":"9433020","name":"NINGGABUMA","postal_code":"98315"},{"id":"9433020015","district_id":"9433020","name":"KELANUNGIN","postal_code":"20881"},{"id":"9433020016","district_id":"9433020","name":"YOGGOLAWI","postal_code":"98911"}]