[{"id":"9433040003","district_id":"9433040","name":"YAURIA \/ WAMBRU","postal_code":"98973"},{"id":"9433040007","district_id":"9433040","name":"GIGOBAK \/ GOGOBAK","postal_code":"98973"},{"id":"9433040009","district_id":"9433040","name":"KUMIKOMO","postal_code":"51273"},{"id":"9433040010","district_id":"9433040","name":"ISKALEBUK \/ KAWIBUT","postal_code":"98462"},{"id":"9433040012","district_id":"9433040","name":"KELEMAME","postal_code":"98973"},{"id":"9433040013","district_id":"9433040","name":"GIGOBAK","postal_code":"69174"},{"id":"9433040014","district_id":"9433040","name":"GIGOBAK II","postal_code":"98973"},{"id":"9433040015","district_id":"9433040","name":"GINGGA BARU","postal_code":"99569"},{"id":"9433040016","district_id":"9433040","name":"KOLORIBANAK","postal_code":"94654"},{"id":"9433040017","district_id":"9433040","name":"MOGULU","postal_code":"98373"},{"id":"9433040018","district_id":"9433040","name":"PASIR PUTIH","postal_code":"90984"},{"id":"9433040019","district_id":"9433040","name":"TENONGGAME","postal_code":"99557"}]