[{"id":"9434070001","district_id":"9434070","name":"BOGOYA TEUGI","postal_code":"58254"},{"id":"9434070002","district_id":"9434070","name":"BOTUMOMA","postal_code":"96264"},{"id":"9434070003","district_id":"9434070","name":"PUWETA II","postal_code":"98162"},{"id":"9434070004","district_id":"9434070","name":"MATADI","postal_code":"98862"},{"id":"9434070005","district_id":"9434070","name":"PUWETA I","postal_code":"98162"},{"id":"9434070006","district_id":"9434070","name":"DIGIKEBO","postal_code":"98862"},{"id":"9434070007","district_id":"9434070","name":"OBAIBEGA","postal_code":"98862"},{"id":"9434070008","district_id":"9434070","name":"POUWOUDA","postal_code":"98862"},{"id":"9434070009","district_id":"9434070","name":"UGIKEBO","postal_code":"98862"},{"id":"9434070010","district_id":"9434070","name":"TUWAIDA","postal_code":"98862"},{"id":"9434070011","district_id":"9434070","name":"UGIKAGOUDA","postal_code":"98862"},{"id":"9434070012","district_id":"9434070","name":"MAKIDIMI \/ YEPO","postal_code":"98862"}]