[{"id":"9435040001","district_id":"9435040","name":"AGISIGA","postal_code":"98783"},{"id":"9435040002","district_id":"9435040","name":"TOUSIGA","postal_code":"97454"},{"id":"9435040005","district_id":"9435040","name":"UNABUNDAGA","postal_code":"98783"},{"id":"9435040006","district_id":"9435040","name":"MBAMOGO","postal_code":"22164"},{"id":"9435040007","district_id":"9435040","name":"SOALI","postal_code":"97761"},{"id":"9435040008","district_id":"9435040","name":"DANGGOA","postal_code":"83618"},{"id":"9435040009","district_id":"9435040","name":"TOMOSIGA","postal_code":"97791"},{"id":"9435040010","district_id":"9435040","name":"KOMBOGISIGA","postal_code":"98783"},{"id":"9435040011","district_id":"9435040","name":"TEMBAGE","postal_code":"99967"},{"id":"9435040012","district_id":"9435040","name":"DAPIAGA","postal_code":"98783"},{"id":"9435040013","district_id":"9435040","name":"BIGASIGA","postal_code":"56553"},{"id":"9435040014","district_id":"9435040","name":"JANASIGA","postal_code":"24582"}]