[{"id":"9435050001","district_id":"9435050","name":"DANGGATADI","postal_code":"98784"},{"id":"9435050002","district_id":"9435050","name":"BIANDOGA","postal_code":"98784"},{"id":"9435050003","district_id":"9435050","name":"BUGALAGA","postal_code":"98784"},{"id":"9435050004","district_id":"9435050","name":"YAGAITO","postal_code":"99569"},{"id":"9435050005","district_id":"9435050","name":"KALAWA","postal_code":"74812"},{"id":"9435050006","district_id":"9435050","name":"YANEI","postal_code":"99569"},{"id":"9435050007","district_id":"9435050","name":"PAGAMBA","postal_code":"77453"},{"id":"9435050008","district_id":"9435050","name":"ULAR MERAH","postal_code":"96181"},{"id":"9435050009","district_id":"9435050","name":"NDABATADI","postal_code":"84173"},{"id":"9435050010","district_id":"9435050","name":"ANEYA\/GITAWA","postal_code":"98784"},{"id":"9435050011","district_id":"9435050","name":"EDAGITADI","postal_code":"99874"},{"id":"9435050012","district_id":"9435050","name":"KIGITADI","postal_code":"98784"},{"id":"9435050013","district_id":"9435050","name":"MAODAGI","postal_code":"94761"},{"id":"9435050014","district_id":"9435050","name":"MANIWO","postal_code":"98362"},{"id":"9435050015","district_id":"9435050","name":"MBIATAPA","postal_code":"98784"}]