[{"id":"9435010001","district_id":"9435010","name":"MAPA","postal_code":"98767"},{"id":"9435010002","district_id":"9435010","name":"BILAI DUA","postal_code":"35155"},{"id":"9435010003","district_id":"9435010","name":"MAYA","postal_code":"98767"},{"id":"9435010004","district_id":"9435010","name":"DEGESIGA","postal_code":"98661"},{"id":"9435010005","district_id":"9435010","name":"POGAPA","postal_code":"98767"},{"id":"9435010006","district_id":"9435010","name":"BILAI I","postal_code":"98767"},{"id":"9435010007","district_id":"9435010","name":"ZOMBAN DOGA","postal_code":"99566"},{"id":"9435010008","district_id":"9435010","name":"KOBAE","postal_code":"97665"},{"id":"9435010009","district_id":"9435010","name":"SELEMAMA","postal_code":"20374"},{"id":"9435010010","district_id":"9435010","name":"KENDETAPA","postal_code":"80561"},{"id":"9435010011","district_id":"9435010","name":"HIYABU","postal_code":"98767"},{"id":"9435010012","district_id":"9435010","name":"BONOGO","postal_code":"98769"},{"id":"9435010013","district_id":"9435010","name":"OGEAPA","postal_code":"34558"},{"id":"9435010014","district_id":"9435010","name":"ENGGANENGA","postal_code":"98767"},{"id":"9435010015","district_id":"9435010","name":"AGAPA","postal_code":"98767"},{"id":"9435010016","district_id":"9435010","name":"WAIAGEPA","postal_code":"97793"},{"id":"9435010017","district_id":"9435010","name":"BUBISIGA","postal_code":"99766"},{"id":"9435010018","district_id":"9435010","name":"HUGITAPA","postal_code":"99571"}]