[{"id":"9436030001","district_id":"9436030","name":"BOMOU","postal_code":"98853"},{"id":"9436030002","district_id":"9436030","name":"BOMOU II","postal_code":"98764"},{"id":"9436030003","district_id":"9436030","name":"YABA","postal_code":"99571"},{"id":"9436030004","district_id":"9436030","name":"WAGHETE I","postal_code":"99587"},{"id":"9436030005","district_id":"9436030","name":"WAGHETE II","postal_code":"99587"},{"id":"9436030006","district_id":"9436030","name":"OKOMOKEBO","postal_code":"93562"},{"id":"9436030007","district_id":"9436030","name":"UGIYA","postal_code":"98768"},{"id":"9436030008","district_id":"9436030","name":"ONEIBO","postal_code":"93563"},{"id":"9436030009","district_id":"9436030","name":"MOTANO","postal_code":"93875"},{"id":"9436030010","district_id":"9436030","name":"BOMOU III","postal_code":"98764"},{"id":"9436030011","district_id":"9436030","name":"AMAGO","postal_code":"98764"},{"id":"9436030013","district_id":"9436030","name":"YABA II","postal_code":"99571"},{"id":"9436030014","district_id":"9436030","name":"MUGOUDA","postal_code":"23681"},{"id":"9436030015","district_id":"9436030","name":"ATOUDA","postal_code":"98764"},{"id":"9436030016","district_id":"9436030","name":"IKIYAUWO","postal_code":"98357"},{"id":"9436030018","district_id":"9436030","name":"OKOMOTADI","postal_code":"93562"},{"id":"9436030019","district_id":"9436030","name":"BUWOUDIMI","postal_code":"98764"},{"id":"9436030020","district_id":"9436030","name":"IBODIYO","postal_code":"97652"}]