[{"id":"9436020001","district_id":"9436020","name":"WIDUWAKIYA","postal_code":"52314"},{"id":"9436020002","district_id":"9436020","name":"DIGIBAGATA","postal_code":"98764"},{"id":"9436020003","district_id":"9436020","name":"AYATEI","postal_code":"98764"},{"id":"9436020004","district_id":"9436020","name":"DIYAI","postal_code":"98764"},{"id":"9436020005","district_id":"9436020","name":"ONAGO","postal_code":"98764"},{"id":"9436020006","district_id":"9436020","name":"TENEDAGI","postal_code":"98764"},{"id":"9436020007","district_id":"9436020","name":"GAKOKEBO","postal_code":"98727"},{"id":"9436020009","district_id":"9436020","name":"YINUDOBA","postal_code":"99561"},{"id":"9436020010","district_id":"9436020","name":"PIYAKEDIMI","postal_code":"98764"},{"id":"9436020011","district_id":"9436020","name":"WAGOMANI","postal_code":"98764"},{"id":"9436020012","district_id":"9436020","name":"DEMAGO","postal_code":"59263"},{"id":"9436020013","district_id":"9436020","name":"YIPAI","postal_code":"99561"},{"id":"9436020014","district_id":"9436020","name":"DIYAI II","postal_code":"98764"},{"id":"9436020015","district_id":"9436020","name":"ONAGO II","postal_code":"98764"},{"id":"9436020016","district_id":"9436020","name":"MEYEPA","postal_code":"98365"},{"id":"9436020017","district_id":"9436020","name":"KOGEMANI","postal_code":"98711"},{"id":"9436020018","district_id":"9436020","name":"YAGU","postal_code":"98853"},{"id":"9436020019","district_id":"9436020","name":"OBAI","postal_code":"99376"},{"id":"9436020020","district_id":"9436020","name":"EPANAI","postal_code":"98763"},{"id":"9436020021","district_id":"9436020","name":"DIGIKOTU","postal_code":"98862"},{"id":"9436020022","district_id":"9436020","name":"MAATADI","postal_code":"95238"}]